<?xml version="1.0"?>
<osm version="0.6" upload="false" generator="uvmogr2osm">
<node id="-1" lat="45.52087436" lon="-122.540611932" visible="true"><tag k="addr:housenumber" v="221"/><tag k="addr:postcode" v="97216"/><tag k="addr:city" v="Portland"/><tag k="addr:street" v="Southeast 119th Avenue"/></node>
<node id="-3" lat="45.520187625" lon="-122.540817327" visible="true"><tag k="addr:housenumber" v="11852"/><tag k="addr:postcode" v="97216"/><tag k="addr:city" v="Portland"/><tag k="addr:street" v="Southeast Pine Street"/></node>
<node id="-5" lat="45.523621712" lon="-122.539430455" visible="true"><tag k="addr:housenumber" v="125"/><tag k="addr:postcode" v="97220"/><tag k="addr:city" v="Portland"/><tag k="addr:street" v="Northeast 120th Avenue"/></node>
<node id="-7" lat="45.519908676" lon="-122.541862211" visible="true"><tag k="addr:housenumber" v="11755"/><tag k="addr:postcode" v="97216"/><tag k="addr:city" v="Portland"/><tag k="addr:street" v="Southeast Oak Street"/></node>
<node id="-9" lat="45.519252369" lon="-122.538566948" visible="true"><tag k="addr:housenumber" v="12045"/><tag k="addr:postcode" v="97216"/><tag k="addr:city" v="Portland"/><tag k="addr:street" v="Southeast Stark Street"/></node>
<node id="-12" lat="45.525959984" lon="-122.53880776" visible="true"><tag k="addr:housenumber" v="12114"/><tag k="addr:postcode" v="97220"/><tag k="addr:city" v="Portland"/><tag k="addr:street" v="Northeast Glisan Street"/></node>
<node id="-15" lat="45.525957786" lon="-122.539615112" visible="true"><tag k="addr:housenumber" v="11982"/><tag k="addr:postcode" v="97220"/><tag k="addr:city" v="Portland"/><tag k="addr:street" v="Northeast Glisan Street"/></node>
<node id="-19" lat="45.522252505" lon="-122.542506775" visible="true"><tag k="addr:housenumber" v="11722"/><tag k="addr:postcode" v="97216"/><tag k="addr:city" v="Portland"/><tag k="addr:street" v="East Burnside Street"/></node>
<node id="-23" lat="45.52366345" lon="-122.539737108" visible="true"><tag k="addr:housenumber" v="11918"/><tag k="addr:postcode" v="97220"/><tag k="addr:city" v="Portland"/><tag k="addr:street" v="Northeast Davis Street"/></node>
<node id="-24" lat="45.523683701" lon="-122.539622093" visible="true"><tag k="addr:housenumber" v="11918"/><tag k="addr:postcode" v="97220"/><tag k="addr:city" v="Portland"/><tag k="addr:street" v="Northeast Davis Street"/></node>
<node id="-25" lat="45.525147195" lon="-122.546109198" visible="true"><tag k="addr:housenumber" v="11300"/><tag k="addr:postcode" v="97220"/><tag k="addr:city" v="Portland"/><tag k="addr:street" v="Northeast Flanders Street"/></node>
<node id="-26" lat="45.520536099" lon="-122.541607746" visible="true"><tag k="addr:housenumber" v="11805"/><tag k="addr:postcode" v="97216"/><tag k="addr:city" v="Portland"/><tag k="addr:street" v="Southeast Pine Street"/></node>
<node id="-27" lat="45.520562812" lon="-122.541367412" visible="true"><tag k="addr:housenumber" v="11821"/><tag k="addr:postcode" v="97216"/><tag k="addr:city" v="Portland"/><tag k="addr:street" v="Southeast Pine Street"/></node>
<node id="-28" lat="45.520564372" lon="-122.541292448" visible="true"><tag k="addr:housenumber" v="11837"/><tag k="addr:postcode" v="97216"/><tag k="addr:city" v="Portland"/><tag k="addr:street" v="Southeast Pine Street"/></node>
<node id="-29" lat="45.520503055" lon="-122.540913079" visible="true"><tag k="addr:housenumber" v="11869"/><tag k="addr:postcode" v="97216"/><tag k="addr:city" v="Portland"/><tag k="addr:street" v="Southeast Pine Street"/></node>
<node id="-30" lat="45.520577664" lon="-122.540697118" visible="true"><tag k="addr:housenumber" v="11885"/><tag k="addr:postcode" v="97216"/><tag k="addr:city" v="Portland"/><tag k="addr:street" v="Southeast Pine Street"/></node>
<node id="-31" lat="45.520545588" lon="-122.540553137" visible="true"><tag k="addr:housenumber" v="11897"/><tag k="addr:postcode" v="97216"/><tag k="addr:city" v="Portland"/><tag k="addr:street" v="Southeast Pine Street"/></node>
<node id="-32" lat="45.519965069" lon="-122.54274909" visible="true"><tag k="addr:housenumber" v="330"/><tag k="addr:postcode" v="97216"/><tag k="addr:city" v="Portland"/><tag k="addr:street" v="Southeast 117th Avenue"/></node>
<node id="-33" lat="45.519811047" lon="-122.539500708" visible="true"><tag k="addr:housenumber" v="11933"/><tag k="addr:postcode" v="97216"/><tag k="addr:city" v="Portland"/><tag k="addr:street" v="Southeast Oak Street"/></node>
<node id="-34" lat="45.519171295" lon="-122.542437766" visible="true"><tag k="addr:housenumber" v="11717"/><tag k="addr:postcode" v="97216"/><tag k="addr:city" v="Portland"/><tag k="addr:street" v="Southeast Stark Street"/></node>
<node id="-35" lat="45.523691542" lon="-122.539630763" visible="true"><tag k="addr:housenumber" v="11927"/><tag k="addr:postcode" v="97220"/><tag k="addr:city" v="Portland"/><tag k="addr:street" v="Northeast Couch Street"/></node>
<node id="-36" lat="45.523658648" lon="-122.539767827" visible="true"><tag k="addr:housenumber" v="11927"/><tag k="addr:postcode" v="97220"/><tag k="addr:city" v="Portland"/><tag k="addr:street" v="Northeast Couch Street"/></node>
<node id="-37" lat="45.525186392" lon="-122.546229628" visible="true"><tag k="addr:housenumber" v="11330"/><tag k="addr:postcode" v="97220"/><tag k="addr:city" v="Portland"/><tag k="addr:street" v="Northeast Flanders Street"/></node>
<node id="-38" lat="45.520536598" lon="-122.541574314" visible="true"><tag k="addr:housenumber" v="11809"/><tag k="addr:postcode" v="97216"/><tag k="addr:city" v="Portland"/><tag k="addr:street" v="Southeast Pine Street"/></node>
<node id="-39" lat="45.520548345" lon="-122.541368299" visible="true"><tag k="addr:housenumber" v="11825"/><tag k="addr:postcode" v="97216"/><tag k="addr:city" v="Portland"/><tag k="addr:street" v="Southeast Pine Street"/></node>
<node id="-40" lat="45.520519576" lon="-122.541319069" visible="true"><tag k="addr:housenumber" v="11841"/><tag k="addr:postcode" v="97216"/><tag k="addr:city" v="Portland"/><tag k="addr:street" v="Southeast Pine Street"/></node>
<node id="-41" lat="45.520548434" lon="-122.540904061" visible="true"><tag k="addr:housenumber" v="11873"/><tag k="addr:postcode" v="97216"/><tag k="addr:city" v="Portland"/><tag k="addr:street" v="Southeast Pine Street"/></node>
<node id="-42" lat="45.520566399" lon="-122.540780652" visible="true"><tag k="addr:housenumber" v="11889"/><tag k="addr:postcode" v="97216"/><tag k="addr:city" v="Portland"/><tag k="addr:street" v="Southeast Pine Street"/></node>
<node id="-43" lat="45.520558545" lon="-122.540531854" visible="true"><tag k="addr:housenumber" v="11899"/><tag k="addr:postcode" v="97216"/><tag k="addr:city" v="Portland"/><tag k="addr:street" v="Southeast Pine Street"/></node>
<node id="-44" lat="45.519850778" lon="-122.542728656" visible="true"><tag k="addr:housenumber" v="340"/><tag k="addr:postcode" v="97216"/><tag k="addr:city" v="Portland"/><tag k="addr:street" v="Southeast 117th Avenue"/></node>
<node id="-45" lat="45.51987731" lon="-122.53942973" visible="true"><tag k="addr:housenumber" v="11937"/><tag k="addr:postcode" v="97216"/><tag k="addr:city" v="Portland"/><tag k="addr:street" v="Southeast Oak Street"/></node>
<node id="-46" lat="45.51912869" lon="-122.542478831" visible="true"><tag k="addr:housenumber" v="11721"/><tag k="addr:postcode" v="97216"/><tag k="addr:city" v="Portland"/><tag k="addr:street" v="Southeast Stark Street"/></node>
<node id="-47" lat="45.523740837" lon="-122.539595814" visible="true"><tag k="addr:housenumber" v="11932"/><tag k="addr:postcode" v="97220"/><tag k="addr:city" v="Portland"/><tag k="addr:street" v="Northeast Davis Street"/></node>
<node id="-48" lat="45.523666294" lon="-122.539750392" visible="true"><tag k="addr:housenumber" v="11932"/><tag k="addr:postcode" v="97220"/><tag k="addr:city" v="Portland"/><tag k="addr:street" v="Northeast Davis Street"/></node>
</osm>