<?xml version="1.0"?>
<osm version="0.6" upload="false" generator="uvmogr2osm">
<node id="-1" lat="45.546618705" lon="-122.673144312" visible="true"><tag k="addr:housenumber" v="3216"/><tag k="addr:postcode" v="97227"/><tag k="addr:city" v="Portland"/><tag k="addr:street" v="North Borthwick Avenue"/></node>
<node id="-2" lat="45.546617889" lon="-122.67314657" visible="true"><tag k="addr:housenumber" v="3218"/><tag k="addr:postcode" v="97227"/><tag k="addr:city" v="Portland"/><tag k="addr:street" v="North Borthwick Avenue"/></node>
<node id="-3" lat="45.546440629" lon="-122.676371332" visible="true"><tag k="addr:housenumber" v="935"/><tag k="addr:postcode" v="97227"/><tag k="addr:city" v="Portland"/><tag k="addr:street" v="North Cook Street"/></node>
<node id="-4" lat="45.54644208" lon="-122.676380652" visible="true"><tag k="addr:housenumber" v="941"/><tag k="addr:postcode" v="97227"/><tag k="addr:city" v="Portland"/><tag k="addr:street" v="North Cook Street"/></node>
<node id="-5" lat="45.546501647" lon="-122.680955619" visible="true"><tag k="addr:housenumber" v="3265"/><tag k="addr:postcode" v="97227"/><tag k="addr:city" v="Portland"/><tag k="addr:street" v="North Interstate Avenue"/></node>
<node id="-6" lat="45.546443607" lon="-122.676378861" visible="true"><tag k="addr:housenumber" v="3220"/><tag k="addr:postcode" v="97227"/><tag k="addr:city" v="Portland"/><tag k="addr:street" v="North Michigan Avenue"/></node>
<node id="-7" lat="45.547692469" lon="-122.676887914" visible="true"><tag k="addr:housenumber" v="3425"/><tag k="addr:postcode" v="97227"/><tag k="addr:city" v="Portland"/><tag k="addr:street" v="North Michigan Avenue"/></node>
<node id="-8" lat="45.54768392" lon="-122.676884565" visible="true"><tag k="addr:housenumber" v="3427"/><tag k="addr:postcode" v="97227"/><tag k="addr:city" v="Portland"/><tag k="addr:street" v="North Michigan Avenue"/></node>
<node id="-9" lat="45.54798184" lon="-122.676936863" visible="true"><tag k="addr:housenumber" v="3501"/><tag k="addr:postcode" v="97227"/><tag k="addr:city" v="Portland"/><tag k="addr:street" v="North Michigan Avenue"/></node>
<node id="-10" lat="45.547985061" lon="-122.676941799" visible="true"><tag k="addr:housenumber" v="3505"/><tag k="addr:postcode" v="97227"/><tag k="addr:city" v="Portland"/><tag k="addr:street" v="North Michigan Avenue"/></node>
<node id="-11" lat="45.548081275" lon="-122.676944705" visible="true"><tag k="addr:housenumber" v="3509"/><tag k="addr:postcode" v="97227"/><tag k="addr:city" v="Portland"/><tag k="addr:street" v="North Michigan Avenue"/></node>
<node id="-12" lat="45.5480802" lon="-122.676938768" visible="true"><tag k="addr:housenumber" v="3511"/><tag k="addr:postcode" v="97227"/><tag k="addr:city" v="Portland"/><tag k="addr:street" v="North Michigan Avenue"/></node>
<node id="-13" lat="45.541791539" lon="-122.676053218" visible="true"><tag k="addr:housenumber" v="2345"/><tag k="addr:postcode" v="97227"/><tag k="addr:city" v="Portland"/><tag k="addr:street" v="North Mississippi Avenue"/></node>
<node id="-14" lat="45.539857866" lon="-122.67548662" visible="true"><tag k="addr:housenumber" v="2406"/><tag k="addr:postcode" v="97227"/><tag k="addr:city" v="Portland"/><tag k="addr:street" v="North Mississippi Avenue"/></node>
<node id="-15" lat="45.539981365" lon="-122.675483644" visible="true"><tag k="addr:housenumber" v="2410"/><tag k="addr:postcode" v="97227"/><tag k="addr:city" v="Portland"/><tag k="addr:street" v="North Mississippi Avenue"/></node>
<node id="-16" lat="45.54179064" lon="-122.676059734" visible="true"><tag k="addr:housenumber" v="2645"/><tag k="addr:postcode" v="97227"/><tag k="addr:city" v="Portland"/><tag k="addr:street" v="North Mississippi Avenue"/></node>
<node id="-17" lat="45.547532901" lon="-122.677454452" visible="true"><tag k="addr:housenumber" v="3410"/><tag k="addr:postcode" v="97227"/><tag k="addr:city" v="Portland"/><tag k="addr:street" v="North Missouri Avenue"/></node>
<node id="-18" lat="45.547536588" lon="-122.677453433" visible="true"><tag k="addr:housenumber" v="3412"/><tag k="addr:postcode" v="97227"/><tag k="addr:city" v="Portland"/><tag k="addr:street" v="North Missouri Avenue"/></node>
<node id="-19" lat="45.539378261" lon="-122.6736697" visible="true"><tag k="addr:housenumber" v="700"/><tag k="addr:postcode" v="97227"/><tag k="addr:city" v="Portland"/><tag k="addr:street" v="North Page Street"/></node>
<node id="-20" lat="45.539375092" lon="-122.673670129" visible="true"><tag k="addr:housenumber" v="740"/><tag k="addr:postcode" v="97227"/><tag k="addr:city" v="Portland"/><tag k="addr:street" v="North Page Street"/></node>
<node id="-21" lat="45.53916751" lon="-122.678989394" visible="true"><tag k="addr:housenumber" v="2204"/><tag k="addr:postcode" v="97227"/><tag k="addr:city" v="Portland"/><tag k="addr:street" v="North Randolph Avenue"/></node>
<node id="-22" lat="45.539169268" lon="-122.67898337" visible="true"><tag k="addr:housenumber" v="2400"/><tag k="addr:postcode" v="97227"/><tag k="addr:city" v="Portland"/><tag k="addr:street" v="North Randolph Avenue"/></node>
<node id="-23" lat="45.539168765" lon="-122.678984589" visible="true"><tag k="addr:housenumber" v="2410"/><tag k="addr:postcode" v="97227"/><tag k="addr:city" v="Portland"/><tag k="addr:street" v="North Randolph Avenue"/></node>
<node id="-24" lat="45.539171221" lon="-122.678983304" visible="true"><tag k="addr:housenumber" v="1133"/><tag k="addr:postcode" v="97227"/><tag k="addr:city" v="Portland"/><tag k="addr:street" v="North River Street"/></node>
<node id="-25" lat="45.539165272" lon="-122.678984895" visible="true"><tag k="addr:housenumber" v="1135"/><tag k="addr:postcode" v="97227"/><tag k="addr:city" v="Portland"/><tag k="addr:street" v="North River Street"/></node>
<node id="-26" lat="45.537578297" lon="-122.67738648" visible="true"><tag k="addr:housenumber" v="927"/><tag k="addr:postcode" v="97227"/><tag k="addr:city" v="Portland"/><tag k="addr:street" v="North River Street"/></node>
<node id="-27" lat="45.537587602" lon="-122.677388468" visible="true"><tag k="addr:housenumber" v="930"/><tag k="addr:postcode" v="97227"/><tag k="addr:city" v="Portland"/><tag k="addr:street" v="North River Street"/></node>
<node id="-28" lat="45.539850638" lon="-122.67247667" visible="true"><tag k="addr:housenumber" v="2312"/><tag k="addr:postcode" v="97227"/><tag k="addr:city" v="Portland"/><tag k="addr:street" v="North Ross Avenue"/></node>
<node id="-29" lat="45.539849354" lon="-122.672469273" visible="true"><tag k="addr:housenumber" v="2326"/><tag k="addr:postcode" v="97227"/><tag k="addr:city" v="Portland"/><tag k="addr:street" v="North Ross Avenue"/></node>
<node id="-30" lat="45.53937625" lon="-122.673669116" visible="true"><tag k="addr:housenumber" v="703"/><tag k="addr:postcode" v="97227"/><tag k="addr:city" v="Portland"/><tag k="addr:street" v="North Thompson Street"/></node>
<node id="-31" lat="45.54650277" lon="-122.680955241" visible="true"><tag k="addr:housenumber" v="3265"/><tag k="addr:postcode" v="97227"/><tag k="addr:city" v="Portland"/><tag k="addr:street" v="North Trenton Street"/></node>
<node id="-32" lat="45.536062948" lon="-122.655230068" visible="true"><tag k="addr:housenumber" v="1818"/><tag k="addr:postcode" v="97212"/><tag k="addr:city" v="Portland"/><tag k="addr:street" v="Northeast 10th Avenue"/></node>
<node id="-33" lat="45.536057707" lon="-122.655231564" visible="true"><tag k="addr:housenumber" v="1820"/><tag k="addr:postcode" v="97212"/><tag k="addr:city" v="Portland"/><tag k="addr:street" v="Northeast 10th Avenue"/></node>
<node id="-34" lat="45.536708566" lon="-122.655326285" visible="true"><tag k="addr:housenumber" v="1910"/><tag k="addr:postcode" v="97212"/><tag k="addr:city" v="Portland"/><tag k="addr:street" v="Northeast 10th Avenue"/></node>
<node id="-35" lat="45.536703145" lon="-122.655325605" visible="true"><tag k="addr:housenumber" v="1912"/><tag k="addr:postcode" v="97212"/><tag k="addr:city" v="Portland"/><tag k="addr:street" v="Northeast 10th Avenue"/></node>
<node id="-36" lat="45.536706751" lon="-122.655329472" visible="true"><tag k="addr:housenumber" v="1914"/><tag k="addr:postcode" v="97212"/><tag k="addr:city" v="Portland"/><tag k="addr:street" v="Northeast 10th Avenue"/></node>
<node id="-37" lat="45.536706664" lon="-122.655326545" visible="true"><tag k="addr:housenumber" v="1916"/><tag k="addr:postcode" v="97212"/><tag k="addr:city" v="Portland"/><tag k="addr:street" v="Northeast 10th Avenue"/></node>
<node id="-38" lat="45.536792211" lon="-122.655850638" visible="true"><tag k="addr:housenumber" v="1917"/><tag k="addr:postcode" v="97212"/><tag k="addr:city" v="Portland"/><tag k="addr:street" v="Northeast 10th Avenue"/></node>
<node id="-39" lat="45.536786277" lon="-122.655858785" visible="true"><tag k="addr:housenumber" v="1919"/><tag k="addr:postcode" v="97212"/><tag k="addr:city" v="Portland"/><tag k="addr:street" v="Northeast 10th Avenue"/></node>
<node id="-40" lat="45.536911043" lon="-122.655857466" visible="true"><tag k="addr:housenumber" v="1927"/><tag k="addr:postcode" v="97212"/><tag k="addr:city" v="Portland"/><tag k="addr:street" v="Northeast 10th Avenue"/></node>
<node id="-41" lat="45.536914032" lon="-122.655857127" visible="true"><tag k="addr:housenumber" v="1929"/><tag k="addr:postcode" v="97212"/><tag k="addr:city" v="Portland"/><tag k="addr:street" v="Northeast 10th Avenue"/></node>
<node id="-42" lat="45.537895594" lon="-122.655225299" visible="true"><tag k="addr:housenumber" v="2122"/><tag k="addr:postcode" v="97212"/><tag k="addr:city" v="Portland"/><tag k="addr:street" v="Northeast 10th Avenue"/></node>
<node id="-43" lat="45.537890474" lon="-122.655224328" visible="true"><tag k="addr:housenumber" v="2124"/><tag k="addr:postcode" v="97212"/><tag k="addr:city" v="Portland"/><tag k="addr:street" v="Northeast 10th Avenue"/></node>
<node id="-44" lat="45.540826675" lon="-122.655827806" visible="true"><tag k="addr:housenumber" v="2517"/><tag k="addr:postcode" v="97212"/><tag k="addr:city" v="Portland"/><tag k="addr:street" v="Northeast 10th Avenue"/></node>
<node id="-45" lat="45.540836278" lon="-122.655828828" visible="true"><tag k="addr:housenumber" v="254"/><tag k="addr:postcode" v="97232"/><tag k="addr:city" v="Portland"/><tag k="addr:street" v="Northeast 10th Avenue"/></node>
<node id="-46" lat="45.537173717" lon="-122.65473779" visible="true"><tag k="addr:housenumber" v="2017"/><tag k="addr:postcode" v="97212"/><tag k="addr:city" v="Portland"/><tag k="addr:street" v="Northeast 11th Avenue"/></node>
<node id="-47" lat="45.53717401" lon="-122.654736184" visible="true"><tag k="addr:housenumber" v="2019"/><tag k="addr:postcode" v="97212"/><tag k="addr:city" v="Portland"/><tag k="addr:street" v="Northeast 11th Avenue"/></node>
<node id="-48" lat="45.538443034" lon="-122.654207168" visible="true"><tag k="addr:housenumber" v="2212"/><tag k="addr:postcode" v="97212"/><tag k="addr:city" v="Portland"/><tag k="addr:street" v="Northeast 11th Avenue"/></node>
<node id="-49" lat="45.538444589" lon="-122.654207935" visible="true"><tag k="addr:housenumber" v="2216"/><tag k="addr:postcode" v="97212"/><tag k="addr:city" v="Portland"/><tag k="addr:street" v="Northeast 11th Avenue"/></node>
<node id="-50" lat="45.539200882" lon="-122.654245935" visible="true"><tag k="addr:housenumber" v="2304"/><tag k="addr:postcode" v="97212"/><tag k="addr:city" v="Portland"/><tag k="addr:street" v="Northeast 11th Avenue"/></node>
<node id="-51" lat="45.539203426" lon="-122.654250951" visible="true"><tag k="addr:housenumber" v="2306"/><tag k="addr:postcode" v="97212"/><tag k="addr:city" v="Portland"/><tag k="addr:street" v="Northeast 11th Avenue"/></node>
<node id="-52" lat="45.539207207" lon="-122.654248489" visible="true"><tag k="addr:housenumber" v="2310"/><tag k="addr:postcode" v="97212"/><tag k="addr:city" v="Portland"/><tag k="addr:street" v="Northeast 11th Avenue"/></node>
<node id="-53" lat="45.53920566" lon="-122.654246913" visible="true"><tag k="addr:housenumber" v="2312"/><tag k="addr:postcode" v="97212"/><tag k="addr:city" v="Portland"/><tag k="addr:street" v="Northeast 11th Avenue"/></node>
<node id="-54" lat="45.539202784" lon="-122.654243191" visible="true"><tag k="addr:housenumber" v="2314"/><tag k="addr:postcode" v="97212"/><tag k="addr:city" v="Portland"/><tag k="addr:street" v="Northeast 11th Avenue"/></node>
<node id="-55" lat="45.53983427" lon="-122.654194785" visible="true"><tag k="addr:housenumber" v="2402"/><tag k="addr:postcode" v="97212"/><tag k="addr:city" v="Portland"/><tag k="addr:street" v="Northeast 11th Avenue"/></node>
<node id="-56" lat="45.539839433" lon="-122.654194653" visible="true"><tag k="addr:housenumber" v="2404"/><tag k="addr:postcode" v="97212"/><tag k="addr:city" v="Portland"/><tag k="addr:street" v="Northeast 11th Avenue"/></node>
<node id="-57" lat="45.540754813" lon="-122.654177577" visible="true"><tag k="addr:housenumber" v="2502"/><tag k="addr:postcode" v="97212"/><tag k="addr:city" v="Portland"/><tag k="addr:street" v="Northeast 11th Avenue"/></node>
<node id="-58" lat="45.540751853" lon="-122.654179425" visible="true"><tag k="addr:housenumber" v="2510"/><tag k="addr:postcode" v="97212"/><tag k="addr:city" v="Portland"/><tag k="addr:street" v="Northeast 11th Avenue"/></node>
<node id="-59" lat="45.540759018" lon="-122.654179695" visible="true"><tag k="addr:housenumber" v="2524"/><tag k="addr:postcode" v="97212"/><tag k="addr:city" v="Portland"/><tag k="addr:street" v="Northeast 11th Avenue"/></node>
<node id="-60" lat="45.535919763" lon="-122.653209016" visible="true"><tag k="addr:housenumber" v="1806"/><tag k="addr:postcode" v="97212"/><tag k="addr:city" v="Portland"/><tag k="addr:street" v="Northeast 12th Avenue"/></node>
<node id="-61" lat="45.53591963" lon="-122.653209918" visible="true"><tag k="addr:housenumber" v="1808"/><tag k="addr:postcode" v="97212"/><tag k="addr:city" v="Portland"/><tag k="addr:street" v="Northeast 12th Avenue"/></node>
<node id="-62" lat="45.536785787" lon="-122.653821495" visible="true"><tag k="addr:housenumber" v="1915"/><tag k="addr:postcode" v="97212"/><tag k="addr:city" v="Portland"/><tag k="addr:street" v="Northeast 12th Avenue"/></node>
<node id="-63" lat="45.536779187" lon="-122.653821314" visible="true"><tag k="addr:housenumber" v="1917"/><tag k="addr:postcode" v="97212"/><tag k="addr:city" v="Portland"/><tag k="addr:street" v="Northeast 12th Avenue"/></node>
<node id="-64" lat="45.536903969" lon="-122.653202097" visible="true"><tag k="addr:housenumber" v="1920"/><tag k="addr:postcode" v="97212"/><tag k="addr:city" v="Portland"/><tag k="addr:street" v="Northeast 12th Avenue"/></node>
<node id="-65" lat="45.536907204" lon="-122.653196634" visible="true"><tag k="addr:housenumber" v="1922"/><tag k="addr:postcode" v="97212"/><tag k="addr:city" v="Portland"/><tag k="addr:street" v="Northeast 12th Avenue"/></node>
<node id="-66" lat="45.537306278" lon="-122.653296279" visible="true"><tag k="addr:housenumber" v="2022"/><tag k="addr:postcode" v="97212"/><tag k="addr:city" v="Portland"/><tag k="addr:street" v="Northeast 12th Avenue"/></node>
<node id="-67" lat="45.537884378" lon="-122.653190054" visible="true"><tag k="addr:housenumber" v="2120"/><tag k="addr:postcode" v="97212"/><tag k="addr:city" v="Portland"/><tag k="addr:street" v="Northeast 12th Avenue"/></node>
<node id="-68" lat="45.537887853" lon="-122.653191302" visible="true"><tag k="addr:housenumber" v="2122"/><tag k="addr:postcode" v="97212"/><tag k="addr:city" v="Portland"/><tag k="addr:street" v="Northeast 12th Avenue"/></node>
<node id="-69" lat="45.537892675" lon="-122.653187303" visible="true"><tag k="addr:housenumber" v="2124"/><tag k="addr:postcode" v="97212"/><tag k="addr:city" v="Portland"/><tag k="addr:street" v="Northeast 12th Avenue"/></node>
<node id="-70" lat="45.53788507" lon="-122.653192441" visible="true"><tag k="addr:housenumber" v="2126"/><tag k="addr:postcode" v="97212"/><tag k="addr:city" v="Portland"/><tag k="addr:street" v="Northeast 12th Avenue"/></node>
<node id="-71" lat="45.537885406" lon="-122.653195167" visible="true"><tag k="addr:housenumber" v="2128"/><tag k="addr:postcode" v="97212"/><tag k="addr:city" v="Portland"/><tag k="addr:street" v="Northeast 12th Avenue"/></node>
<node id="-72" lat="45.539561497" lon="-122.653184208" visible="true"><tag k="addr:housenumber" v="2334"/><tag k="addr:postcode" v="97212"/><tag k="addr:city" v="Portland"/><tag k="addr:street" v="Northeast 12th Avenue"/></node>
<node id="-73" lat="45.53956202" lon="-122.653180565" visible="true"><tag k="addr:housenumber" v="2336"/><tag k="addr:postcode" v="97212"/><tag k="addr:city" v="Portland"/><tag k="addr:street" v="Northeast 12th Avenue"/></node>
<node id="-74" lat="45.539834678" lon="-122.653178034" visible="true"><tag k="addr:housenumber" v="2406"/><tag k="addr:postcode" v="97212"/><tag k="addr:city" v="Portland"/><tag k="addr:street" v="Northeast 12th Avenue"/></node>
<node id="-75" lat="45.539839008" lon="-122.653182815" visible="true"><tag k="addr:housenumber" v="2408"/><tag k="addr:postcode" v="97212"/><tag k="addr:city" v="Portland"/><tag k="addr:street" v="Northeast 12th Avenue"/></node>
<node id="-76" lat="45.540749159" lon="-122.653792789" visible="true"><tag k="addr:housenumber" v="2505"/><tag k="addr:postcode" v="97212"/><tag k="addr:city" v="Portland"/><tag k="addr:street" v="Northeast 12th Avenue"/></node>
<node id="-77" lat="45.540744589" lon="-122.6538001" visible="true"><tag k="addr:housenumber" v="2511"/><tag k="addr:postcode" v="97212"/><tag k="addr:city" v="Portland"/><tag k="addr:street" v="Northeast 12th Avenue"/></node>
<node id="-78" lat="45.540965437" lon="-122.653800019" visible="true"><tag k="addr:housenumber" v="2523"/><tag k="addr:postcode" v="97212"/><tag k="addr:city" v="Portland"/><tag k="addr:street" v="Northeast 12th Avenue"/></node>
<node id="-79" lat="45.540964303" lon="-122.653793034" visible="true"><tag k="addr:housenumber" v="2525"/><tag k="addr:postcode" v="97212"/><tag k="addr:city" v="Portland"/><tag k="addr:street" v="Northeast 12th Avenue"/></node>
<node id="-80" lat="45.536614794" lon="-122.652814076" visible="true"><tag k="addr:housenumber" v="1901"/><tag k="addr:postcode" v="97212"/><tag k="addr:city" v="Portland"/><tag k="addr:street" v="Northeast 13th Avenue"/></node>
<node id="-81" lat="45.536613021" lon="-122.652806281" visible="true"><tag k="addr:housenumber" v="1903"/><tag k="addr:postcode" v="97212"/><tag k="addr:city" v="Portland"/><tag k="addr:street" v="Northeast 13th Avenue"/></node>
<node id="-82" lat="45.536712911" lon="-122.652804555" visible="true"><tag k="addr:housenumber" v="1909"/><tag k="addr:postcode" v="97212"/><tag k="addr:city" v="Portland"/><tag k="addr:street" v="Northeast 13th Avenue"/></node>
<node id="-83" lat="45.536713866" lon="-122.652814065" visible="true"><tag k="addr:housenumber" v="1911"/><tag k="addr:postcode" v="97212"/><tag k="addr:city" v="Portland"/><tag k="addr:street" v="Northeast 13th Avenue"/></node>
<node id="-84" lat="45.538027988" lon="-122.65279653" visible="true"><tag k="addr:housenumber" v="2133"/><tag k="addr:postcode" v="97212"/><tag k="addr:city" v="Portland"/><tag k="addr:street" v="Northeast 13th Avenue"/></node>
<node id="-85" lat="45.538022168" lon="-122.652802972" visible="true"><tag k="addr:housenumber" v="2137"/><tag k="addr:postcode" v="97212"/><tag k="addr:city" v="Portland"/><tag k="addr:street" v="Northeast 13th Avenue"/></node>
<node id="-86" lat="45.538162897" lon="-122.652171755" visible="true"><tag k="addr:housenumber" v="2140"/><tag k="addr:postcode" v="97212"/><tag k="addr:city" v="Portland"/><tag k="addr:street" v="Northeast 13th Avenue"/></node>
<node id="-87" lat="45.538160873" lon="-122.652178542" visible="true"><tag k="addr:housenumber" v="2142"/><tag k="addr:postcode" v="97212"/><tag k="addr:city" v="Portland"/><tag k="addr:street" v="Northeast 13th Avenue"/></node>
<node id="-88" lat="45.538162056" lon="-122.652800479" visible="true"><tag k="addr:housenumber" v="2143"/><tag k="addr:postcode" v="97212"/><tag k="addr:city" v="Portland"/><tag k="addr:street" v="Northeast 13th Avenue"/></node>
<node id="-89" lat="45.538160488" lon="-122.652800954" visible="true"><tag k="addr:housenumber" v="2147"/><tag k="addr:postcode" v="97212"/><tag k="addr:city" v="Portland"/><tag k="addr:street" v="Northeast 13th Avenue"/></node>
<node id="-90" lat="45.540817157" lon="-122.652783214" visible="true"><tag k="addr:housenumber" v="2511"/><tag k="addr:postcode" v="97212"/><tag k="addr:city" v="Portland"/><tag k="addr:street" v="Northeast 13th Avenue"/></node>
<node id="-91" lat="45.540821287" lon="-122.65278591" visible="true"><tag k="addr:housenumber" v="2517"/><tag k="addr:postcode" v="97212"/><tag k="addr:city" v="Portland"/><tag k="addr:street" v="Northeast 13th Avenue"/></node>
<node id="-92" lat="45.540955238" lon="-122.652785252" visible="true"><tag k="addr:housenumber" v="2525"/><tag k="addr:postcode" v="97212"/><tag k="addr:city" v="Portland"/><tag k="addr:street" v="Northeast 13th Avenue"/></node>
<node id="-93" lat="45.540957558" lon="-122.652778595" visible="true"><tag k="addr:housenumber" v="2527"/><tag k="addr:postcode" v="97212"/><tag k="addr:city" v="Portland"/><tag k="addr:street" v="Northeast 13th Avenue"/></node>
<node id="-94" lat="45.540975761" lon="-122.657229799" visible="true"><tag k="addr:housenumber" v="2522"/><tag k="addr:postcode" v="97212"/><tag k="addr:city" v="Portland"/><tag k="addr:street" v="Northeast 8th Avenue"/></node>
<node id="-95" lat="45.540975161" lon="-122.657227371" visible="true"><tag k="addr:housenumber" v="2528"/><tag k="addr:postcode" v="97212"/><tag k="addr:city" v="Portland"/><tag k="addr:street" v="Northeast 8th Avenue"/></node>
<node id="-96" lat="45.536643679" lon="-122.656243634" visible="true"><tag k="addr:housenumber" v="1904"/><tag k="addr:postcode" v="97212"/><tag k="addr:city" v="Portland"/><tag k="addr:street" v="Northeast 9th Avenue"/></node>
<node id="-97" lat="45.539438334" lon="-122.65622392" visible="true"><tag k="addr:housenumber" v="2324"/><tag k="addr:postcode" v="97212"/><tag k="addr:city" v="Portland"/><tag k="addr:street" v="Northeast 9th Avenue"/></node>
<node id="-98" lat="45.539432629" lon="-122.656230192" visible="true"><tag k="addr:housenumber" v="2326"/><tag k="addr:postcode" v="97212"/><tag k="addr:city" v="Portland"/><tag k="addr:street" v="Northeast 9th Avenue"/></node>
<node id="-99" lat="45.540699348" lon="-122.657233025" visible="true"><tag k="addr:housenumber" v="803"/><tag k="addr:postcode" v="97212"/><tag k="addr:city" v="Portland"/><tag k="addr:street" v="Northeast Brazee Street"/></node>
<node id="-100" lat="45.540696025" lon="-122.657228992" visible="true"><tag k="addr:housenumber" v="809"/><tag k="addr:postcode" v="97212"/><tag k="addr:city" v="Portland"/><tag k="addr:street" v="Northeast Brazee Street"/></node>
<node id="-101" lat="45.540694753" lon="-122.657235269" visible="true"><tag k="addr:housenumber" v="811"/><tag k="addr:postcode" v="97212"/><tag k="addr:city" v="Portland"/><tag k="addr:street" v="Northeast Brazee Street"/></node>
<node id="-102" lat="45.540700567" lon="-122.657234032" visible="true"><tag k="addr:housenumber" v="817"/><tag k="addr:postcode" v="97212"/><tag k="addr:city" v="Portland"/><tag k="addr:street" v="Northeast Brazee Street"/></node>
<node id="-103" lat="45.536703158" lon="-122.655133996" visible="true"><tag k="addr:housenumber" v="1009"/><tag k="addr:postcode" v="97212"/><tag k="addr:city" v="Portland"/><tag k="addr:street" v="Northeast Hancock Street"/></node>
<node id="-104" lat="45.536708047" lon="-122.655132722" visible="true"><tag k="addr:housenumber" v="1011"/><tag k="addr:postcode" v="97212"/><tag k="addr:city" v="Portland"/><tag k="addr:street" v="Northeast Hancock Street"/></node>
<node id="-105" lat="45.536332959" lon="-122.6548402" visible="true"><tag k="addr:housenumber" v="1022"/><tag k="addr:postcode" v="97212"/><tag k="addr:city" v="Portland"/><tag k="addr:street" v="Northeast Hancock Street"/></node>
<node id="-106" lat="45.536332143" lon="-122.654844254" visible="true"><tag k="addr:housenumber" v="1026"/><tag k="addr:postcode" v="97212"/><tag k="addr:city" v="Portland"/><tag k="addr:street" v="Northeast Hancock Street"/></node>
<node id="-107" lat="45.536327614" lon="-122.654845158" visible="true"><tag k="addr:housenumber" v="1036"/><tag k="addr:postcode" v="97212"/><tag k="addr:city" v="Portland"/><tag k="addr:street" v="Northeast Hancock Street"/></node>
<node id="-108" lat="45.536642189" lon="-122.656250023" visible="true"><tag k="addr:housenumber" v="909"/><tag k="addr:postcode" v="97212"/><tag k="addr:city" v="Portland"/><tag k="addr:street" v="Northeast Hancock Street"/></node>
<node id="-109" lat="45.539159656" lon="-122.656852366" visible="true"><tag k="addr:housenumber" v="823"/><tag k="addr:postcode" v="97212"/><tag k="addr:city" v="Portland"/><tag k="addr:street" v="Northeast Thompson Street"/></node>
<node id="-110" lat="45.539161818" lon="-122.656856148" visible="true"><tag k="addr:housenumber" v="829"/><tag k="addr:postcode" v="97212"/><tag k="addr:city" v="Portland"/><tag k="addr:street" v="Northeast Thompson Street"/></node>
<node id="-111" lat="45.539162683" lon="-122.656853698" visible="true"><tag k="addr:housenumber" v="833"/><tag k="addr:postcode" v="97212"/><tag k="addr:city" v="Portland"/><tag k="addr:street" v="Northeast Thompson Street"/></node>
<node id="-112" lat="45.537248085" lon="-122.655127096" visible="true"><tag k="addr:housenumber" v="1012"/><tag k="addr:postcode" v="97212"/><tag k="addr:city" v="Portland"/><tag k="addr:street" v="Northeast Tillamook Street"/></node>
<node id="-113" lat="45.53724831" lon="-122.655133085" visible="true"><tag k="addr:housenumber" v="1016"/><tag k="addr:postcode" v="97212"/><tag k="addr:city" v="Portland"/><tag k="addr:street" v="Northeast Tillamook Street"/></node>
<node id="-114" lat="45.537308652" lon="-122.653290279" visible="true"><tag k="addr:housenumber" v="1202"/><tag k="addr:postcode" v="97212"/><tag k="addr:city" v="Portland"/><tag k="addr:street" v="Northeast Tillamook Street"/></node>
<node id="-115" lat="45.537693051" lon="-122.656957536" visible="true"><tag k="addr:housenumber" v="821"/><tag k="addr:postcode" v="97212"/><tag k="addr:city" v="Portland"/><tag k="addr:street" v="Northeast Tillamook Street"/></node>
<node id="-116" lat="45.537698577" lon="-122.656956439" visible="true"><tag k="addr:housenumber" v="823"/><tag k="addr:postcode" v="97212"/><tag k="addr:city" v="Portland"/><tag k="addr:street" v="Northeast Tillamook Street"/></node>
<node id="-117" lat="45.537251557" lon="-122.656144803" visible="true"><tag k="addr:housenumber" v="914"/><tag k="addr:postcode" v="97212"/><tag k="addr:city" v="Portland"/><tag k="addr:street" v="Northeast Tillamook Street"/></node>
<node id="-118" lat="45.5372553" lon="-122.656147349" visible="true"><tag k="addr:housenumber" v="916"/><tag k="addr:postcode" v="97212"/><tag k="addr:city" v="Portland"/><tag k="addr:street" v="Northeast Tillamook Street"/></node>
<node id="-119" lat="45.537695274" lon="-122.655942991" visible="true"><tag k="addr:housenumber" v="923"/><tag k="addr:postcode" v="97212"/><tag k="addr:city" v="Portland"/><tag k="addr:street" v="Northeast Tillamook Street"/></node>
<node id="-120" lat="45.537696132" lon="-122.655945694" visible="true"><tag k="addr:housenumber" v="929"/><tag k="addr:postcode" v="97212"/><tag k="addr:city" v="Portland"/><tag k="addr:street" v="Northeast Tillamook Street"/></node>
<node id="-121" lat="45.532442272" lon="-122.682772826" visible="true"><tag k="addr:housenumber" v="1315"/><tag k="addr:postcode" v="97209"/><tag k="addr:city" v="Portland"/><tag k="addr:street" v="Northwest 11th Avenue"/></node>
<node id="-122" lat="45.528998702" lon="-122.68766208" visible="true"><tag k="addr:housenumber" v="821"/><tag k="addr:postcode" v="97209"/><tag k="addr:city" v="Portland"/><tag k="addr:street" v="Northwest 16th Avenue"/></node>
<node id="-123" lat="45.528991059" lon="-122.687657221" visible="true"><tag k="addr:housenumber" v="825"/><tag k="addr:postcode" v="97209"/><tag k="addr:city" v="Portland"/><tag k="addr:street" v="Northwest 16th Avenue"/></node>
<node id="-124" lat="45.528995085" lon="-122.687657697" visible="true"><tag k="addr:housenumber" v="829"/><tag k="addr:postcode" v="97209"/><tag k="addr:city" v="Portland"/><tag k="addr:street" v="Northwest 16th Avenue"/></node>
<node id="-125" lat="45.529128572" lon="-122.687663614" visible="true"><tag k="addr:housenumber" v="831"/><tag k="addr:postcode" v="97209"/><tag k="addr:city" v="Portland"/><tag k="addr:street" v="Northwest 16th Avenue"/></node>
<node id="-126" lat="45.529129536" lon="-122.687663325" visible="true"><tag k="addr:housenumber" v="833"/><tag k="addr:postcode" v="97209"/><tag k="addr:city" v="Portland"/><tag k="addr:street" v="Northwest 16th Avenue"/></node>
<node id="-127" lat="45.529129468" lon="-122.687660948" visible="true"><tag k="addr:housenumber" v="835"/><tag k="addr:postcode" v="97209"/><tag k="addr:city" v="Portland"/><tag k="addr:street" v="Northwest 16th Avenue"/></node>
<node id="-128" lat="45.529133355" lon="-122.687667474" visible="true"><tag k="addr:housenumber" v="839"/><tag k="addr:postcode" v="97209"/><tag k="addr:city" v="Portland"/><tag k="addr:street" v="Northwest 16th Avenue"/></node>
<node id="-129" lat="45.530203838" lon="-122.688253478" visible="true"><tag k="addr:housenumber" v="1000"/><tag k="addr:postcode" v="97209"/><tag k="addr:city" v="Portland"/><tag k="addr:street" v="Northwest 17th Avenue"/></node>
<node id="-130" lat="45.530205646" lon="-122.688258875" visible="true"><tag k="addr:housenumber" v="1010"/><tag k="addr:postcode" v="97209"/><tag k="addr:city" v="Portland"/><tag k="addr:street" v="Northwest 17th Avenue"/></node>
<node id="-131" lat="45.530202231" lon="-122.688259078" visible="true"><tag k="addr:housenumber" v="1016"/><tag k="addr:postcode" v="97209"/><tag k="addr:city" v="Portland"/><tag k="addr:street" v="Northwest 17th Avenue"/></node>
<node id="-132" lat="45.533187365" lon="-122.688090549" visible="true"><tag k="addr:housenumber" v="1420"/><tag k="addr:postcode" v="97209"/><tag k="addr:city" v="Portland"/><tag k="addr:street" v="Northwest 17th Avenue"/></node>
<node id="-133" lat="45.533184062" lon="-122.688087844" visible="true"><tag k="addr:housenumber" v="1434"/><tag k="addr:postcode" v="97209"/><tag k="addr:city" v="Portland"/><tag k="addr:street" v="Northwest 17th Avenue"/></node>
<node id="-134" lat="45.533759216" lon="-122.688280279" visible="true"><tag k="addr:housenumber" v="1520"/><tag k="addr:postcode" v="97209"/><tag k="addr:city" v="Portland"/><tag k="addr:street" v="Northwest 17th Avenue"/></node>
<node id="-135" lat="45.533758676" lon="-122.688281323" visible="true"><tag k="addr:housenumber" v="1526"/><tag k="addr:postcode" v="97209"/><tag k="addr:city" v="Portland"/><tag k="addr:street" v="Northwest 17th Avenue"/></node>
<node id="-136" lat="45.528810357" lon="-122.688103097" visible="true"><tag k="addr:housenumber" v="810"/><tag k="addr:postcode" v="97209"/><tag k="addr:city" v="Portland"/><tag k="addr:street" v="Northwest 17th Avenue"/></node>
<node id="-137" lat="45.528805075" lon="-122.688103159" visible="true"><tag k="addr:housenumber" v="812"/><tag k="addr:postcode" v="97209"/><tag k="addr:city" v="Portland"/><tag k="addr:street" v="Northwest 17th Avenue"/></node>
<node id="-138" lat="45.52892023" lon="-122.68908814" visible="true"><tag k="addr:housenumber" v="839"/><tag k="addr:postcode" v="97209"/><tag k="addr:city" v="Portland"/><tag k="addr:street" v="Northwest 17th Avenue"/></node>
<node id="-139" lat="45.530120988" lon="-122.689265453" visible="true"><tag k="addr:housenumber" v="1002"/><tag k="addr:postcode" v="97209"/><tag k="addr:city" v="Portland"/><tag k="addr:street" v="Northwest 18th Avenue"/></node>
<node id="-140" lat="45.530120198" lon="-122.689262847" visible="true"><tag k="addr:housenumber" v="1004"/><tag k="addr:postcode" v="97209"/><tag k="addr:city" v="Portland"/><tag k="addr:street" v="Northwest 18th Avenue"/></node>
<node id="-141" lat="45.530118207" lon="-122.689262844" visible="true"><tag k="addr:housenumber" v="1006"/><tag k="addr:postcode" v="97209"/><tag k="addr:city" v="Portland"/><tag k="addr:street" v="Northwest 18th Avenue"/></node>
<node id="-142" lat="45.530119551" lon="-122.689270809" visible="true"><tag k="addr:housenumber" v="1008"/><tag k="addr:postcode" v="97209"/><tag k="addr:city" v="Portland"/><tag k="addr:street" v="Northwest 18th Avenue"/></node>
<node id="-143" lat="45.530265989" lon="-122.689173157" visible="true"><tag k="addr:housenumber" v="1014"/><tag k="addr:postcode" v="97209"/><tag k="addr:city" v="Portland"/><tag k="addr:street" v="Northwest 18th Avenue"/></node>
<node id="-144" lat="45.530264774" lon="-122.689174401" visible="true"><tag k="addr:housenumber" v="1018"/><tag k="addr:postcode" v="97209"/><tag k="addr:city" v="Portland"/><tag k="addr:street" v="Northwest 18th Avenue"/></node>
<node id="-145" lat="45.530262262" lon="-122.689171566" visible="true"><tag k="addr:housenumber" v="1020"/><tag k="addr:postcode" v="97209"/><tag k="addr:city" v="Portland"/><tag k="addr:street" v="Northwest 18th Avenue"/></node>
<node id="-146" lat="45.531750905" lon="-122.689230341" visible="true"><tag k="addr:housenumber" v="1200"/><tag k="addr:postcode" v="97209"/><tag k="addr:city" v="Portland"/><tag k="addr:street" v="Northwest 18th Avenue"/></node>
<node id="-147" lat="45.531748609" lon="-122.689231037" visible="true"><tag k="addr:housenumber" v="1222"/><tag k="addr:postcode" v="97209"/><tag k="addr:city" v="Portland"/><tag k="addr:street" v="Northwest 18th Avenue"/></node>
<node id="-148" lat="45.531747391" lon="-122.689233873" visible="true"><tag k="addr:housenumber" v="1250"/><tag k="addr:postcode" v="97209"/><tag k="addr:city" v="Portland"/><tag k="addr:street" v="Northwest 18th Avenue"/></node>
<node id="-149" lat="45.53174565" lon="-122.689227934" visible="true"><tag k="addr:housenumber" v="1256"/><tag k="addr:postcode" v="97209"/><tag k="addr:city" v="Portland"/><tag k="addr:street" v="Northwest 18th Avenue"/></node>
<node id="-150" lat="45.532241202" lon="-122.689870793" visible="true"><tag k="addr:housenumber" v="1305"/><tag k="addr:postcode" v="97209"/><tag k="addr:city" v="Portland"/><tag k="addr:street" v="Northwest 18th Avenue"/></node>
<node id="-151" lat="45.52892409" lon="-122.689083907" visible="true"><tag k="addr:housenumber" v="824"/><tag k="addr:postcode" v="97209"/><tag k="addr:city" v="Portland"/><tag k="addr:street" v="Northwest 18th Avenue"/></node>
<node id="-152" lat="45.528754001" lon="-122.689739596" visible="true"><tag k="addr:housenumber" v="831"/><tag k="addr:postcode" v="97209"/><tag k="addr:city" v="Portland"/><tag k="addr:street" v="Northwest 18th Avenue"/></node>
<node id="-153" lat="45.53158553" lon="-122.690731882" visible="true"><tag k="addr:housenumber" v="1215"/><tag k="addr:postcode" v="97209"/><tag k="addr:city" v="Portland"/><tag k="addr:street" v="Northwest 19th Avenue"/></node>
<node id="-154" lat="45.531883937" lon="-122.690751522" visible="true"><tag k="addr:housenumber" v="1231"/><tag k="addr:postcode" v="97209"/><tag k="addr:city" v="Portland"/><tag k="addr:street" v="Northwest 19th Avenue"/></node>
<node id="-155" lat="45.531885811" lon="-122.690754695" visible="true"><tag k="addr:housenumber" v="1235"/><tag k="addr:postcode" v="97209"/><tag k="addr:city" v="Portland"/><tag k="addr:street" v="Northwest 19th Avenue"/></node>
<node id="-156" lat="45.531880478" lon="-122.69075158" visible="true"><tag k="addr:housenumber" v="1239"/><tag k="addr:postcode" v="97209"/><tag k="addr:city" v="Portland"/><tag k="addr:street" v="Northwest 19th Avenue"/></node>
<node id="-157" lat="45.531879711" lon="-122.69075682" visible="true"><tag k="addr:housenumber" v="1243"/><tag k="addr:postcode" v="97209"/><tag k="addr:city" v="Portland"/><tag k="addr:street" v="Northwest 19th Avenue"/></node>
<node id="-158" lat="45.531887137" lon="-122.690752367" visible="true"><tag k="addr:housenumber" v="1245"/><tag k="addr:postcode" v="97209"/><tag k="addr:city" v="Portland"/><tag k="addr:street" v="Northwest 19th Avenue"/></node>
<node id="-159" lat="45.53188645" lon="-122.69075277" visible="true"><tag k="addr:housenumber" v="1247"/><tag k="addr:postcode" v="97209"/><tag k="addr:city" v="Portland"/><tag k="addr:street" v="Northwest 19th Avenue"/></node>
<node id="-160" lat="45.531882909" lon="-122.690752977" visible="true"><tag k="addr:housenumber" v="1251"/><tag k="addr:postcode" v="97209"/><tag k="addr:city" v="Portland"/><tag k="addr:street" v="Northwest 19th Avenue"/></node>
<node id="-161" lat="45.531888228" lon="-122.690751185" visible="true"><tag k="addr:housenumber" v="1255"/><tag k="addr:postcode" v="97209"/><tag k="addr:city" v="Portland"/><tag k="addr:street" v="Northwest 19th Avenue"/></node>
<node id="-162" lat="45.531878951" lon="-122.690752561" visible="true"><tag k="addr:housenumber" v="1265"/><tag k="addr:postcode" v="97209"/><tag k="addr:city" v="Portland"/><tag k="addr:street" v="Northwest 19th Avenue"/></node>
<node id="-163" lat="45.532220502" lon="-122.690733857" visible="true"><tag k="addr:housenumber" v="1313"/><tag k="addr:postcode" v="97209"/><tag k="addr:city" v="Portland"/><tag k="addr:street" v="Northwest 19th Avenue"/></node>
<node id="-164" lat="45.533080203" lon="-122.690915272" visible="true"><tag k="addr:housenumber" v="1414"/><tag k="addr:postcode" v="97209"/><tag k="addr:city" v="Portland"/><tag k="addr:street" v="Northwest 19th Avenue"/></node>
<node id="-165" lat="45.533073927" lon="-122.690920795" visible="true"><tag k="addr:housenumber" v="1415"/><tag k="addr:postcode" v="97209"/><tag k="addr:city" v="Portland"/><tag k="addr:street" v="Northwest 19th Avenue"/></node>
<node id="-166" lat="45.52764376" lon="-122.690692572" visible="true"><tag k="addr:housenumber" v="623"/><tag k="addr:postcode" v="97209"/><tag k="addr:city" v="Portland"/><tag k="addr:street" v="Northwest 19th Avenue"/></node>
<node id="-167" lat="45.527648971" lon="-122.690690752" visible="true"><tag k="addr:housenumber" v="633"/><tag k="addr:postcode" v="97209"/><tag k="addr:city" v="Portland"/><tag k="addr:street" v="Northwest 19th Avenue"/></node>
<node id="-168" lat="45.528011869" lon="-122.690714035" visible="true"><tag k="addr:housenumber" v="707"/><tag k="addr:postcode" v="97209"/><tag k="addr:city" v="Portland"/><tag k="addr:street" v="Northwest 19th Avenue"/></node>
<node id="-169" lat="45.528010277" lon="-122.690717854" visible="true"><tag k="addr:housenumber" v="725"/><tag k="addr:postcode" v="97209"/><tag k="addr:city" v="Portland"/><tag k="addr:street" v="Northwest 19th Avenue"/></node>
<node id="-170" lat="45.528005074" lon="-122.690716827" visible="true"><tag k="addr:housenumber" v="735"/><tag k="addr:postcode" v="97209"/><tag k="addr:city" v="Portland"/><tag k="addr:street" v="Northwest 19th Avenue"/></node>
<node id="-171" lat="45.528286828" lon="-122.690948108" visible="true"><tag k="addr:housenumber" v="777"/><tag k="addr:postcode" v="97209"/><tag k="addr:city" v="Portland"/><tag k="addr:street" v="Northwest 19th Avenue"/></node>
<node id="-172" lat="45.528289683" lon="-122.690943601" visible="true"><tag k="addr:housenumber" v="830"/><tag k="addr:postcode" v="97209"/><tag k="addr:city" v="Portland"/><tag k="addr:street" v="Northwest 19th Avenue"/></node>
<node id="-173" lat="45.528285649" lon="-122.690947412" visible="true"><tag k="addr:housenumber" v="834"/><tag k="addr:postcode" v="97209"/><tag k="addr:city" v="Portland"/><tag k="addr:street" v="Northwest 19th Avenue"/></node>
<node id="-174" lat="45.532319913" lon="-122.692417541" visible="true"><tag k="addr:housenumber" v="1318"/><tag k="addr:postcode" v="97209"/><tag k="addr:city" v="Portland"/><tag k="addr:street" v="Northwest 20th Avenue"/></node>
<node id="-175" lat="45.532321115" lon="-122.692417754" visible="true"><tag k="addr:housenumber" v="1320"/><tag k="addr:postcode" v="97209"/><tag k="addr:city" v="Portland"/><tag k="addr:street" v="Northwest 20th Avenue"/></node>
<node id="-176" lat="45.527552907" lon="-122.692121219" visible="true"><tag k="addr:housenumber" v="624"/><tag k="addr:postcode" v="97209"/><tag k="addr:city" v="Portland"/><tag k="addr:street" v="Northwest 20th Avenue"/></node>
<node id="-177" lat="45.527550842" lon="-122.692119597" visible="true"><tag k="addr:housenumber" v="636"/><tag k="addr:postcode" v="97209"/><tag k="addr:city" v="Portland"/><tag k="addr:street" v="Northwest 20th Avenue"/></node>
<node id="-178" lat="45.52805093" lon="-122.688706366" visible="true"><tag k="addr:housenumber" v="1705"/><tag k="addr:postcode" v="97209"/><tag k="addr:city" v="Portland"/><tag k="addr:street" v="Northwest Irving Street"/></node>
<node id="-179" lat="45.528054427" lon="-122.68870703" visible="true"><tag k="addr:housenumber" v="1709"/><tag k="addr:postcode" v="97209"/><tag k="addr:city" v="Portland"/><tag k="addr:street" v="Northwest Irving Street"/></node>
<node id="-180" lat="45.528056648" lon="-122.688701033" visible="true"><tag k="addr:housenumber" v="1715"/><tag k="addr:postcode" v="97209"/><tag k="addr:city" v="Portland"/><tag k="addr:street" v="Northwest Irving Street"/></node>
<node id="-181" lat="45.528057329" lon="-122.688697848" visible="true"><tag k="addr:housenumber" v="1719"/><tag k="addr:postcode" v="97209"/><tag k="addr:city" v="Portland"/><tag k="addr:street" v="Northwest Irving Street"/></node>
<node id="-182" lat="45.528039733" lon="-122.689715401" visible="true"><tag k="addr:housenumber" v="1801"/><tag k="addr:postcode" v="97209"/><tag k="addr:city" v="Portland"/><tag k="addr:street" v="Northwest Irving Street"/></node>
<node id="-183" lat="45.528033343" lon="-122.689717405" visible="true"><tag k="addr:housenumber" v="1817"/><tag k="addr:postcode" v="97209"/><tag k="addr:city" v="Portland"/><tag k="addr:street" v="Northwest Irving Street"/></node>
<node id="-184" lat="45.528754423" lon="-122.689744037" visible="true"><tag k="addr:housenumber" v="1809"/><tag k="addr:postcode" v="97209"/><tag k="addr:city" v="Portland"/><tag k="addr:street" v="Northwest Johnson Street"/></node>
<node id="-185" lat="45.528286699" lon="-122.69094272" visible="true"><tag k="addr:housenumber" v="1918"/><tag k="addr:postcode" v="97209"/><tag k="addr:city" v="Portland"/><tag k="addr:street" v="Northwest Johnson Street"/></node>
<node id="-186" lat="45.52829226" lon="-122.690952547" visible="true"><tag k="addr:housenumber" v="1920"/><tag k="addr:postcode" v="97209"/><tag k="addr:city" v="Portland"/><tag k="addr:street" v="Northwest Johnson Street"/></node>
<node id="-187" lat="45.528286347" lon="-122.690944551" visible="true"><tag k="addr:housenumber" v="1922"/><tag k="addr:postcode" v="97209"/><tag k="addr:city" v="Portland"/><tag k="addr:street" v="Northwest Johnson Street"/></node>
<node id="-188" lat="45.529697092" lon="-122.691688522" visible="true"><tag k="addr:housenumber" v="1946"/><tag k="addr:postcode" v="97209"/><tag k="addr:city" v="Portland"/><tag k="addr:street" v="Northwest Lovejoy Street"/></node>
<node id="-189" lat="45.529705889" lon="-122.691686646" visible="true"><tag k="addr:housenumber" v="1952"/><tag k="addr:postcode" v="97209"/><tag k="addr:city" v="Portland"/><tag k="addr:street" v="Northwest Lovejoy Street"/></node>
<node id="-190" lat="45.529696905" lon="-122.691691157" visible="true"><tag k="addr:housenumber" v="1960"/><tag k="addr:postcode" v="97209"/><tag k="addr:city" v="Portland"/><tag k="addr:street" v="Northwest Lovejoy Street"/></node>
<node id="-191" lat="45.530471274" lon="-122.680864099" visible="true"><tag k="addr:housenumber" v="901"/><tag k="addr:postcode" v="97209"/><tag k="addr:city" v="Portland"/><tag k="addr:street" v="Northwest Lovejoy Street"/></node>
<node id="-192" lat="45.530472042" lon="-122.680862511" visible="true"><tag k="addr:housenumber" v="915"/><tag k="addr:postcode" v="97209"/><tag k="addr:city" v="Portland"/><tag k="addr:street" v="Northwest Lovejoy Street"/></node>
<node id="-193" lat="45.530478042" lon="-122.680864251" visible="true"><tag k="addr:housenumber" v="925"/><tag k="addr:postcode" v="97209"/><tag k="addr:city" v="Portland"/><tag k="addr:street" v="Northwest Lovejoy Street"/></node>
<node id="-194" lat="45.530475867" lon="-122.68086396" visible="true"><tag k="addr:housenumber" v="945"/><tag k="addr:postcode" v="97209"/><tag k="addr:city" v="Portland"/><tag k="addr:street" v="Northwest Lovejoy Street"/></node>
<node id="-195" lat="45.530533908" lon="-122.688791683" visible="true"><tag k="addr:housenumber" v="1700"/><tag k="addr:postcode" v="97209"/><tag k="addr:city" v="Portland"/><tag k="addr:street" v="Northwest Marshall Street"/></node>
<node id="-196" lat="45.530532244" lon="-122.688792759" visible="true"><tag k="addr:housenumber" v="1720"/><tag k="addr:postcode" v="97209"/><tag k="addr:city" v="Portland"/><tag k="addr:street" v="Northwest Marshall Street"/></node>
<node id="-197" lat="45.530822432" lon="-122.68972219" visible="true"><tag k="addr:housenumber" v="1805"/><tag k="addr:postcode" v="97209"/><tag k="addr:city" v="Portland"/><tag k="addr:street" v="Northwest Marshall Street"/></node>
<node id="-198" lat="45.530820492" lon="-122.689724502" visible="true"><tag k="addr:housenumber" v="1807"/><tag k="addr:postcode" v="97209"/><tag k="addr:city" v="Portland"/><tag k="addr:street" v="Northwest Marshall Street"/></node>
<node id="-199" lat="45.531751459" lon="-122.689232978" visible="true"><tag k="addr:housenumber" v="1721"/><tag k="addr:postcode" v="97209"/><tag k="addr:city" v="Portland"/><tag k="addr:street" v="Northwest Northrup Street"/></node>
<node id="-200" lat="45.531750103" lon="-122.689230156" visible="true"><tag k="addr:housenumber" v="1775"/><tag k="addr:postcode" v="97209"/><tag k="addr:city" v="Portland"/><tag k="addr:street" v="Northwest Northrup Street"/></node>
<node id="-201" lat="45.531533495" lon="-122.689749388" visible="true"><tag k="addr:housenumber" v="1801"/><tag k="addr:postcode" v="97209"/><tag k="addr:city" v="Portland"/><tag k="addr:street" v="Northwest Northrup Street"/></node>
<node id="-202" lat="45.531536382" lon="-122.689746754" visible="true"><tag k="addr:housenumber" v="1807"/><tag k="addr:postcode" v="97209"/><tag k="addr:city" v="Portland"/><tag k="addr:street" v="Northwest Northrup Street"/></node>
<node id="-203" lat="45.531587956" lon="-122.690738163" visible="true"><tag k="addr:housenumber" v="1901"/><tag k="addr:postcode" v="97209"/><tag k="addr:city" v="Portland"/><tag k="addr:street" v="Northwest Northrup Street"/></node>
<node id="-204" lat="45.531583605" lon="-122.69087112" visible="true"><tag k="addr:housenumber" v="1905"/><tag k="addr:postcode" v="97209"/><tag k="addr:city" v="Portland"/><tag k="addr:street" v="Northwest Northrup Street"/></node>
<node id="-205" lat="45.531583933" lon="-122.690865646" visible="true"><tag k="addr:housenumber" v="1909"/><tag k="addr:postcode" v="97209"/><tag k="addr:city" v="Portland"/><tag k="addr:street" v="Northwest Northrup Street"/></node>
<node id="-206" lat="45.531581722" lon="-122.690867059" visible="true"><tag k="addr:housenumber" v="1911"/><tag k="addr:postcode" v="97209"/><tag k="addr:city" v="Portland"/><tag k="addr:street" v="Northwest Northrup Street"/></node>
<node id="-207" lat="45.531583135" lon="-122.69087346" visible="true"><tag k="addr:housenumber" v="1913"/><tag k="addr:postcode" v="97209"/><tag k="addr:city" v="Portland"/><tag k="addr:street" v="Northwest Northrup Street"/></node>
<node id="-208" lat="45.531575866" lon="-122.690992405" visible="true"><tag k="addr:housenumber" v="1915"/><tag k="addr:postcode" v="97209"/><tag k="addr:city" v="Portland"/><tag k="addr:street" v="Northwest Northrup Street"/></node>
<node id="-209" lat="45.531586678" lon="-122.690873403" visible="true"><tag k="addr:housenumber" v="1917"/><tag k="addr:postcode" v="97209"/><tag k="addr:city" v="Portland"/><tag k="addr:street" v="Northwest Northrup Street"/></node>
<node id="-210" lat="45.531576388" lon="-122.690998409" visible="true"><tag k="addr:housenumber" v="1919"/><tag k="addr:postcode" v="97209"/><tag k="addr:city" v="Portland"/><tag k="addr:street" v="Northwest Northrup Street"/></node>
<node id="-211" lat="45.531581663" lon="-122.69099955" visible="true"><tag k="addr:housenumber" v="1923"/><tag k="addr:postcode" v="97209"/><tag k="addr:city" v="Portland"/><tag k="addr:street" v="Northwest Northrup Street"/></node>
<node id="-212" lat="45.531584583" lon="-122.690998526" visible="true"><tag k="addr:housenumber" v="1927"/><tag k="addr:postcode" v="97209"/><tag k="addr:city" v="Portland"/><tag k="addr:street" v="Northwest Northrup Street"/></node>
<node id="-213" lat="45.532447006" lon="-122.682771874" visible="true"><tag k="addr:housenumber" v="1111"/><tag k="addr:postcode" v="97209"/><tag k="addr:city" v="Portland"/><tag k="addr:street" v="Northwest Overton Street"/></node>
<node id="-214" lat="45.53244723" lon="-122.682777051" visible="true"><tag k="addr:housenumber" v="1121"/><tag k="addr:postcode" v="97209"/><tag k="addr:city" v="Portland"/><tag k="addr:street" v="Northwest Overton Street"/></node>
<node id="-215" lat="45.532444264" lon="-122.682776146" visible="true"><tag k="addr:housenumber" v="1161"/><tag k="addr:postcode" v="97209"/><tag k="addr:city" v="Portland"/><tag k="addr:street" v="Northwest Overton Street"/></node>
<node id="-216" lat="45.532248501" lon="-122.689872509" visible="true"><tag k="addr:housenumber" v="1815"/><tag k="addr:postcode" v="97209"/><tag k="addr:city" v="Portland"/><tag k="addr:street" v="Northwest Overton Street"/></node>
<node id="-217" lat="45.531885886" lon="-122.69075218" visible="true"><tag k="addr:housenumber" v="1904"/><tag k="addr:postcode" v="97209"/><tag k="addr:city" v="Portland"/><tag k="addr:street" v="Northwest Overton Street"/></node>
<node id="-218" lat="45.53188618" lon="-122.69074903" visible="true"><tag k="addr:housenumber" v="1906"/><tag k="addr:postcode" v="97209"/><tag k="addr:city" v="Portland"/><tag k="addr:street" v="Northwest Overton Street"/></node>
<node id="-219" lat="45.532204047" lon="-122.690784015" visible="true"><tag k="addr:housenumber" v="1909"/><tag k="addr:postcode" v="97209"/><tag k="addr:city" v="Portland"/><tag k="addr:street" v="Northwest Overton Street"/></node>
<node id="-220" lat="45.531886773" lon="-122.690752046" visible="true"><tag k="addr:housenumber" v="1910"/><tag k="addr:postcode" v="97209"/><tag k="addr:city" v="Portland"/><tag k="addr:street" v="Northwest Overton Street"/></node>
<node id="-221" lat="45.532187297" lon="-122.690819549" visible="true"><tag k="addr:housenumber" v="1915"/><tag k="addr:postcode" v="97209"/><tag k="addr:city" v="Portland"/><tag k="addr:street" v="Northwest Overton Street"/></node>
<node id="-222" lat="45.532180482" lon="-122.690879833" visible="true"><tag k="addr:housenumber" v="1921"/><tag k="addr:postcode" v="97209"/><tag k="addr:city" v="Portland"/><tag k="addr:street" v="Northwest Overton Street"/></node>
<node id="-223" lat="45.52210064" lon="-122.677337651" visible="true"><tag k="addr:housenumber" v="221"/><tag k="addr:postcode" v="97204"/><tag k="addr:city" v="Portland"/><tag k="addr:street" v="Southwest 6th Avenue"/></node>
<node id="-224" lat="45.522104134" lon="-122.677332047" visible="true"><tag k="addr:housenumber" v="223"/><tag k="addr:postcode" v="97204"/><tag k="addr:city" v="Portland"/><tag k="addr:street" v="Southwest 6th Avenue"/></node>
<node id="-225" lat="45.522105699" lon="-122.677338073" visible="true"><tag k="addr:housenumber" v="227"/><tag k="addr:postcode" v="97204"/><tag k="addr:city" v="Portland"/><tag k="addr:street" v="Southwest 6th Avenue"/></node>
<node id="-226" lat="45.520165354" lon="-122.68069622" visible="true"><tag k="addr:housenumber" v="604"/><tag k="addr:postcode" v="97205"/><tag k="addr:city" v="Portland"/><tag k="addr:street" v="Southwest 9th Avenue"/></node>
<node id="-227" lat="45.520163836" lon="-122.680698206" visible="true"><tag k="addr:housenumber" v="820"/><tag k="addr:postcode" v="97205"/><tag k="addr:city" v="Portland"/><tag k="addr:street" v="Southwest Alder Street"/></node>
<node id="-228" lat="45.519850681" lon="-122.682561018" visible="true"><tag k="addr:housenumber" v="1000"/><tag k="addr:postcode" v="97205"/><tag k="addr:city" v="Portland"/><tag k="addr:street" v="Southwest Morrison Street"/></node>
<node id="-229" lat="45.519851311" lon="-122.682561078" visible="true"><tag k="addr:housenumber" v="1008"/><tag k="addr:postcode" v="97205"/><tag k="addr:city" v="Portland"/><tag k="addr:street" v="Southwest Morrison Street"/></node>
<node id="-230" lat="45.519854564" lon="-122.682556838" visible="true"><tag k="addr:housenumber" v="1010"/><tag k="addr:postcode" v="97205"/><tag k="addr:city" v="Portland"/><tag k="addr:street" v="Southwest Morrison Street"/></node>
<node id="-231" lat="45.519852499" lon="-122.682560919" visible="true"><tag k="addr:housenumber" v="1012"/><tag k="addr:postcode" v="97205"/><tag k="addr:city" v="Portland"/><tag k="addr:street" v="Southwest Morrison Street"/></node>
<node id="-232" lat="45.519855067" lon="-122.682555049" visible="true"><tag k="addr:housenumber" v="1016"/><tag k="addr:postcode" v="97205"/><tag k="addr:city" v="Portland"/><tag k="addr:street" v="Southwest Morrison Street"/></node>
<node id="-233" lat="45.519852608" lon="-122.682554161" visible="true"><tag k="addr:housenumber" v="1018"/><tag k="addr:postcode" v="97205"/><tag k="addr:city" v="Portland"/><tag k="addr:street" v="Southwest Morrison Street"/></node>
</osm>