<?xml version="1.0"?>
<osm version="0.6" upload="false" generator="uvmogr2osm">
<node id="-1" lat="45.559142334" lon="-122.680775926" visible="true"><tag k="addr:housenumber" v="1333"/><tag k="addr:postcode" v="97217"/><tag k="addr:city" v="Portland"/><tag k="addr:street" v="North Alberta Street"/></node>
<node id="-2" lat="45.559147337" lon="-122.680772279" visible="true"><tag k="addr:housenumber" v="1335"/><tag k="addr:postcode" v="97217"/><tag k="addr:city" v="Portland"/><tag k="addr:street" v="North Alberta Street"/></node>
<node id="-3" lat="45.559184067" lon="-122.673567874" visible="true"><tag k="addr:housenumber" v="623"/><tag k="addr:postcode" v="97217"/><tag k="addr:city" v="Portland"/><tag k="addr:street" v="North Alberta Street"/></node>
<node id="-4" lat="45.559186754" lon="-122.673562599" visible="true"><tag k="addr:housenumber" v="728"/><tag k="addr:postcode" v="97217"/><tag k="addr:city" v="Portland"/><tag k="addr:street" v="North Alberta Street"/></node>
<node id="-5" lat="45.559234466" lon="-122.676014837" visible="true"><tag k="addr:housenumber" v="843"/><tag k="addr:postcode" v="97217"/><tag k="addr:city" v="Portland"/><tag k="addr:street" v="North Alberta Street"/></node>
<node id="-6" lat="45.559236391" lon="-122.676010994" visible="true"><tag k="addr:housenumber" v="845"/><tag k="addr:postcode" v="97217"/><tag k="addr:city" v="Portland"/><tag k="addr:street" v="North Alberta Street"/></node>
<node id="-7" lat="45.559230749" lon="-122.676325401" visible="true"><tag k="addr:housenumber" v="903"/><tag k="addr:postcode" v="97217"/><tag k="addr:city" v="Portland"/><tag k="addr:street" v="North Alberta Street"/></node>
<node id="-8" lat="45.55923105" lon="-122.676325731" visible="true"><tag k="addr:housenumber" v="905"/><tag k="addr:postcode" v="97217"/><tag k="addr:city" v="Portland"/><tag k="addr:street" v="North Alberta Street"/></node>
<node id="-9" lat="45.559229123" lon="-122.67631885" visible="true"><tag k="addr:housenumber" v="907"/><tag k="addr:postcode" v="97217"/><tag k="addr:city" v="Portland"/><tag k="addr:street" v="North Alberta Street"/></node>
<node id="-10" lat="45.55922861" lon="-122.676325523" visible="true"><tag k="addr:housenumber" v="909"/><tag k="addr:postcode" v="97217"/><tag k="addr:city" v="Portland"/><tag k="addr:street" v="North Alberta Street"/></node>
<node id="-11" lat="45.555887239" lon="-122.675274492" visible="true"><tag k="addr:housenumber" v="4523"/><tag k="addr:postcode" v="97217"/><tag k="addr:city" v="Portland"/><tag k="addr:street" v="North Albina Avenue"/></node>
<node id="-12" lat="45.555886596" lon="-122.675265294" visible="true"><tag k="addr:housenumber" v="4525"/><tag k="addr:postcode" v="97217"/><tag k="addr:city" v="Portland"/><tag k="addr:street" v="North Albina Avenue"/></node>
<node id="-13" lat="45.555883782" lon="-122.675268631" visible="true"><tag k="addr:housenumber" v="4527"/><tag k="addr:postcode" v="97217"/><tag k="addr:city" v="Portland"/><tag k="addr:street" v="North Albina Avenue"/></node>
<node id="-14" lat="45.561653098" lon="-122.675288568" visible="true"><tag k="addr:housenumber" v="5329"/><tag k="addr:postcode" v="97217"/><tag k="addr:city" v="Portland"/><tag k="addr:street" v="North Albina Avenue"/></node>
<node id="-15" lat="45.55708587" lon="-122.677369791" visible="true"><tag k="addr:housenumber" v="1001"/><tag k="addr:postcode" v="97217"/><tag k="addr:city" v="Portland"/><tag k="addr:street" v="North Blandena Street"/></node>
<node id="-16" lat="45.557086258" lon="-122.677367686" visible="true"><tag k="addr:housenumber" v="1003"/><tag k="addr:postcode" v="97217"/><tag k="addr:city" v="Portland"/><tag k="addr:street" v="North Blandena Street"/></node>
<node id="-17" lat="45.557080433" lon="-122.677368635" visible="true"><tag k="addr:housenumber" v="1005"/><tag k="addr:postcode" v="97217"/><tag k="addr:city" v="Portland"/><tag k="addr:street" v="North Blandena Street"/></node>
<node id="-18" lat="45.55708547" lon="-122.677371521" visible="true"><tag k="addr:housenumber" v="1007"/><tag k="addr:postcode" v="97217"/><tag k="addr:city" v="Portland"/><tag k="addr:street" v="North Blandena Street"/></node>
<node id="-19" lat="45.557083008" lon="-122.677369344" visible="true"><tag k="addr:housenumber" v="1009"/><tag k="addr:postcode" v="97217"/><tag k="addr:city" v="Portland"/><tag k="addr:street" v="North Blandena Street"/></node>
<node id="-20" lat="45.557085259" lon="-122.677364646" visible="true"><tag k="addr:housenumber" v="1011"/><tag k="addr:postcode" v="97217"/><tag k="addr:city" v="Portland"/><tag k="addr:street" v="North Blandena Street"/></node>
<node id="-21" lat="45.557081219" lon="-122.677369618" visible="true"><tag k="addr:housenumber" v="1013"/><tag k="addr:postcode" v="97217"/><tag k="addr:city" v="Portland"/><tag k="addr:street" v="North Blandena Street"/></node>
<node id="-22" lat="45.557084686" lon="-122.677368424" visible="true"><tag k="addr:housenumber" v="1015"/><tag k="addr:postcode" v="97217"/><tag k="addr:city" v="Portland"/><tag k="addr:street" v="North Blandena Street"/></node>
<node id="-23" lat="45.557083275" lon="-122.677366312" visible="true"><tag k="addr:housenumber" v="1017"/><tag k="addr:postcode" v="97217"/><tag k="addr:city" v="Portland"/><tag k="addr:street" v="North Blandena Street"/></node>
<node id="-24" lat="45.557079863" lon="-122.677369513" visible="true"><tag k="addr:housenumber" v="1019"/><tag k="addr:postcode" v="97217"/><tag k="addr:city" v="Portland"/><tag k="addr:street" v="North Blandena Street"/></node>
<node id="-25" lat="45.557018039" lon="-122.679391861" visible="true"><tag k="addr:housenumber" v="1203"/><tag k="addr:postcode" v="97217"/><tag k="addr:city" v="Portland"/><tag k="addr:street" v="North Blandena Street"/></node>
<node id="-26" lat="45.557017025" lon="-122.679386184" visible="true"><tag k="addr:housenumber" v="1205"/><tag k="addr:postcode" v="97217"/><tag k="addr:city" v="Portland"/><tag k="addr:street" v="North Blandena Street"/></node>
<node id="-27" lat="45.557016003" lon="-122.679385192" visible="true"><tag k="addr:housenumber" v="1209"/><tag k="addr:postcode" v="97217"/><tag k="addr:city" v="Portland"/><tag k="addr:street" v="North Blandena Street"/></node>
<node id="-28" lat="45.557011685" lon="-122.679389184" visible="true"><tag k="addr:housenumber" v="1215"/><tag k="addr:postcode" v="97217"/><tag k="addr:city" v="Portland"/><tag k="addr:street" v="North Blandena Street"/></node>
<node id="-29" lat="45.556707503" lon="-122.681462455" visible="true"><tag k="addr:housenumber" v="1406"/><tag k="addr:postcode" v="97217"/><tag k="addr:city" v="Portland"/><tag k="addr:street" v="North Blandena Street"/></node>
<node id="-30" lat="45.556716198" lon="-122.68146377" visible="true"><tag k="addr:housenumber" v="1410"/><tag k="addr:postcode" v="97217"/><tag k="addr:city" v="Portland"/><tag k="addr:street" v="North Blandena Street"/></node>
<node id="-31" lat="45.556713163" lon="-122.681458128" visible="true"><tag k="addr:housenumber" v="1414"/><tag k="addr:postcode" v="97217"/><tag k="addr:city" v="Portland"/><tag k="addr:street" v="North Blandena Street"/></node>
<node id="-32" lat="45.556708354" lon="-122.681463963" visible="true"><tag k="addr:housenumber" v="1418"/><tag k="addr:postcode" v="97217"/><tag k="addr:city" v="Portland"/><tag k="addr:street" v="North Blandena Street"/></node>
<node id="-33" lat="45.557041831" lon="-122.673356022" visible="true"><tag k="addr:housenumber" v="615"/><tag k="addr:postcode" v="97217"/><tag k="addr:city" v="Portland"/><tag k="addr:street" v="North Blandena Street"/></node>
<node id="-34" lat="45.557030033" lon="-122.6762658" visible="true"><tag k="addr:housenumber" v="909"/><tag k="addr:postcode" v="97217"/><tag k="addr:city" v="Portland"/><tag k="addr:street" v="North Blandena Street"/></node>
<node id="-35" lat="45.557034189" lon="-122.676265568" visible="true"><tag k="addr:housenumber" v="911"/><tag k="addr:postcode" v="97217"/><tag k="addr:city" v="Portland"/><tag k="addr:street" v="North Blandena Street"/></node>
<node id="-36" lat="45.561587749" lon="-122.673649627" visible="true"><tag k="addr:housenumber" v="5322"/><tag k="addr:postcode" v="97217"/><tag k="addr:city" v="Portland"/><tag k="addr:street" v="North Borthwick Avenue"/></node>
<node id="-37" lat="45.561590503" lon="-122.673645383" visible="true"><tag k="addr:housenumber" v="5328"/><tag k="addr:postcode" v="97217"/><tag k="addr:city" v="Portland"/><tag k="addr:street" v="North Borthwick Avenue"/></node>
<node id="-38" lat="45.556610533" lon="-122.67220913" visible="true"><tag k="addr:housenumber" v="4635"/><tag k="addr:postcode" v="97217"/><tag k="addr:city" v="Portland"/><tag k="addr:street" v="North Congress Avenue"/></node>
<node id="-39" lat="45.55660876" lon="-122.67221098" visible="true"><tag k="addr:housenumber" v="4637"/><tag k="addr:postcode" v="97217"/><tag k="addr:city" v="Portland"/><tag k="addr:street" v="North Congress Avenue"/></node>
<node id="-40" lat="45.557865503" lon="-122.672125558" visible="true"><tag k="addr:housenumber" v="4821"/><tag k="addr:postcode" v="97217"/><tag k="addr:city" v="Portland"/><tag k="addr:street" v="North Congress Avenue"/></node>
<node id="-41" lat="45.557868499" lon="-122.672127529" visible="true"><tag k="addr:housenumber" v="4823"/><tag k="addr:postcode" v="97217"/><tag k="addr:city" v="Portland"/><tag k="addr:street" v="North Congress Avenue"/></node>
<node id="-42" lat="45.560977564" lon="-122.680757139" visible="true"><tag k="addr:housenumber" v="1322"/><tag k="addr:postcode" v="97217"/><tag k="addr:city" v="Portland"/><tag k="addr:street" v="North Emerson Street"/></node>
<node id="-43" lat="45.560982744" lon="-122.68075935" visible="true"><tag k="addr:housenumber" v="1330"/><tag k="addr:postcode" v="97217"/><tag k="addr:city" v="Portland"/><tag k="addr:street" v="North Emerson Street"/></node>
<node id="-44" lat="45.560976096" lon="-122.680753972" visible="true"><tag k="addr:housenumber" v="1336"/><tag k="addr:postcode" v="97217"/><tag k="addr:city" v="Portland"/><tag k="addr:street" v="North Emerson Street"/></node>
<node id="-45" lat="45.560975554" lon="-122.680758357" visible="true"><tag k="addr:housenumber" v="1340"/><tag k="addr:postcode" v="97217"/><tag k="addr:city" v="Portland"/><tag k="addr:street" v="North Emerson Street"/></node>
<node id="-46" lat="45.560938581" lon="-122.673555861" visible="true"><tag k="addr:housenumber" v="624"/><tag k="addr:postcode" v="97217"/><tag k="addr:city" v="Portland"/><tag k="addr:street" v="North Emerson Street"/></node>
<node id="-47" lat="45.560943209" lon="-122.673558546" visible="true"><tag k="addr:housenumber" v="626"/><tag k="addr:postcode" v="97217"/><tag k="addr:city" v="Portland"/><tag k="addr:street" v="North Emerson Street"/></node>
<node id="-48" lat="45.561334039" lon="-122.674359" visible="true"><tag k="addr:housenumber" v="713"/><tag k="addr:postcode" v="97217"/><tag k="addr:city" v="Portland"/><tag k="addr:street" v="North Emerson Street"/></node>
<node id="-49" lat="45.5613288" lon="-122.674359832" visible="true"><tag k="addr:housenumber" v="714"/><tag k="addr:postcode" v="97217"/><tag k="addr:city" v="Portland"/><tag k="addr:street" v="North Emerson Street"/></node>
<node id="-50" lat="45.561326624" lon="-122.674357683" visible="true"><tag k="addr:housenumber" v="715"/><tag k="addr:postcode" v="97217"/><tag k="addr:city" v="Portland"/><tag k="addr:street" v="North Emerson Street"/></node>
<node id="-51" lat="45.556304163" lon="-122.679782578" visible="true"><tag k="addr:housenumber" v="1221"/><tag k="addr:postcode" v="97217"/><tag k="addr:city" v="Portland"/><tag k="addr:street" v="North Going Street"/></node>
<node id="-52" lat="45.556302213" lon="-122.679788055" visible="true"><tag k="addr:housenumber" v="1227"/><tag k="addr:postcode" v="97217"/><tag k="addr:city" v="Portland"/><tag k="addr:street" v="North Going Street"/></node>
<node id="-53" lat="45.55630358" lon="-122.679784814" visible="true"><tag k="addr:housenumber" v="1235"/><tag k="addr:postcode" v="97217"/><tag k="addr:city" v="Portland"/><tag k="addr:street" v="North Going Street"/></node>
<node id="-54" lat="45.556295162" lon="-122.681466967" visible="true"><tag k="addr:housenumber" v="1407"/><tag k="addr:postcode" v="97217"/><tag k="addr:city" v="Portland"/><tag k="addr:street" v="North Going Street"/></node>
<node id="-55" lat="45.556285898" lon="-122.681466422" visible="true"><tag k="addr:housenumber" v="1411"/><tag k="addr:postcode" v="97217"/><tag k="addr:city" v="Portland"/><tag k="addr:street" v="North Going Street"/></node>
<node id="-56" lat="45.556287904" lon="-122.681466418" visible="true"><tag k="addr:housenumber" v="1415"/><tag k="addr:postcode" v="97217"/><tag k="addr:city" v="Portland"/><tag k="addr:street" v="North Going Street"/></node>
<node id="-57" lat="45.556294933" lon="-122.681467054" visible="true"><tag k="addr:housenumber" v="1419"/><tag k="addr:postcode" v="97217"/><tag k="addr:city" v="Portland"/><tag k="addr:street" v="North Going Street"/></node>
<node id="-58" lat="45.558520489" lon="-122.676621483" visible="true"><tag k="addr:housenumber" v="929"/><tag k="addr:postcode" v="97217"/><tag k="addr:city" v="Portland"/><tag k="addr:street" v="North Humboldt Street"/></node>
<node id="-59" lat="45.558520307" lon="-122.676617853" visible="true"><tag k="addr:housenumber" v="931"/><tag k="addr:postcode" v="97217"/><tag k="addr:city" v="Portland"/><tag k="addr:street" v="North Humboldt Street"/></node>
<node id="-60" lat="45.555780778" lon="-122.681968747" visible="true"><tag k="addr:housenumber" v="4550"/><tag k="addr:postcode" v="97227"/><tag k="addr:city" v="Portland"/><tag k="addr:street" v="North Interstate Avenue"/></node>
<node id="-61" lat="45.556505125" lon="-122.681883599" visible="true"><tag k="addr:housenumber" v="4616"/><tag k="addr:postcode" v="97217"/><tag k="addr:city" v="Portland"/><tag k="addr:street" v="North Interstate Avenue"/></node>
<node id="-62" lat="45.556504393" lon="-122.681887115" visible="true"><tag k="addr:housenumber" v="4630"/><tag k="addr:postcode" v="97217"/><tag k="addr:city" v="Portland"/><tag k="addr:street" v="North Interstate Avenue"/></node>
<node id="-63" lat="45.557001132" lon="-122.681837104" visible="true"><tag k="addr:housenumber" v="4702"/><tag k="addr:postcode" v="97217"/><tag k="addr:city" v="Portland"/><tag k="addr:street" v="North Interstate Avenue"/></node>
<node id="-64" lat="45.557007091" lon="-122.681837528" visible="true"><tag k="addr:housenumber" v="4704"/><tag k="addr:postcode" v="97217"/><tag k="addr:city" v="Portland"/><tag k="addr:street" v="North Interstate Avenue"/></node>
<node id="-65" lat="45.556999028" lon="-122.681840303" visible="true"><tag k="addr:housenumber" v="4706"/><tag k="addr:postcode" v="97217"/><tag k="addr:city" v="Portland"/><tag k="addr:street" v="North Interstate Avenue"/></node>
<node id="-66" lat="45.557000251" lon="-122.681839096" visible="true"><tag k="addr:housenumber" v="4708"/><tag k="addr:postcode" v="97217"/><tag k="addr:city" v="Portland"/><tag k="addr:street" v="North Interstate Avenue"/></node>
<node id="-67" lat="45.557151725" lon="-122.681848803" visible="true"><tag k="addr:housenumber" v="4712"/><tag k="addr:postcode" v="97217"/><tag k="addr:city" v="Portland"/><tag k="addr:street" v="North Interstate Avenue"/></node>
<node id="-68" lat="45.55715903" lon="-122.681850555" visible="true"><tag k="addr:housenumber" v="4714"/><tag k="addr:postcode" v="97217"/><tag k="addr:city" v="Portland"/><tag k="addr:street" v="North Interstate Avenue"/></node>
<node id="-69" lat="45.557151525" lon="-122.681850566" visible="true"><tag k="addr:housenumber" v="4716"/><tag k="addr:postcode" v="97217"/><tag k="addr:city" v="Portland"/><tag k="addr:street" v="North Interstate Avenue"/></node>
<node id="-70" lat="45.557155388" lon="-122.68184313" visible="true"><tag k="addr:housenumber" v="4718"/><tag k="addr:postcode" v="97217"/><tag k="addr:city" v="Portland"/><tag k="addr:street" v="North Interstate Avenue"/></node>
<node id="-71" lat="45.56000516" lon="-122.681911719" visible="true"><tag k="addr:housenumber" v="5118"/><tag k="addr:postcode" v="97217"/><tag k="addr:city" v="Portland"/><tag k="addr:street" v="North Interstate Avenue"/></node>
<node id="-72" lat="45.560012886" lon="-122.681910151" visible="true"><tag k="addr:housenumber" v="5120"/><tag k="addr:postcode" v="97217"/><tag k="addr:city" v="Portland"/><tag k="addr:street" v="North Interstate Avenue"/></node>
<node id="-73" lat="45.560010179" lon="-122.681911296" visible="true"><tag k="addr:housenumber" v="5124"/><tag k="addr:postcode" v="97217"/><tag k="addr:city" v="Portland"/><tag k="addr:street" v="North Interstate Avenue"/></node>
<node id="-74" lat="45.560770548" lon="-122.681812271" visible="true"><tag k="addr:housenumber" v="5206"/><tag k="addr:postcode" v="97217"/><tag k="addr:city" v="Portland"/><tag k="addr:street" v="North Interstate Avenue"/></node>
<node id="-75" lat="45.560770644" lon="-122.681806212" visible="true"><tag k="addr:housenumber" v="5226"/><tag k="addr:postcode" v="97217"/><tag k="addr:city" v="Portland"/><tag k="addr:street" v="North Interstate Avenue"/></node>
<node id="-76" lat="45.560766968" lon="-122.681806639" visible="true"><tag k="addr:housenumber" v="5272"/><tag k="addr:postcode" v="97217"/><tag k="addr:city" v="Portland"/><tag k="addr:street" v="North Interstate Avenue"/></node>
<node id="-77" lat="45.56076749" lon="-122.681814036" visible="true"><tag k="addr:housenumber" v="5288"/><tag k="addr:postcode" v="97217"/><tag k="addr:city" v="Portland"/><tag k="addr:street" v="North Interstate Avenue"/></node>
<node id="-78" lat="45.556029972" lon="-122.672598778" visible="true"><tag k="addr:housenumber" v="4534"/><tag k="addr:postcode" v="97217"/><tag k="addr:city" v="Portland"/><tag k="addr:street" v="North Kerby Avenue"/></node>
<node id="-79" lat="45.556029487" lon="-122.672597738" visible="true"><tag k="addr:housenumber" v="4536"/><tag k="addr:postcode" v="97217"/><tag k="addr:city" v="Portland"/><tag k="addr:street" v="North Kerby Avenue"/></node>
<node id="-80" lat="45.557042563" lon="-122.673349168" visible="true"><tag k="addr:housenumber" v="4709"/><tag k="addr:postcode" v="97217"/><tag k="addr:city" v="Portland"/><tag k="addr:street" v="North Kerby Avenue"/></node>
<node id="-81" lat="45.557823529" lon="-122.673215608" visible="true"><tag k="addr:housenumber" v="4809"/><tag k="addr:postcode" v="97217"/><tag k="addr:city" v="Portland"/><tag k="addr:street" v="North Kerby Avenue"/></node>
<node id="-82" lat="45.557819365" lon="-122.673214842" visible="true"><tag k="addr:housenumber" v="4815"/><tag k="addr:postcode" v="97217"/><tag k="addr:city" v="Portland"/><tag k="addr:street" v="North Kerby Avenue"/></node>
<node id="-83" lat="45.561315132" lon="-122.673261425" visible="true"><tag k="addr:housenumber" v="5301"/><tag k="addr:postcode" v="97217"/><tag k="addr:city" v="Portland"/><tag k="addr:street" v="North Kerby Avenue"/></node>
<node id="-84" lat="45.561321344" lon="-122.673259672" visible="true"><tag k="addr:housenumber" v="5303"/><tag k="addr:postcode" v="97217"/><tag k="addr:city" v="Portland"/><tag k="addr:street" v="North Kerby Avenue"/></node>
<node id="-85" lat="45.561318865" lon="-122.673258887" visible="true"><tag k="addr:housenumber" v="5305"/><tag k="addr:postcode" v="97217"/><tag k="addr:city" v="Portland"/><tag k="addr:street" v="North Kerby Avenue"/></node>
<node id="-86" lat="45.561591004" lon="-122.673252356" visible="true"><tag k="addr:housenumber" v="5325"/><tag k="addr:postcode" v="97217"/><tag k="addr:city" v="Portland"/><tag k="addr:street" v="North Kerby Avenue"/></node>
<node id="-87" lat="45.561597126" lon="-122.673253024" visible="true"><tag k="addr:housenumber" v="5327"/><tag k="addr:postcode" v="97217"/><tag k="addr:city" v="Portland"/><tag k="addr:street" v="North Kerby Avenue"/></node>
<node id="-88" lat="45.561659014" lon="-122.675282225" visible="true"><tag k="addr:housenumber" v="804"/><tag k="addr:postcode" v="97217"/><tag k="addr:city" v="Portland"/><tag k="addr:street" v="North Killingsworth Court"/></node>
<node id="-89" lat="45.561720434" lon="-122.676303737" visible="true"><tag k="addr:housenumber" v="908"/><tag k="addr:postcode" v="97217"/><tag k="addr:city" v="Portland"/><tag k="addr:street" v="North Killingsworth Court"/></node>
<node id="-90" lat="45.561719467" lon="-122.676687691" visible="true"><tag k="addr:housenumber" v="924"/><tag k="addr:postcode" v="97217"/><tag k="addr:city" v="Portland"/><tag k="addr:street" v="North Killingsworth Court"/></node>
<node id="-91" lat="45.56171459" lon="-122.676688708" visible="true"><tag k="addr:housenumber" v="930"/><tag k="addr:postcode" v="97217"/><tag k="addr:city" v="Portland"/><tag k="addr:street" v="North Killingsworth Court"/></node>
<node id="-92" lat="45.561717631" lon="-122.676694058" visible="true"><tag k="addr:housenumber" v="936"/><tag k="addr:postcode" v="97217"/><tag k="addr:city" v="Portland"/><tag k="addr:street" v="North Killingsworth Court"/></node>
<node id="-93" lat="45.562447471" lon="-122.680644817" visible="true"><tag k="addr:housenumber" v="1322"/><tag k="addr:postcode" v="97217"/><tag k="addr:city" v="Portland"/><tag k="addr:street" v="North Killingsworth Street"/></node>
<node id="-94" lat="45.56244181" lon="-122.680643421" visible="true"><tag k="addr:housenumber" v="1324"/><tag k="addr:postcode" v="97217"/><tag k="addr:city" v="Portland"/><tag k="addr:street" v="North Killingsworth Street"/></node>
<node id="-95" lat="45.562449365" lon="-122.680646245" visible="true"><tag k="addr:housenumber" v="1326"/><tag k="addr:postcode" v="97217"/><tag k="addr:city" v="Portland"/><tag k="addr:street" v="North Killingsworth Street"/></node>
<node id="-96" lat="45.562447867" lon="-122.68064618" visible="true"><tag k="addr:housenumber" v="1328"/><tag k="addr:postcode" v="97217"/><tag k="addr:city" v="Portland"/><tag k="addr:street" v="North Killingsworth Street"/></node>
<node id="-97" lat="45.56250636" lon="-122.68083843" visible="true"><tag k="addr:housenumber" v="1334"/><tag k="addr:postcode" v="97217"/><tag k="addr:city" v="Portland"/><tag k="addr:street" v="North Killingsworth Street"/></node>
<node id="-98" lat="45.562448288" lon="-122.680836629" visible="true"><tag k="addr:housenumber" v="1336"/><tag k="addr:postcode" v="97217"/><tag k="addr:city" v="Portland"/><tag k="addr:street" v="North Killingsworth Street"/></node>
<node id="-99" lat="45.562445135" lon="-122.680842036" visible="true"><tag k="addr:housenumber" v="1338"/><tag k="addr:postcode" v="97217"/><tag k="addr:city" v="Portland"/><tag k="addr:street" v="North Killingsworth Street"/></node>
<node id="-100" lat="45.56249891" lon="-122.680843237" visible="true"><tag k="addr:housenumber" v="1340"/><tag k="addr:postcode" v="97217"/><tag k="addr:city" v="Portland"/><tag k="addr:street" v="North Killingsworth Street"/></node>
<node id="-101" lat="45.562432695" lon="-122.681811721" visible="true"><tag k="addr:housenumber" v="1403"/><tag k="addr:postcode" v="97217"/><tag k="addr:city" v="Portland"/><tag k="addr:street" v="North Killingsworth Street"/></node>
<node id="-102" lat="45.562438054" lon="-122.681807518" visible="true"><tag k="addr:housenumber" v="1404"/><tag k="addr:postcode" v="97217"/><tag k="addr:city" v="Portland"/><tag k="addr:street" v="North Killingsworth Street"/></node>
<node id="-103" lat="45.562434661" lon="-122.681806009" visible="true"><tag k="addr:housenumber" v="1425"/><tag k="addr:postcode" v="97217"/><tag k="addr:city" v="Portland"/><tag k="addr:street" v="North Killingsworth Street"/></node>
<node id="-104" lat="45.562437988" lon="-122.681804675" visible="true"><tag k="addr:housenumber" v="1430"/><tag k="addr:postcode" v="97217"/><tag k="addr:city" v="Portland"/><tag k="addr:street" v="North Killingsworth Street"/></node>
<node id="-105" lat="45.562440909" lon="-122.681810293" visible="true"><tag k="addr:housenumber" v="1435"/><tag k="addr:postcode" v="97217"/><tag k="addr:city" v="Portland"/><tag k="addr:street" v="North Killingsworth Street"/></node>
<node id="-106" lat="45.561719677" lon="-122.676296237" visible="true"><tag k="addr:housenumber" v="908"/><tag k="addr:postcode" v="97217"/><tag k="addr:city" v="Portland"/><tag k="addr:street" v="North Killingsworth Street"/></node>
<node id="-107" lat="45.555656465" lon="-122.680716222" visible="true"><tag k="addr:housenumber" v="4504"/><tag k="addr:postcode" v="97217"/><tag k="addr:city" v="Portland"/><tag k="addr:street" v="North Maryland Avenue"/></node>
<node id="-108" lat="45.555656224" lon="-122.680725025" visible="true"><tag k="addr:housenumber" v="4510"/><tag k="addr:postcode" v="97217"/><tag k="addr:city" v="Portland"/><tag k="addr:street" v="North Maryland Avenue"/></node>
<node id="-109" lat="45.55565816" lon="-122.68072586" visible="true"><tag k="addr:housenumber" v="4514"/><tag k="addr:postcode" v="97217"/><tag k="addr:city" v="Portland"/><tag k="addr:street" v="North Maryland Avenue"/></node>
<node id="-110" lat="45.555664396" lon="-122.680725307" visible="true"><tag k="addr:housenumber" v="4520"/><tag k="addr:postcode" v="97217"/><tag k="addr:city" v="Portland"/><tag k="addr:street" v="North Maryland Avenue"/></node>
<node id="-111" lat="45.555910105" lon="-122.680763699" visible="true"><tag k="addr:housenumber" v="4526"/><tag k="addr:postcode" v="97217"/><tag k="addr:city" v="Portland"/><tag k="addr:street" v="North Maryland Avenue"/></node>
<node id="-112" lat="45.555909324" lon="-122.680764502" visible="true"><tag k="addr:housenumber" v="4530"/><tag k="addr:postcode" v="97217"/><tag k="addr:city" v="Portland"/><tag k="addr:street" v="North Maryland Avenue"/></node>
<node id="-113" lat="45.555910159" lon="-122.680765982" visible="true"><tag k="addr:housenumber" v="4534"/><tag k="addr:postcode" v="97217"/><tag k="addr:city" v="Portland"/><tag k="addr:street" v="North Maryland Avenue"/></node>
<node id="-114" lat="45.55642399" lon="-122.681461769" visible="true"><tag k="addr:housenumber" v="4611"/><tag k="addr:postcode" v="97217"/><tag k="addr:city" v="Portland"/><tag k="addr:street" v="North Maryland Avenue"/></node>
<node id="-115" lat="45.556430817" lon="-122.681465831" visible="true"><tag k="addr:housenumber" v="4615"/><tag k="addr:postcode" v="97217"/><tag k="addr:city" v="Portland"/><tag k="addr:street" v="North Maryland Avenue"/></node>
<node id="-116" lat="45.556429064" lon="-122.681459245" visible="true"><tag k="addr:housenumber" v="4617"/><tag k="addr:postcode" v="97217"/><tag k="addr:city" v="Portland"/><tag k="addr:street" v="North Maryland Avenue"/></node>
<node id="-117" lat="45.556426199" lon="-122.681459063" visible="true"><tag k="addr:housenumber" v="4619"/><tag k="addr:postcode" v="97217"/><tag k="addr:city" v="Portland"/><tag k="addr:street" v="North Maryland Avenue"/></node>
<node id="-118" lat="45.556577513" lon="-122.681458167" visible="true"><tag k="addr:housenumber" v="4621"/><tag k="addr:postcode" v="97217"/><tag k="addr:city" v="Portland"/><tag k="addr:street" v="North Maryland Avenue"/></node>
<node id="-119" lat="45.556578335" lon="-122.681466311" visible="true"><tag k="addr:housenumber" v="4623"/><tag k="addr:postcode" v="97217"/><tag k="addr:city" v="Portland"/><tag k="addr:street" v="North Maryland Avenue"/></node>
<node id="-120" lat="45.556577993" lon="-122.681464554" visible="true"><tag k="addr:housenumber" v="4625"/><tag k="addr:postcode" v="97217"/><tag k="addr:city" v="Portland"/><tag k="addr:street" v="North Maryland Avenue"/></node>
<node id="-121" lat="45.556570474" lon="-122.681465257" visible="true"><tag k="addr:housenumber" v="4627"/><tag k="addr:postcode" v="97217"/><tag k="addr:city" v="Portland"/><tag k="addr:street" v="North Maryland Avenue"/></node>
<node id="-122" lat="45.557996699" lon="-122.68145126" visible="true"><tag k="addr:housenumber" v="4825"/><tag k="addr:postcode" v="97217"/><tag k="addr:city" v="Portland"/><tag k="addr:street" v="North Maryland Avenue"/></node>
<node id="-123" lat="45.557998733" lon="-122.681446118" visible="true"><tag k="addr:housenumber" v="4827"/><tag k="addr:postcode" v="97217"/><tag k="addr:city" v="Portland"/><tag k="addr:street" v="North Maryland Avenue"/></node>
<node id="-124" lat="45.558001336" lon="-122.681446321" visible="true"><tag k="addr:housenumber" v="4829"/><tag k="addr:postcode" v="97217"/><tag k="addr:city" v="Portland"/><tag k="addr:street" v="North Maryland Avenue"/></node>
<node id="-125" lat="45.558133118" lon="-122.681450379" visible="true"><tag k="addr:housenumber" v="4831"/><tag k="addr:postcode" v="97217"/><tag k="addr:city" v="Portland"/><tag k="addr:street" v="North Maryland Avenue"/></node>
<node id="-126" lat="45.558136233" lon="-122.681442977" visible="true"><tag k="addr:housenumber" v="4833"/><tag k="addr:postcode" v="97217"/><tag k="addr:city" v="Portland"/><tag k="addr:street" v="North Maryland Avenue"/></node>
<node id="-127" lat="45.558130073" lon="-122.681444182" visible="true"><tag k="addr:housenumber" v="4835"/><tag k="addr:postcode" v="97217"/><tag k="addr:city" v="Portland"/><tag k="addr:street" v="North Maryland Avenue"/></node>
<node id="-128" lat="45.558427397" lon="-122.68144157" visible="true"><tag k="addr:housenumber" v="4901"/><tag k="addr:postcode" v="97217"/><tag k="addr:city" v="Portland"/><tag k="addr:street" v="North Maryland Avenue"/></node>
<node id="-129" lat="45.558432109" lon="-122.681444513" visible="true"><tag k="addr:housenumber" v="4903"/><tag k="addr:postcode" v="97217"/><tag k="addr:city" v="Portland"/><tag k="addr:street" v="North Maryland Avenue"/></node>
<node id="-130" lat="45.558430695" lon="-122.681442755" visible="true"><tag k="addr:housenumber" v="4905"/><tag k="addr:postcode" v="97217"/><tag k="addr:city" v="Portland"/><tag k="addr:street" v="North Maryland Avenue"/></node>
<node id="-131" lat="45.558565369" lon="-122.681446343" visible="true"><tag k="addr:housenumber" v="4907"/><tag k="addr:postcode" v="97217"/><tag k="addr:city" v="Portland"/><tag k="addr:street" v="North Maryland Avenue"/></node>
<node id="-132" lat="45.558566367" lon="-122.681444113" visible="true"><tag k="addr:housenumber" v="4909"/><tag k="addr:postcode" v="97217"/><tag k="addr:city" v="Portland"/><tag k="addr:street" v="North Maryland Avenue"/></node>
<node id="-133" lat="45.558572904" lon="-122.68144556" visible="true"><tag k="addr:housenumber" v="4911"/><tag k="addr:postcode" v="97217"/><tag k="addr:city" v="Portland"/><tag k="addr:street" v="North Maryland Avenue"/></node>
<node id="-134" lat="45.558778067" lon="-122.681282432" visible="true"><tag k="addr:housenumber" v="4933"/><tag k="addr:postcode" v="97217"/><tag k="addr:city" v="Portland"/><tag k="addr:street" v="North Maryland Avenue"/></node>
<node id="-135" lat="45.558776685" lon="-122.681286802" visible="true"><tag k="addr:housenumber" v="4935"/><tag k="addr:postcode" v="97217"/><tag k="addr:city" v="Portland"/><tag k="addr:street" v="North Maryland Avenue"/></node>
<node id="-136" lat="45.558769084" lon="-122.681288088" visible="true"><tag k="addr:housenumber" v="4937"/><tag k="addr:postcode" v="97217"/><tag k="addr:city" v="Portland"/><tag k="addr:street" v="North Maryland Avenue"/></node>
<node id="-137" lat="45.559837212" lon="-122.680636325" visible="true"><tag k="addr:housenumber" v="5104"/><tag k="addr:postcode" v="97217"/><tag k="addr:city" v="Portland"/><tag k="addr:street" v="North Maryland Avenue"/></node>
<node id="-138" lat="45.555739265" lon="-122.676706968" visible="true"><tag k="addr:housenumber" v="4514"/><tag k="addr:postcode" v="97217"/><tag k="addr:city" v="Portland"/><tag k="addr:street" v="North Michigan Avenue"/></node>
<node id="-139" lat="45.555738311" lon="-122.676699864" visible="true"><tag k="addr:housenumber" v="4516"/><tag k="addr:postcode" v="97217"/><tag k="addr:city" v="Portland"/><tag k="addr:street" v="North Michigan Avenue"/></node>
<node id="-140" lat="45.555873359" lon="-122.676704856" visible="true"><tag k="addr:housenumber" v="4524"/><tag k="addr:postcode" v="97217"/><tag k="addr:city" v="Portland"/><tag k="addr:street" v="North Michigan Avenue"/></node>
<node id="-141" lat="45.555852082" lon="-122.676699015" visible="true"><tag k="addr:housenumber" v="4526"/><tag k="addr:postcode" v="97217"/><tag k="addr:city" v="Portland"/><tag k="addr:street" v="North Michigan Avenue"/></node>
<node id="-142" lat="45.55591126" lon="-122.676698345" visible="true"><tag k="addr:housenumber" v="4528"/><tag k="addr:postcode" v="97217"/><tag k="addr:city" v="Portland"/><tag k="addr:street" v="North Michigan Avenue"/></node>
<node id="-143" lat="45.55658467" lon="-122.67670283" visible="true"><tag k="addr:housenumber" v="4626"/><tag k="addr:postcode" v="97217"/><tag k="addr:city" v="Portland"/><tag k="addr:street" v="North Michigan Avenue"/></node>
<node id="-144" lat="45.556592607" lon="-122.676700043" visible="true"><tag k="addr:housenumber" v="4628"/><tag k="addr:postcode" v="97217"/><tag k="addr:city" v="Portland"/><tag k="addr:street" v="North Michigan Avenue"/></node>
<node id="-145" lat="45.557293073" lon="-122.677358612" visible="true"><tag k="addr:housenumber" v="4723"/><tag k="addr:postcode" v="97217"/><tag k="addr:city" v="Portland"/><tag k="addr:street" v="North Michigan Avenue"/></node>
<node id="-146" lat="45.55730002" lon="-122.677352106" visible="true"><tag k="addr:housenumber" v="4725"/><tag k="addr:postcode" v="97217"/><tag k="addr:city" v="Portland"/><tag k="addr:street" v="North Michigan Avenue"/></node>
<node id="-147" lat="45.557434003" lon="-122.677350518" visible="true"><tag k="addr:housenumber" v="4739"/><tag k="addr:postcode" v="97217"/><tag k="addr:city" v="Portland"/><tag k="addr:street" v="North Michigan Avenue"/></node>
<node id="-148" lat="45.557435887" lon="-122.67735386" visible="true"><tag k="addr:housenumber" v="4741"/><tag k="addr:postcode" v="97217"/><tag k="addr:city" v="Portland"/><tag k="addr:street" v="North Michigan Avenue"/></node>
<node id="-149" lat="45.557868372" lon="-122.677354828" visible="true"><tag k="addr:housenumber" v="4815"/><tag k="addr:postcode" v="97217"/><tag k="addr:city" v="Portland"/><tag k="addr:street" v="North Michigan Avenue"/></node>
<node id="-150" lat="45.557866658" lon="-122.677352617" visible="true"><tag k="addr:housenumber" v="4817"/><tag k="addr:postcode" v="97217"/><tag k="addr:city" v="Portland"/><tag k="addr:street" v="North Michigan Avenue"/></node>
<node id="-151" lat="45.560004092" lon="-122.677335517" visible="true"><tag k="addr:housenumber" v="5115"/><tag k="addr:postcode" v="97217"/><tag k="addr:city" v="Portland"/><tag k="addr:street" v="North Michigan Avenue"/></node>
<node id="-152" lat="45.560010926" lon="-122.677334479" visible="true"><tag k="addr:housenumber" v="5117"/><tag k="addr:postcode" v="97217"/><tag k="addr:city" v="Portland"/><tag k="addr:street" v="North Michigan Avenue"/></node>
<node id="-153" lat="45.56079244" lon="-122.677610898" visible="true"><tag k="addr:housenumber" v="5219"/><tag k="addr:postcode" v="97217"/><tag k="addr:city" v="Portland"/><tag k="addr:street" v="North Michigan Avenue"/></node>
<node id="-154" lat="45.561854234" lon="-122.677311335" visible="true"><tag k="addr:housenumber" v="5347"/><tag k="addr:postcode" v="97217"/><tag k="addr:city" v="Portland"/><tag k="addr:street" v="North Michigan Avenue"/></node>
<node id="-155" lat="45.5618509" lon="-122.677312719" visible="true"><tag k="addr:housenumber" v="5349"/><tag k="addr:postcode" v="97217"/><tag k="addr:city" v="Portland"/><tag k="addr:street" v="North Michigan Avenue"/></node>
<node id="-156" lat="45.562140344" lon="-122.677315264" visible="true"><tag k="addr:housenumber" v="5415"/><tag k="addr:postcode" v="97217"/><tag k="addr:city" v="Portland"/><tag k="addr:street" v="North Michigan Avenue"/></node>
<node id="-157" lat="45.562142854" lon="-122.677306215" visible="true"><tag k="addr:housenumber" v="5419"/><tag k="addr:postcode" v="97217"/><tag k="addr:city" v="Portland"/><tag k="addr:street" v="North Michigan Avenue"/></node>
<node id="-158" lat="45.562282669" lon="-122.677305154" visible="true"><tag k="addr:housenumber" v="5421"/><tag k="addr:postcode" v="97217"/><tag k="addr:city" v="Portland"/><tag k="addr:street" v="North Michigan Avenue"/></node>
<node id="-159" lat="45.562277145" lon="-122.677312909" visible="true"><tag k="addr:housenumber" v="5423"/><tag k="addr:postcode" v="97217"/><tag k="addr:city" v="Portland"/><tag k="addr:street" v="North Michigan Avenue"/></node>
<node id="-160" lat="45.562279338" lon="-122.677309404" visible="true"><tag k="addr:housenumber" v="5425"/><tag k="addr:postcode" v="97217"/><tag k="addr:city" v="Portland"/><tag k="addr:street" v="North Michigan Avenue"/></node>
<node id="-161" lat="45.562284179" lon="-122.677311088" visible="true"><tag k="addr:housenumber" v="5427"/><tag k="addr:postcode" v="97217"/><tag k="addr:city" v="Portland"/><tag k="addr:street" v="North Michigan Avenue"/></node>
<node id="-162" lat="45.556582285" lon="-122.679390015" visible="true"><tag k="addr:housenumber" v="4621"/><tag k="addr:postcode" v="97217"/><tag k="addr:city" v="Portland"/><tag k="addr:street" v="North Minnesota Avenue"/></node>
<node id="-163" lat="45.556574969" lon="-122.679394401" visible="true"><tag k="addr:housenumber" v="4623"/><tag k="addr:postcode" v="97217"/><tag k="addr:city" v="Portland"/><tag k="addr:street" v="North Minnesota Avenue"/></node>
<node id="-164" lat="45.557148828" lon="-122.679384665" visible="true"><tag k="addr:housenumber" v="4715"/><tag k="addr:postcode" v="97217"/><tag k="addr:city" v="Portland"/><tag k="addr:street" v="North Minnesota Avenue"/></node>
<node id="-165" lat="45.557150561" lon="-122.679386259" visible="true"><tag k="addr:housenumber" v="4717"/><tag k="addr:postcode" v="97217"/><tag k="addr:city" v="Portland"/><tag k="addr:street" v="North Minnesota Avenue"/></node>
<node id="-166" lat="45.561587319" lon="-122.679403895" visible="true"><tag k="addr:housenumber" v="5319"/><tag k="addr:postcode" v="97217"/><tag k="addr:city" v="Portland"/><tag k="addr:street" v="North Minnesota Avenue"/></node>
<node id="-167" lat="45.561589134" lon="-122.679399899" visible="true"><tag k="addr:housenumber" v="5321"/><tag k="addr:postcode" v="97217"/><tag k="addr:city" v="Portland"/><tag k="addr:street" v="North Minnesota Avenue"/></node>
<node id="-168" lat="45.561594003" lon="-122.679404041" visible="true"><tag k="addr:housenumber" v="5323"/><tag k="addr:postcode" v="97217"/><tag k="addr:city" v="Portland"/><tag k="addr:street" v="North Minnesota Avenue"/></node>
<node id="-169" lat="45.561593399" lon="-122.679399621" visible="true"><tag k="addr:housenumber" v="5325"/><tag k="addr:postcode" v="97217"/><tag k="addr:city" v="Portland"/><tag k="addr:street" v="North Minnesota Avenue"/></node>
<node id="-170" lat="45.56159498" lon="-122.679401608" visible="true"><tag k="addr:housenumber" v="5327"/><tag k="addr:postcode" v="97217"/><tag k="addr:city" v="Portland"/><tag k="addr:street" v="North Minnesota Avenue"/></node>
<node id="-171" lat="45.561593207" lon="-122.679406938" visible="true"><tag k="addr:housenumber" v="5333"/><tag k="addr:postcode" v="97217"/><tag k="addr:city" v="Portland"/><tag k="addr:street" v="North Minnesota Avenue"/></node>
<node id="-172" lat="45.561595196" lon="-122.67939832" visible="true"><tag k="addr:housenumber" v="5337"/><tag k="addr:postcode" v="97217"/><tag k="addr:city" v="Portland"/><tag k="addr:street" v="North Minnesota Avenue"/></node>
<node id="-173" lat="45.555977624" lon="-122.676276985" visible="true"><tag k="addr:housenumber" v="4529"/><tag k="addr:postcode" v="97217"/><tag k="addr:city" v="Portland"/><tag k="addr:street" v="North Mississippi Avenue"/></node>
<node id="-174" lat="45.555976652" lon="-122.6762711" visible="true"><tag k="addr:housenumber" v="4531"/><tag k="addr:postcode" v="97217"/><tag k="addr:city" v="Portland"/><tag k="addr:street" v="North Mississippi Avenue"/></node>
<node id="-175" lat="45.555978846" lon="-122.676270038" visible="true"><tag k="addr:housenumber" v="4533"/><tag k="addr:postcode" v="97217"/><tag k="addr:city" v="Portland"/><tag k="addr:street" v="North Mississippi Avenue"/></node>
<node id="-176" lat="45.555979873" lon="-122.676275241" visible="true"><tag k="addr:housenumber" v="4535"/><tag k="addr:postcode" v="97217"/><tag k="addr:city" v="Portland"/><tag k="addr:street" v="North Mississippi Avenue"/></node>
<node id="-177" lat="45.558512327" lon="-122.677834857" visible="true"><tag k="addr:housenumber" v="4904"/><tag k="addr:postcode" v="97217"/><tag k="addr:city" v="Portland"/><tag k="addr:street" v="North Missouri Avenue"/></node>
<node id="-178" lat="45.558513593" lon="-122.67783321" visible="true"><tag k="addr:housenumber" v="4908"/><tag k="addr:postcode" v="97217"/><tag k="addr:city" v="Portland"/><tag k="addr:street" v="North Missouri Avenue"/></node>
<node id="-179" lat="45.558512863" lon="-122.677830667" visible="true"><tag k="addr:housenumber" v="4912"/><tag k="addr:postcode" v="97217"/><tag k="addr:city" v="Portland"/><tag k="addr:street" v="North Missouri Avenue"/></node>
<node id="-180" lat="45.558509376" lon="-122.67783457" visible="true"><tag k="addr:housenumber" v="4916"/><tag k="addr:postcode" v="97217"/><tag k="addr:city" v="Portland"/><tag k="addr:street" v="North Missouri Avenue"/></node>
<node id="-181" lat="45.555592361" lon="-122.680413518" visible="true"><tag k="addr:housenumber" v="4501"/><tag k="addr:postcode" v="97217"/><tag k="addr:city" v="Portland"/><tag k="addr:street" v="North Montana Avenue"/></node>
<node id="-182" lat="45.555593295" lon="-122.680412893" visible="true"><tag k="addr:housenumber" v="4505"/><tag k="addr:postcode" v="97217"/><tag k="addr:city" v="Portland"/><tag k="addr:street" v="North Montana Avenue"/></node>
<node id="-183" lat="45.555592934" lon="-122.680413373" visible="true"><tag k="addr:housenumber" v="4507"/><tag k="addr:postcode" v="97217"/><tag k="addr:city" v="Portland"/><tag k="addr:street" v="North Montana Avenue"/></node>
<node id="-184" lat="45.555595318" lon="-122.680415843" visible="true"><tag k="addr:housenumber" v="4509"/><tag k="addr:postcode" v="97217"/><tag k="addr:city" v="Portland"/><tag k="addr:street" v="North Montana Avenue"/></node>
<node id="-185" lat="45.555793512" lon="-122.680506294" visible="true"><tag k="addr:housenumber" v="4515"/><tag k="addr:postcode" v="97217"/><tag k="addr:city" v="Portland"/><tag k="addr:street" v="North Montana Avenue"/></node>
<node id="-186" lat="45.555797351" lon="-122.680503901" visible="true"><tag k="addr:housenumber" v="4517"/><tag k="addr:postcode" v="97217"/><tag k="addr:city" v="Portland"/><tag k="addr:street" v="North Montana Avenue"/></node>
<node id="-187" lat="45.555798023" lon="-122.680503245" visible="true"><tag k="addr:housenumber" v="4521"/><tag k="addr:postcode" v="97217"/><tag k="addr:city" v="Portland"/><tag k="addr:street" v="North Montana Avenue"/></node>
<node id="-188" lat="45.556575838" lon="-122.679784945" visible="true"><tag k="addr:housenumber" v="4622"/><tag k="addr:postcode" v="97217"/><tag k="addr:city" v="Portland"/><tag k="addr:street" v="North Montana Avenue"/></node>
<node id="-189" lat="45.556576154" lon="-122.679785436" visible="true"><tag k="addr:housenumber" v="4628"/><tag k="addr:postcode" v="97217"/><tag k="addr:city" v="Portland"/><tag k="addr:street" v="North Montana Avenue"/></node>
<node id="-190" lat="45.558576557" lon="-122.679767979" visible="true"><tag k="addr:housenumber" v="4910"/><tag k="addr:postcode" v="97217"/><tag k="addr:city" v="Portland"/><tag k="addr:street" v="North Montana Avenue"/></node>
<node id="-191" lat="45.558572803" lon="-122.679769327" visible="true"><tag k="addr:housenumber" v="4912"/><tag k="addr:postcode" v="97217"/><tag k="addr:city" v="Portland"/><tag k="addr:street" v="North Montana Avenue"/></node>
<node id="-192" lat="45.561829159" lon="-122.680357829" visible="true"><tag k="addr:housenumber" v="5343"/><tag k="addr:postcode" v="97217"/><tag k="addr:city" v="Portland"/><tag k="addr:street" v="North Montana Avenue"/></node>
<node id="-193" lat="45.561826206" lon="-122.680356996" visible="true"><tag k="addr:housenumber" v="5349"/><tag k="addr:postcode" v="97217"/><tag k="addr:city" v="Portland"/><tag k="addr:street" v="North Montana Avenue"/></node>
<node id="-194" lat="45.56210519" lon="-122.679727139" visible="true"><tag k="addr:housenumber" v="5408"/><tag k="addr:postcode" v="97217"/><tag k="addr:city" v="Portland"/><tag k="addr:street" v="North Montana Avenue"/></node>
<node id="-195" lat="45.562105025" lon="-122.679728175" visible="true"><tag k="addr:housenumber" v="5410"/><tag k="addr:postcode" v="97217"/><tag k="addr:city" v="Portland"/><tag k="addr:street" v="North Montana Avenue"/></node>
<node id="-196" lat="45.562104502" lon="-122.679733713" visible="true"><tag k="addr:housenumber" v="5412"/><tag k="addr:postcode" v="97217"/><tag k="addr:city" v="Portland"/><tag k="addr:street" v="North Montana Avenue"/></node>
<node id="-197" lat="45.56211078" lon="-122.679732162" visible="true"><tag k="addr:housenumber" v="5414"/><tag k="addr:postcode" v="97217"/><tag k="addr:city" v="Portland"/><tag k="addr:street" v="North Montana Avenue"/></node>
<node id="-198" lat="45.562238714" lon="-122.67972802" visible="true"><tag k="addr:housenumber" v="5418"/><tag k="addr:postcode" v="97217"/><tag k="addr:city" v="Portland"/><tag k="addr:street" v="North Montana Avenue"/></node>
<node id="-199" lat="45.562240977" lon="-122.679732699" visible="true"><tag k="addr:housenumber" v="5420"/><tag k="addr:postcode" v="97217"/><tag k="addr:city" v="Portland"/><tag k="addr:street" v="North Montana Avenue"/></node>
<node id="-200" lat="45.562245795" lon="-122.679733602" visible="true"><tag k="addr:housenumber" v="5422"/><tag k="addr:postcode" v="97217"/><tag k="addr:city" v="Portland"/><tag k="addr:street" v="North Montana Avenue"/></node>
<node id="-201" lat="45.555621018" lon="-122.672211103" visible="true"><tag k="addr:housenumber" v="557"/><tag k="addr:postcode" v="97217"/><tag k="addr:city" v="Portland"/><tag k="addr:street" v="North Prescott Street"/></node>
<node id="-202" lat="45.555613486" lon="-122.672215022" visible="true"><tag k="addr:housenumber" v="559"/><tag k="addr:postcode" v="97217"/><tag k="addr:city" v="Portland"/><tag k="addr:street" v="North Prescott Street"/></node>
<node id="-203" lat="45.555620178" lon="-122.672215436" visible="true"><tag k="addr:housenumber" v="561"/><tag k="addr:postcode" v="97217"/><tag k="addr:city" v="Portland"/><tag k="addr:street" v="North Prescott Street"/></node>
<node id="-204" lat="45.555605549" lon="-122.675661803" visible="true"><tag k="addr:housenumber" v="853"/><tag k="addr:postcode" v="97217"/><tag k="addr:city" v="Portland"/><tag k="addr:street" v="North Prescott Street"/></node>
<node id="-205" lat="45.5556122" lon="-122.675660494" visible="true"><tag k="addr:housenumber" v="857"/><tag k="addr:postcode" v="97217"/><tag k="addr:city" v="Portland"/><tag k="addr:street" v="North Prescott Street"/></node>
<node id="-206" lat="45.560792509" lon="-122.677610462" visible="true"><tag k="addr:housenumber" v="1025"/><tag k="addr:postcode" v="97217"/><tag k="addr:city" v="Portland"/><tag k="addr:street" v="North Sumner Street"/></node>
<node id="-207" lat="45.560794634" lon="-122.677610023" visible="true"><tag k="addr:housenumber" v="1033"/><tag k="addr:postcode" v="97217"/><tag k="addr:city" v="Portland"/><tag k="addr:street" v="North Sumner Street"/></node>
<node id="-208" lat="45.560665417" lon="-122.674181288" visible="true"><tag k="addr:housenumber" v="705"/><tag k="addr:postcode" v="97217"/><tag k="addr:city" v="Portland"/><tag k="addr:street" v="North Sumner Street"/></node>
<node id="-209" lat="45.560666119" lon="-122.674180007" visible="true"><tag k="addr:housenumber" v="707"/><tag k="addr:postcode" v="97217"/><tag k="addr:city" v="Portland"/><tag k="addr:street" v="North Sumner Street"/></node>
<node id="-210" lat="45.560221443" lon="-122.675400429" visible="true"><tag k="addr:housenumber" v="812"/><tag k="addr:postcode" v="97217"/><tag k="addr:city" v="Portland"/><tag k="addr:street" v="North Sumner Street"/></node>
<node id="-211" lat="45.560219638" lon="-122.675392503" visible="true"><tag k="addr:housenumber" v="818"/><tag k="addr:postcode" v="97217"/><tag k="addr:city" v="Portland"/><tag k="addr:street" v="North Sumner Street"/></node>
<node id="-212" lat="45.56065059" lon="-122.676411491" visible="true"><tag k="addr:housenumber" v="911"/><tag k="addr:postcode" v="97217"/><tag k="addr:city" v="Portland"/><tag k="addr:street" v="North Sumner Street"/></node>
<node id="-213" lat="45.560656888" lon="-122.676406376" visible="true"><tag k="addr:housenumber" v="917"/><tag k="addr:postcode" v="97217"/><tag k="addr:city" v="Portland"/><tag k="addr:street" v="North Sumner Street"/></node>
<node id="-214" lat="45.555785283" lon="-122.681970119" visible="true"><tag k="addr:housenumber" v="4550"/><tag k="addr:postcode" v="97217"/><tag k="addr:city" v="Portland"/><tag k="addr:street" v="North Trenton Street"/></node>
<node id="-215" lat="45.559914323" lon="-122.677823881" visible="true"><tag k="addr:housenumber" v="1029"/><tag k="addr:postcode" v="97217"/><tag k="addr:city" v="Portland"/><tag k="addr:street" v="North Webster Street"/></node>
<node id="-216" lat="45.559921388" lon="-122.677818115" visible="true"><tag k="addr:housenumber" v="1033"/><tag k="addr:postcode" v="97217"/><tag k="addr:city" v="Portland"/><tag k="addr:street" v="North Webster Street"/></node>
<node id="-217" lat="45.559829267" lon="-122.680635348" visible="true"><tag k="addr:housenumber" v="1323"/><tag k="addr:postcode" v="97217"/><tag k="addr:city" v="Portland"/><tag k="addr:street" v="North Webster Street"/></node>
<node id="-218" lat="45.559499535" lon="-122.67680831" visible="true"><tag k="addr:housenumber" v="934"/><tag k="addr:postcode" v="97217"/><tag k="addr:city" v="Portland"/><tag k="addr:street" v="North Webster Street"/></node>
<node id="-219" lat="45.559502664" lon="-122.676812719" visible="true"><tag k="addr:housenumber" v="936"/><tag k="addr:postcode" v="97217"/><tag k="addr:city" v="Portland"/><tag k="addr:street" v="North Webster Street"/></node>
<node id="-220" lat="45.557414971" lon="-122.679771054" visible="true"><tag k="addr:housenumber" v="1232"/><tag k="addr:postcode" v="97217"/><tag k="addr:city" v="Portland"/><tag k="addr:street" v="North Wygant Street"/></node>
<node id="-221" lat="45.557416619" lon="-122.679774604" visible="true"><tag k="addr:housenumber" v="1238"/><tag k="addr:postcode" v="97217"/><tag k="addr:city" v="Portland"/><tag k="addr:street" v="North Wygant Street"/></node>
</osm>