<?xml version="1.0"?>
<osm version="0.6" upload="false" generator="uvmogr2osm">
<node id="-1" lat="45.548037436" lon="-122.653655211" visible="true"><tag k="addr:housenumber" v="3441"/><tag k="addr:postcode" v="97212"/><tag k="addr:city" v="Portland"/><tag k="addr:street" v="Northeast 12th Avenue"/></node>
<node id="-2" lat="45.54123093" lon="-122.652157577" visible="true"><tag k="addr:housenumber" v="2542"/><tag k="addr:postcode" v="97212"/><tag k="addr:city" v="Portland"/><tag k="addr:street" v="Northeast 13th Avenue"/></node>
<node id="-3" lat="45.541235481" lon="-122.652154482" visible="true"><tag k="addr:housenumber" v="2588"/><tag k="addr:postcode" v="97212"/><tag k="addr:city" v="Portland"/><tag k="addr:street" v="Northeast 13th Avenue"/></node>
<node id="-4" lat="45.54295963" lon="-122.651758692" visible="true"><tag k="addr:housenumber" v="2801"/><tag k="addr:postcode" v="97212"/><tag k="addr:city" v="Portland"/><tag k="addr:street" v="Northeast 14th Avenue"/></node>
<node id="-5" lat="45.542956131" lon="-122.65175765" visible="true"><tag k="addr:housenumber" v="2807"/><tag k="addr:postcode" v="97212"/><tag k="addr:city" v="Portland"/><tag k="addr:street" v="Northeast 14th Avenue"/></node>
<node id="-6" lat="45.546949881" lon="-122.658903984" visible="true"><tag k="addr:housenumber" v="3227"/><tag k="addr:postcode" v="97212"/><tag k="addr:city" v="Portland"/><tag k="addr:street" v="Northeast 7th Avenue"/></node>
<node id="-7" lat="45.546955037" lon="-122.658900476" visible="true"><tag k="addr:housenumber" v="3229"/><tag k="addr:postcode" v="97212"/><tag k="addr:city" v="Portland"/><tag k="addr:street" v="Northeast 7th Avenue"/></node>
<node id="-8" lat="45.546946739" lon="-122.658904902" visible="true"><tag k="addr:housenumber" v="3231"/><tag k="addr:postcode" v="97212"/><tag k="addr:city" v="Portland"/><tag k="addr:street" v="Northeast 7th Avenue"/></node>
<node id="-9" lat="45.546954575" lon="-122.658900407" visible="true"><tag k="addr:housenumber" v="3233"/><tag k="addr:postcode" v="97212"/><tag k="addr:city" v="Portland"/><tag k="addr:street" v="Northeast 7th Avenue"/></node>
<node id="-10" lat="45.542427116" lon="-122.657843002" visible="true"><tag k="addr:housenumber" v="2717"/><tag k="addr:postcode" v="97212"/><tag k="addr:city" v="Portland"/><tag k="addr:street" v="Northeast 8th Avenue"/></node>
<node id="-11" lat="45.542431868" lon="-122.657850118" visible="true"><tag k="addr:housenumber" v="2719"/><tag k="addr:postcode" v="97212"/><tag k="addr:city" v="Portland"/><tag k="addr:street" v="Northeast 8th Avenue"/></node>
<node id="-12" lat="45.543825085" lon="-122.656827152" visible="true"><tag k="addr:housenumber" v="2907"/><tag k="addr:postcode" v="97212"/><tag k="addr:city" v="Portland"/><tag k="addr:street" v="Northeast 9th Avenue"/></node>
<node id="-13" lat="45.54382436" lon="-122.656827757" visible="true"><tag k="addr:housenumber" v="2909"/><tag k="addr:postcode" v="97212"/><tag k="addr:city" v="Portland"/><tag k="addr:street" v="Northeast 9th Avenue"/></node>
<node id="-14" lat="45.546127545" lon="-122.659783485" visible="true"><tag k="addr:housenumber" v="538"/><tag k="addr:postcode" v="97212"/><tag k="addr:city" v="Portland"/><tag k="addr:street" v="Northeast Fargo Street"/></node>
<node id="-15" lat="45.546123367" lon="-122.659786322" visible="true"><tag k="addr:housenumber" v="542"/><tag k="addr:postcode" v="97212"/><tag k="addr:city" v="Portland"/><tag k="addr:street" v="Northeast Fargo Street"/></node>
<node id="-16" lat="45.548032684" lon="-122.653654273" visible="true"><tag k="addr:housenumber" v="1148"/><tag k="addr:postcode" v="97212"/><tag k="addr:city" v="Portland"/><tag k="addr:street" v="Northeast Fremont Street"/></node>
<node id="-17" lat="45.542716324" lon="-122.660201749" visible="true"><tag k="addr:housenumber" v="508"/><tag k="addr:postcode" v="97212"/><tag k="addr:city" v="Portland"/><tag k="addr:street" v="Northeast Graham Street"/></node>
<node id="-18" lat="45.542709816" lon="-122.660204311" visible="true"><tag k="addr:housenumber" v="512"/><tag k="addr:postcode" v="97212"/><tag k="addr:city" v="Portland"/><tag k="addr:street" v="Northeast Graham Street"/></node>
<node id="-19" lat="45.543223304" lon="-122.659616519" visible="true"><tag k="addr:housenumber" v="545"/><tag k="addr:postcode" v="97212"/><tag k="addr:city" v="Portland"/><tag k="addr:street" v="Northeast Graham Street"/></node>
<node id="-20" lat="45.5432252" lon="-122.659610189" visible="true"><tag k="addr:housenumber" v="547"/><tag k="addr:postcode" v="97212"/><tag k="addr:city" v="Portland"/><tag k="addr:street" v="Northeast Graham Street"/></node>
<node id="-21" lat="45.547686491" lon="-122.660748484" visible="true"><tag k="addr:housenumber" v="424"/><tag k="addr:postcode" v="97212"/><tag k="addr:city" v="Portland"/><tag k="addr:street" v="Northeast Ivy Street"/></node>
<node id="-22" lat="45.54768091" lon="-122.660752015" visible="true"><tag k="addr:housenumber" v="430"/><tag k="addr:postcode" v="97212"/><tag k="addr:city" v="Portland"/><tag k="addr:street" v="Northeast Ivy Street"/></node>
<node id="-23" lat="45.547681018" lon="-122.660749432" visible="true"><tag k="addr:housenumber" v="436"/><tag k="addr:postcode" v="97212"/><tag k="addr:city" v="Portland"/><tag k="addr:street" v="Northeast Ivy Street"/></node>
<node id="-24" lat="45.541923667" lon="-122.653786681" visible="true"><tag k="addr:housenumber" v="1128"/><tag k="addr:postcode" v="97212"/><tag k="addr:city" v="Portland"/><tag k="addr:street" v="Northeast Knott Street"/></node>
<node id="-25" lat="45.541921257" lon="-122.653789312" visible="true"><tag k="addr:housenumber" v="1135"/><tag k="addr:postcode" v="97212"/><tag k="addr:city" v="Portland"/><tag k="addr:street" v="Northeast Knott Street"/></node>
<node id="-26" lat="45.544420676" lon="-122.659411098" visible="true"><tag k="addr:housenumber" v="606"/><tag k="addr:postcode" v="97212"/><tag k="addr:city" v="Portland"/><tag k="addr:street" v="Northeast Morris Street"/></node>
<node id="-27" lat="45.544413676" lon="-122.659412109" visible="true"><tag k="addr:housenumber" v="608"/><tag k="addr:postcode" v="97212"/><tag k="addr:city" v="Portland"/><tag k="addr:street" v="Northeast Morris Street"/></node>
<node id="-28" lat="45.543567146" lon="-122.659214453" visible="true"><tag k="addr:housenumber" v="612"/><tag k="addr:postcode" v="97212"/><tag k="addr:city" v="Portland"/><tag k="addr:street" v="Northeast Stanton Street"/></node>
<node id="-29" lat="45.543558109" lon="-122.659224206" visible="true"><tag k="addr:housenumber" v="614"/><tag k="addr:postcode" v="97212"/><tag k="addr:city" v="Portland"/><tag k="addr:street" v="Northeast Stanton Street"/></node>
<node id="-30" lat="45.543562948" lon="-122.65922173" visible="true"><tag k="addr:housenumber" v="616"/><tag k="addr:postcode" v="97212"/><tag k="addr:city" v="Portland"/><tag k="addr:street" v="Northeast Stanton Street"/></node>
<node id="-31" lat="45.543566023" lon="-122.659216007" visible="true"><tag k="addr:housenumber" v="618"/><tag k="addr:postcode" v="97212"/><tag k="addr:city" v="Portland"/><tag k="addr:street" v="Northeast Stanton Street"/></node>
</osm>