<?xml version="1.0"?>
<osm version="0.6" upload="false" generator="uvmogr2osm">
<node id="-1" lat="45.555617275" lon="-122.629961557" visible="true"><tag k="addr:housenumber" v="4525"/><tag k="addr:postcode" v="97211"/><tag k="addr:city" v="Portland"/><tag k="addr:street" v="Northeast 34th Avenue"/></node>
<node id="-2" lat="45.555612737" lon="-122.629957374" visible="true"><tag k="addr:housenumber" v="4529"/><tag k="addr:postcode" v="97211"/><tag k="addr:city" v="Portland"/><tag k="addr:street" v="Northeast 34th Avenue"/></node>
<node id="-3" lat="45.556169871" lon="-122.628346516" visible="true"><tag k="addr:housenumber" v="4552"/><tag k="addr:postcode" v="97211"/><tag k="addr:city" v="Portland"/><tag k="addr:street" v="Northeast 35th Avenue"/></node>
<node id="-4" lat="45.556163612" lon="-122.628350843" visible="true"><tag k="addr:housenumber" v="4564"/><tag k="addr:postcode" v="97211"/><tag k="addr:city" v="Portland"/><tag k="addr:street" v="Northeast 35th Avenue"/></node>
<node id="-5" lat="45.557648545" lon="-122.628311749" visible="true"><tag k="addr:housenumber" v="4800"/><tag k="addr:postcode" v="97211"/><tag k="addr:city" v="Portland"/><tag k="addr:street" v="Northeast 35th Avenue"/></node>
<node id="-6" lat="45.557704108" lon="-122.628323982" visible="true"><tag k="addr:housenumber" v="4816"/><tag k="addr:postcode" v="97211"/><tag k="addr:city" v="Portland"/><tag k="addr:street" v="Northeast 35th Avenue"/></node>
<node id="-7" lat="45.55775807" lon="-122.628333214" visible="true"><tag k="addr:housenumber" v="4818"/><tag k="addr:postcode" v="97211"/><tag k="addr:city" v="Portland"/><tag k="addr:street" v="Northeast 35th Avenue"/></node>
<node id="-8" lat="45.561183548" lon="-122.62738299" visible="true"><tag k="addr:housenumber" v="5242"/><tag k="addr:postcode" v="97211"/><tag k="addr:city" v="Portland"/><tag k="addr:street" v="Northeast 35th Place"/></node>
<node id="-9" lat="45.558432695" lon="-122.626884453" visible="true"><tag k="addr:housenumber" v="4901"/><tag k="addr:postcode" v="97211"/><tag k="addr:city" v="Portland"/><tag k="addr:street" v="Northeast 36th Avenue"/></node>
<node id="-10" lat="45.560179668" lon="-122.626304099" visible="true"><tag k="addr:housenumber" v="5118"/><tag k="addr:postcode" v="97211"/><tag k="addr:city" v="Portland"/><tag k="addr:street" v="Northeast 36th Avenue"/></node>
<node id="-11" lat="45.560181488" lon="-122.626307814" visible="true"><tag k="addr:housenumber" v="5120"/><tag k="addr:postcode" v="97211"/><tag k="addr:city" v="Portland"/><tag k="addr:street" v="Northeast 36th Avenue"/></node>
<node id="-12" lat="45.562199855" lon="-122.626922357" visible="true"><tag k="addr:housenumber" v="5411"/><tag k="addr:postcode" v="97211"/><tag k="addr:city" v="Portland"/><tag k="addr:street" v="Northeast 36th Avenue"/></node>
<node id="-13" lat="45.562206066" lon="-122.626916409" visible="true"><tag k="addr:housenumber" v="5419"/><tag k="addr:postcode" v="97211"/><tag k="addr:city" v="Portland"/><tag k="addr:street" v="Northeast 36th Avenue"/></node>
<node id="-14" lat="45.562429472" lon="-122.626258607" visible="true"><tag k="addr:housenumber" v="5426"/><tag k="addr:postcode" v="97211"/><tag k="addr:city" v="Portland"/><tag k="addr:street" v="Northeast 36th Avenue"/></node>
<node id="-15" lat="45.562424959" lon="-122.626252512" visible="true"><tag k="addr:housenumber" v="5428"/><tag k="addr:postcode" v="97211"/><tag k="addr:city" v="Portland"/><tag k="addr:street" v="Northeast 36th Avenue"/></node>
<node id="-16" lat="45.562428377" lon="-122.62513829" visible="true"><tag k="addr:housenumber" v="5426"/><tag k="addr:postcode" v="97211"/><tag k="addr:city" v="Portland"/><tag k="addr:street" v="Northeast 37th Avenue"/></node>
<node id="-17" lat="45.562426302" lon="-122.625143945" visible="true"><tag k="addr:housenumber" v="5428"/><tag k="addr:postcode" v="97211"/><tag k="addr:city" v="Portland"/><tag k="addr:street" v="Northeast 37th Avenue"/></node>
<node id="-18" lat="45.562428018" lon="-122.625140616" visible="true"><tag k="addr:housenumber" v="5430"/><tag k="addr:postcode" v="97211"/><tag k="addr:city" v="Portland"/><tag k="addr:street" v="Northeast 37th Avenue"/></node>
<node id="-19" lat="45.556979496" lon="-122.62414288" visible="true"><tag k="addr:housenumber" v="4612"/><tag k="addr:postcode" v="97211"/><tag k="addr:city" v="Portland"/><tag k="addr:street" v="Northeast 38th Avenue"/></node>
<node id="-20" lat="45.556976461" lon="-122.624137306" visible="true"><tag k="addr:housenumber" v="4612 B"/><tag k="addr:postcode" v="97211"/><tag k="addr:city" v="Portland"/><tag k="addr:street" v="Northeast 38th Avenue"/></node>
<node id="-21" lat="45.555773852" lon="-122.620710512" visible="true"><tag k="addr:housenumber" v="4509"/><tag k="addr:postcode" v="97218"/><tag k="addr:city" v="Portland"/><tag k="addr:street" v="Northeast 42nd Avenue"/></node>
<node id="-22" lat="45.555776888" lon="-122.620711466" visible="true"><tag k="addr:housenumber" v="4515"/><tag k="addr:postcode" v="97218"/><tag k="addr:city" v="Portland"/><tag k="addr:street" v="Northeast 42nd Avenue"/></node>
<node id="-23" lat="45.556150584" lon="-122.620712494" visible="true"><tag k="addr:housenumber" v="4533"/><tag k="addr:postcode" v="97218"/><tag k="addr:city" v="Portland"/><tag k="addr:street" v="Northeast 42nd Avenue"/></node>
<node id="-24" lat="45.556152011" lon="-122.620706695" visible="true"><tag k="addr:housenumber" v="4545"/><tag k="addr:postcode" v="97218"/><tag k="addr:city" v="Portland"/><tag k="addr:street" v="Northeast 42nd Avenue"/></node>
<node id="-25" lat="45.556311696" lon="-122.620766763" visible="true"><tag k="addr:housenumber" v="4547"/><tag k="addr:postcode" v="97218"/><tag k="addr:city" v="Portland"/><tag k="addr:street" v="Northeast 42nd Avenue"/></node>
<node id="-26" lat="45.556317792" lon="-122.620757993" visible="true"><tag k="addr:housenumber" v="4555"/><tag k="addr:postcode" v="97218"/><tag k="addr:city" v="Portland"/><tag k="addr:street" v="Northeast 42nd Avenue"/></node>
<node id="-27" lat="45.557249927" lon="-122.620714946" visible="true"><tag k="addr:housenumber" v="4635"/><tag k="addr:postcode" v="97218"/><tag k="addr:city" v="Portland"/><tag k="addr:street" v="Northeast 42nd Avenue"/></node>
<node id="-28" lat="45.557244627" lon="-122.620707446" visible="true"><tag k="addr:housenumber" v="4637"/><tag k="addr:postcode" v="97218"/><tag k="addr:city" v="Portland"/><tag k="addr:street" v="Northeast 42nd Avenue"/></node>
<node id="-29" lat="45.557727915" lon="-122.620714169" visible="true"><tag k="addr:housenumber" v="4811"/><tag k="addr:postcode" v="97218"/><tag k="addr:city" v="Portland"/><tag k="addr:street" v="Northeast 42nd Avenue"/></node>
<node id="-30" lat="45.557722623" lon="-122.620705957" visible="true"><tag k="addr:housenumber" v="4815"/><tag k="addr:postcode" v="97218"/><tag k="addr:city" v="Portland"/><tag k="addr:street" v="Northeast 42nd Avenue"/></node>
<node id="-31" lat="45.557860223" lon="-122.62071469" visible="true"><tag k="addr:housenumber" v="4821"/><tag k="addr:postcode" v="97218"/><tag k="addr:city" v="Portland"/><tag k="addr:street" v="Northeast 42nd Avenue"/></node>
<node id="-32" lat="45.557866848" lon="-122.620706548" visible="true"><tag k="addr:housenumber" v="4823"/><tag k="addr:postcode" v="97218"/><tag k="addr:city" v="Portland"/><tag k="addr:street" v="Northeast 42nd Avenue"/></node>
<node id="-33" lat="45.557860103" lon="-122.620712661" visible="true"><tag k="addr:housenumber" v="4831"/><tag k="addr:postcode" v="97218"/><tag k="addr:city" v="Portland"/><tag k="addr:street" v="Northeast 42nd Avenue"/></node>
<node id="-34" lat="45.557864924" lon="-122.620710213" visible="true"><tag k="addr:housenumber" v="4839"/><tag k="addr:postcode" v="97218"/><tag k="addr:city" v="Portland"/><tag k="addr:street" v="Northeast 42nd Avenue"/></node>
<node id="-35" lat="45.558410738" lon="-122.620708053" visible="true"><tag k="addr:housenumber" v="4905"/><tag k="addr:postcode" v="97218"/><tag k="addr:city" v="Portland"/><tag k="addr:street" v="Northeast 42nd Avenue"/></node>
<node id="-36" lat="45.558418148" lon="-122.620705907" visible="true"><tag k="addr:housenumber" v="4907"/><tag k="addr:postcode" v="97218"/><tag k="addr:city" v="Portland"/><tag k="addr:street" v="Northeast 42nd Avenue"/></node>
<node id="-37" lat="45.558416375" lon="-122.620713797" visible="true"><tag k="addr:housenumber" v="4909"/><tag k="addr:postcode" v="97218"/><tag k="addr:city" v="Portland"/><tag k="addr:street" v="Northeast 42nd Avenue"/></node>
<node id="-38" lat="45.559318483" lon="-122.620726447" visible="true"><tag k="addr:housenumber" v="5013"/><tag k="addr:postcode" v="97218"/><tag k="addr:city" v="Portland"/><tag k="addr:street" v="Northeast 42nd Avenue"/></node>
<node id="-39" lat="45.559315085" lon="-122.620728034" visible="true"><tag k="addr:housenumber" v="5027"/><tag k="addr:postcode" v="97218"/><tag k="addr:city" v="Portland"/><tag k="addr:street" v="Northeast 42nd Avenue"/></node>
<node id="-40" lat="45.562001138" lon="-122.620821812" visible="true"><tag k="addr:housenumber" v="5341"/><tag k="addr:postcode" v="97218"/><tag k="addr:city" v="Portland"/><tag k="addr:street" v="Northeast 42nd Avenue"/></node>
<node id="-41" lat="45.56199363" lon="-122.62081873" visible="true"><tag k="addr:housenumber" v="5345"/><tag k="addr:postcode" v="97218"/><tag k="addr:city" v="Portland"/><tag k="addr:street" v="Northeast 42nd Avenue"/></node>
<node id="-42" lat="45.56260061" lon="-122.620712399" visible="true"><tag k="addr:housenumber" v="5447"/><tag k="addr:postcode" v="97218"/><tag k="addr:city" v="Portland"/><tag k="addr:street" v="Northeast 42nd Avenue"/></node>
<node id="-43" lat="45.55843473" lon="-122.62688803" visible="true"><tag k="addr:housenumber" v="3581"/><tag k="addr:postcode" v="97211"/><tag k="addr:city" v="Portland"/><tag k="addr:street" v="Northeast Alberta Court"/></node>
<node id="-44" lat="45.561184403" lon="-122.623130266" visible="true"><tag k="addr:housenumber" v="5256"/><tag k="addr:postcode" v="97211"/><tag k="addr:city" v="Portland"/><tag k="addr:street" v="Northeast C&#233;sar E. Ch&#225;vez Boulevard"/></node>
<node id="-45" lat="45.561190322" lon="-122.62737781" visible="true"><tag k="addr:housenumber" v="3558"/><tag k="addr:postcode" v="97211"/><tag k="addr:city" v="Portland"/><tag k="addr:street" v="Northeast Emerson Street"/></node>
<node id="-46" lat="45.561181501" lon="-122.623135438" visible="true"><tag k="addr:housenumber" v="3910"/><tag k="addr:postcode" v="97211"/><tag k="addr:city" v="Portland"/><tag k="addr:street" v="Northeast Emerson Street"/></node>
<node id="-47" lat="45.562524076" lon="-122.624864987" visible="true"><tag k="addr:housenumber" v="3728"/><tag k="addr:postcode" v="97211"/><tag k="addr:city" v="Portland"/><tag k="addr:street" v="Northeast Killingsworth Street"/></node>
<node id="-48" lat="45.562521338" lon="-122.624868309" visible="true"><tag k="addr:housenumber" v="3730"/><tag k="addr:postcode" v="97211"/><tag k="addr:city" v="Portland"/><tag k="addr:street" v="Northeast Killingsworth Street"/></node>
<node id="-49" lat="45.562520531" lon="-122.624871883" visible="true"><tag k="addr:housenumber" v="3732"/><tag k="addr:postcode" v="97211"/><tag k="addr:city" v="Portland"/><tag k="addr:street" v="Northeast Killingsworth Street"/></node>
<node id="-50" lat="45.562600719" lon="-122.620711128" visible="true"><tag k="addr:housenumber" v="4124"/><tag k="addr:postcode" v="97211"/><tag k="addr:city" v="Portland"/><tag k="addr:street" v="Northeast Killingsworth Street"/></node>
<node id="-51" lat="45.560704593" lon="-122.624623184" visible="true"><tag k="addr:housenumber" v="3738"/><tag k="addr:postcode" v="97211"/><tag k="addr:city" v="Portland"/><tag k="addr:street" v="Northeast Roselawn Street"/></node>
<node id="-52" lat="45.560700363" lon="-122.62463032" visible="true"><tag k="addr:housenumber" v="3750"/><tag k="addr:postcode" v="97211"/><tag k="addr:city" v="Portland"/><tag k="addr:street" v="Northeast Roselawn Street"/></node>
<node id="-53" lat="45.560007634" lon="-122.625014807" visible="true"><tag k="addr:housenumber" v="3722"/><tag k="addr:postcode" v="97211"/><tag k="addr:city" v="Portland"/><tag k="addr:street" v="Northeast Sumner Street"/></node>
<node id="-54" lat="45.560008338" lon="-122.62501429" visible="true"><tag k="addr:housenumber" v="3728"/><tag k="addr:postcode" v="97211"/><tag k="addr:city" v="Portland"/><tag k="addr:street" v="Northeast Sumner Street"/></node>
<node id="-55" lat="45.560433498" lon="-122.62345441" visible="true"><tag k="addr:housenumber" v="3835"/><tag k="addr:postcode" v="97211"/><tag k="addr:city" v="Portland"/><tag k="addr:street" v="Northeast Sumner Street"/></node>
<node id="-56" lat="45.560442237" lon="-122.623457202" visible="true"><tag k="addr:housenumber" v="3841"/><tag k="addr:postcode" v="97211"/><tag k="addr:city" v="Portland"/><tag k="addr:street" v="Northeast Sumner Street"/></node>
<node id="-57" lat="45.560567464" lon="-122.62073001" visible="true"><tag k="addr:housenumber" v="4121"/><tag k="addr:postcode" v="97211"/><tag k="addr:city" v="Portland"/><tag k="addr:street" v="Northeast Sumner Street"/></node>
<node id="-58" lat="45.560571392" lon="-122.620738846" visible="true"><tag k="addr:housenumber" v="4123"/><tag k="addr:postcode" v="97211"/><tag k="addr:city" v="Portland"/><tag k="addr:street" v="Northeast Sumner Street"/></node>
<node id="-59" lat="45.560572521" lon="-122.620739077" visible="true"><tag k="addr:housenumber" v="4125"/><tag k="addr:postcode" v="97211"/><tag k="addr:city" v="Portland"/><tag k="addr:street" v="Northeast Sumner Street"/></node>
<node id="-60" lat="45.560571023" lon="-122.620738885" visible="true"><tag k="addr:housenumber" v="4127"/><tag k="addr:postcode" v="97211"/><tag k="addr:city" v="Portland"/><tag k="addr:street" v="Northeast Sumner Street"/></node>
<node id="-61" lat="45.56056442" lon="-122.620739006" visible="true"><tag k="addr:housenumber" v="4129"/><tag k="addr:postcode" v="97211"/><tag k="addr:city" v="Portland"/><tag k="addr:street" v="Northeast Sumner Street"/></node>
<node id="-62" lat="45.560573113" lon="-122.620736773" visible="true"><tag k="addr:housenumber" v="4131"/><tag k="addr:postcode" v="97211"/><tag k="addr:city" v="Portland"/><tag k="addr:street" v="Northeast Sumner Street"/></node>
<node id="-63" lat="45.560570889" lon="-122.620736049" visible="true"><tag k="addr:housenumber" v="4133"/><tag k="addr:postcode" v="97211"/><tag k="addr:city" v="Portland"/><tag k="addr:street" v="Northeast Sumner Street"/></node>
<node id="-64" lat="45.56057247" lon="-122.620730193" visible="true"><tag k="addr:housenumber" v="4135"/><tag k="addr:postcode" v="97211"/><tag k="addr:city" v="Portland"/><tag k="addr:street" v="Northeast Sumner Street"/></node>
<node id="-65" lat="45.560567359" lon="-122.620738687" visible="true"><tag k="addr:housenumber" v="4137"/><tag k="addr:postcode" v="97211"/><tag k="addr:city" v="Portland"/><tag k="addr:street" v="Northeast Sumner Street"/></node>
<node id="-66" lat="45.560572858" lon="-122.62072946" visible="true"><tag k="addr:housenumber" v="4139"/><tag k="addr:postcode" v="97211"/><tag k="addr:city" v="Portland"/><tag k="addr:street" v="Northeast Sumner Street"/></node>
<node id="-67" lat="45.560567638" lon="-122.620736893" visible="true"><tag k="addr:housenumber" v="4141"/><tag k="addr:postcode" v="97211"/><tag k="addr:city" v="Portland"/><tag k="addr:street" v="Northeast Sumner Street"/></node>
<node id="-68" lat="45.560569166" lon="-122.62073264" visible="true"><tag k="addr:housenumber" v="4143"/><tag k="addr:postcode" v="97211"/><tag k="addr:city" v="Portland"/><tag k="addr:street" v="Northeast Sumner Street"/></node>
<node id="-69" lat="45.560564586" lon="-122.620737117" visible="true"><tag k="addr:housenumber" v="4145"/><tag k="addr:postcode" v="97211"/><tag k="addr:city" v="Portland"/><tag k="addr:street" v="Northeast Sumner Street"/></node>
<node id="-70" lat="45.55967341" lon="-122.628191093" visible="true"><tag k="addr:housenumber" v="3510"/><tag k="addr:postcode" v="97211"/><tag k="addr:city" v="Portland"/><tag k="addr:street" v="Northeast Webster Street"/></node>
<node id="-71" lat="45.559676019" lon="-122.628196796" visible="true"><tag k="addr:housenumber" v="3520"/><tag k="addr:postcode" v="97211"/><tag k="addr:city" v="Portland"/><tag k="addr:street" v="Northeast Webster Street"/></node>
</osm>