<?xml version="1.0"?>
<osm version="0.6" upload="false" generator="uvmogr2osm">
<node id="-1" lat="45.551631873" lon="-122.629961013" visible="true"><tag k="addr:housenumber" v="3955"/><tag k="addr:postcode" v="97212"/><tag k="addr:city" v="Portland"/><tag k="addr:street" v="Northeast 34th Avenue"/></node>
<node id="-2" lat="45.554002943" lon="-122.628322773" visible="true"><tag k="addr:housenumber" v="4316"/><tag k="addr:postcode" v="97211"/><tag k="addr:city" v="Portland"/><tag k="addr:street" v="Northeast 35th Avenue"/></node>
<node id="-3" lat="45.554005936" lon="-122.628326138" visible="true"><tag k="addr:housenumber" v="4318"/><tag k="addr:postcode" v="97211"/><tag k="addr:city" v="Portland"/><tag k="addr:street" v="Northeast 35th Avenue"/></node>
<node id="-4" lat="45.555026986" lon="-122.627930871" visible="true"><tag k="addr:housenumber" v="4441"/><tag k="addr:postcode" v="97211"/><tag k="addr:city" v="Portland"/><tag k="addr:street" v="Northeast 35th Place"/></node>
<node id="-5" lat="45.555032167" lon="-122.62793791" visible="true"><tag k="addr:housenumber" v="4443"/><tag k="addr:postcode" v="97211"/><tag k="addr:city" v="Portland"/><tag k="addr:street" v="Northeast 35th Place"/></node>
<node id="-6" lat="45.550700908" lon="-122.62688394" visible="true"><tag k="addr:housenumber" v="3823"/><tag k="addr:postcode" v="97212"/><tag k="addr:city" v="Portland"/><tag k="addr:street" v="Northeast 36th Avenue"/></node>
<node id="-7" lat="45.550695689" lon="-122.626884205" visible="true"><tag k="addr:housenumber" v="3825"/><tag k="addr:postcode" v="97212"/><tag k="addr:city" v="Portland"/><tag k="addr:street" v="Northeast 36th Avenue"/></node>
<node id="-8" lat="45.550445178" lon="-122.625177145" visible="true"><tag k="addr:housenumber" v="3906"/><tag k="addr:postcode" v="97212"/><tag k="addr:city" v="Portland"/><tag k="addr:street" v="Northeast 37th Avenue"/></node>
<node id="-9" lat="45.549459259" lon="-122.627694769" visible="true"><tag k="addr:housenumber" v="3546"/><tag k="addr:postcode" v="97212"/><tag k="addr:city" v="Portland"/><tag k="addr:street" v="Northeast Bryce Street"/></node>
<node id="-10" lat="45.549459822" lon="-122.627695961" visible="true"><tag k="addr:housenumber" v="3550"/><tag k="addr:postcode" v="97212"/><tag k="addr:city" v="Portland"/><tag k="addr:street" v="Northeast Bryce Street"/></node>
<node id="-11" lat="45.551183003" lon="-122.62315054" visible="true"><tag k="addr:housenumber" v="3960"/><tag k="addr:postcode" v="97212"/><tag k="addr:city" v="Portland"/><tag k="addr:street" v="Northeast C&#233;sar E. Ch&#225;vez Boulevard"/></node>
<node id="-12" lat="45.55118612" lon="-122.623143939" visible="true"><tag k="addr:housenumber" v="3962"/><tag k="addr:postcode" v="97212"/><tag k="addr:city" v="Portland"/><tag k="addr:street" v="Northeast C&#233;sar E. Ch&#225;vez Boulevard"/></node>
<node id="-13" lat="45.550443608" lon="-122.625181336" visible="true"><tag k="addr:housenumber" v="3707"/><tag k="addr:postcode" v="97212"/><tag k="addr:city" v="Portland"/><tag k="addr:street" v="Northeast Failing Street"/></node>
<node id="-14" lat="45.551635652" lon="-122.629957353" visible="true"><tag k="addr:housenumber" v="3330"/><tag k="addr:postcode" v="97212"/><tag k="addr:city" v="Portland"/><tag k="addr:street" v="Northeast Shaver Street"/></node>
</osm>