<?xml version="1.0"?>
<osm version="0.6" upload="false" generator="uvmogr2osm">
<node id="-1" lat="45.587702088" lon="-122.774527492" visible="true"><tag k="addr:housenumber" v="9143"/><tag k="addr:postcode" v="97231"/><tag k="addr:city" v="Portland"/><tag k="addr:street" v="Northwest Germantown Road"/></node>
<node id="-2" lat="45.587703606" lon="-122.774520243" visible="true"><tag k="addr:housenumber" v="9145"/><tag k="addr:postcode" v="97231"/><tag k="addr:city" v="Portland"/><tag k="addr:street" v="Northwest Germantown Road"/></node>
<node id="-3" lat="45.590223552" lon="-122.778989463" visible="true"><tag k="addr:housenumber" v="9442"/><tag k="addr:postcode" v="97231"/><tag k="addr:city" v="Portland"/><tag k="addr:street" v="Northwest Roseway Avenue"/></node>
<node id="-4" lat="45.590229371" lon="-122.7789861" visible="true"><tag k="addr:housenumber" v="9446"/><tag k="addr:postcode" v="97231"/><tag k="addr:city" v="Portland"/><tag k="addr:street" v="Northwest Roseway Avenue"/></node>
<node id="-5" lat="45.590329624" lon="-122.779220152" visible="true"><tag k="addr:housenumber" v="9450"/><tag k="addr:postcode" v="97231"/><tag k="addr:city" v="Portland"/><tag k="addr:street" v="Northwest Roseway Avenue"/></node>
<node id="-6" lat="45.590329268" lon="-122.779220346" visible="true"><tag k="addr:housenumber" v="9452"/><tag k="addr:postcode" v="97231"/><tag k="addr:city" v="Portland"/><tag k="addr:street" v="Northwest Roseway Avenue"/></node>
<node id="-7" lat="45.590764685" lon="-122.779464551" visible="true"><tag k="addr:housenumber" v="9530"/><tag k="addr:postcode" v="97231"/><tag k="addr:city" v="Portland"/><tag k="addr:street" v="Northwest Roseway Avenue"/></node>
<node id="-8" lat="45.590766467" lon="-122.779461072" visible="true"><tag k="addr:housenumber" v="9531"/><tag k="addr:postcode" v="97231"/><tag k="addr:city" v="Portland"/><tag k="addr:street" v="Northwest Roseway Avenue"/></node>
<node id="-9" lat="45.582946798" lon="-122.800055894" visible="true"><tag k="addr:housenumber" v="8425"/><tag k="addr:postcode" v="97231"/><tag k="addr:city" v="Portland"/><tag k="addr:street" v="Northwest Skyline Boulevard"/></node>
<node id="-10" lat="45.582945744" lon="-122.800055935" visible="true"><tag k="addr:housenumber" v="8427"/><tag k="addr:postcode" v="97231"/><tag k="addr:city" v="Portland"/><tag k="addr:street" v="Northwest Skyline Boulevard"/></node>
<node id="-11" lat="45.580597271" lon="-122.795834015" visible="true"><tag k="addr:housenumber" v="9310"/><tag k="addr:postcode" v="97231"/><tag k="addr:city" v="Portland"/><tag k="addr:street" v="Northwest Skyline Boulevard"/></node>
<node id="-12" lat="45.567667178" lon="-122.810133763" visible="true"><tag k="addr:housenumber" v="12839"/><tag k="addr:postcode" v="97229"/><tag k="addr:city" v="Portland"/><tag k="addr:street" v="Northwest Springville Road"/></node>
<node id="-13" lat="45.56766174" lon="-122.810131835" visible="true"><tag k="addr:housenumber" v="12931"/><tag k="addr:postcode" v="97229"/><tag k="addr:city" v="Portland"/><tag k="addr:street" v="Northwest Springville Road"/></node>
<node id="-14" lat="45.580596713" lon="-122.795836634" visible="true"><tag k="addr:housenumber" v="11525"/><tag k="addr:postcode" v="97229"/><tag k="addr:city" v="Portland"/><tag k="addr:street" v="Northwest Willalatin Road"/></node>
<node id="-15" lat="45.558487943" lon="-122.778395153" visible="true"><tag k="addr:housenumber" v="9900"/><tag k="addr:postcode" v="97229"/><tag k="addr:city" v="Portland"/><tag k="addr:street" v="Northwest Wind Ridge Drive"/></node>
<node id="-16" lat="45.55848119" lon="-122.778397075" visible="true"><tag k="addr:housenumber" v="9936"/><tag k="addr:postcode" v="97229"/><tag k="addr:city" v="Portland"/><tag k="addr:street" v="Northwest Wind Ridge Drive"/></node>
</osm>