<?xml version="1.0"?>
<osm version="0.6" upload="false" generator="uvmogr2osm">
<node id="-1" lat="45.593201569" lon="-122.763009769" visible="true"><tag k="addr:housenumber" v="6824"/><tag k="addr:postcode" v="97203"/><tag k="addr:city" v="Portland"/><tag k="addr:street" v="North Catlin Avenue"/></node>
<node id="-2" lat="45.59320232" lon="-122.7630109" visible="true"><tag k="addr:housenumber" v="6838"/><tag k="addr:postcode" v="97203"/><tag k="addr:city" v="Portland"/><tag k="addr:street" v="North Catlin Avenue"/></node>
<node id="-3" lat="45.595417674" lon="-122.757938112" visible="true"><tag k="addr:housenumber" v="7529"/><tag k="addr:postcode" v="97203"/><tag k="addr:city" v="Portland"/><tag k="addr:street" v="North Catlin Avenue"/></node>
<node id="-4" lat="45.59542448" lon="-122.757936004" visible="true"><tag k="addr:housenumber" v="7531"/><tag k="addr:postcode" v="97203"/><tag k="addr:city" v="Portland"/><tag k="addr:street" v="North Catlin Avenue"/></node>
<node id="-5" lat="45.595417266" lon="-122.757932438" visible="true"><tag k="addr:housenumber" v="7533"/><tag k="addr:postcode" v="97203"/><tag k="addr:city" v="Portland"/><tag k="addr:street" v="North Catlin Avenue"/></node>
<node id="-6" lat="45.595417077" lon="-122.757928266" visible="true"><tag k="addr:housenumber" v="7535"/><tag k="addr:postcode" v="97203"/><tag k="addr:city" v="Portland"/><tag k="addr:street" v="North Catlin Avenue"/></node>
<node id="-7" lat="45.593582768" lon="-122.755725468" visible="true"><tag k="addr:housenumber" v="9020"/><tag k="addr:postcode" v="97203"/><tag k="addr:city" v="Portland"/><tag k="addr:street" v="North Central Street"/></node>
<node id="-8" lat="45.593940063" lon="-122.755099888" visible="true"><tag k="addr:housenumber" v="9021"/><tag k="addr:postcode" v="97203"/><tag k="addr:city" v="Portland"/><tag k="addr:street" v="North Central Street"/></node>
<node id="-9" lat="45.593581773" lon="-122.755720657" visible="true"><tag k="addr:housenumber" v="9022"/><tag k="addr:postcode" v="97203"/><tag k="addr:city" v="Portland"/><tag k="addr:street" v="North Central Street"/></node>
<node id="-10" lat="45.593585396" lon="-122.755726878" visible="true"><tag k="addr:housenumber" v="9024"/><tag k="addr:postcode" v="97203"/><tag k="addr:city" v="Portland"/><tag k="addr:street" v="North Central Street"/></node>
<node id="-11" lat="45.593588422" lon="-122.755723011" visible="true"><tag k="addr:housenumber" v="9026"/><tag k="addr:postcode" v="97203"/><tag k="addr:city" v="Portland"/><tag k="addr:street" v="North Central Street"/></node>
<node id="-12" lat="45.593589441" lon="-122.755722318" visible="true"><tag k="addr:housenumber" v="9028"/><tag k="addr:postcode" v="97203"/><tag k="addr:city" v="Portland"/><tag k="addr:street" v="North Central Street"/></node>
<node id="-13" lat="45.593583407" lon="-122.755721472" visible="true"><tag k="addr:housenumber" v="9030"/><tag k="addr:postcode" v="97203"/><tag k="addr:city" v="Portland"/><tag k="addr:street" v="North Central Street"/></node>
<node id="-14" lat="45.593582591" lon="-122.755723453" visible="true"><tag k="addr:housenumber" v="9032"/><tag k="addr:postcode" v="97203"/><tag k="addr:city" v="Portland"/><tag k="addr:street" v="North Central Street"/></node>
<node id="-15" lat="45.593938787" lon="-122.755097282" visible="true"><tag k="addr:housenumber" v="9033"/><tag k="addr:postcode" v="97203"/><tag k="addr:city" v="Portland"/><tag k="addr:street" v="North Central Street"/></node>
<node id="-16" lat="45.593590122" lon="-122.755723984" visible="true"><tag k="addr:housenumber" v="9034"/><tag k="addr:postcode" v="97203"/><tag k="addr:city" v="Portland"/><tag k="addr:street" v="North Central Street"/></node>
<node id="-17" lat="45.593581485" lon="-122.755728355" visible="true"><tag k="addr:housenumber" v="9036"/><tag k="addr:postcode" v="97203"/><tag k="addr:city" v="Portland"/><tag k="addr:street" v="North Central Street"/></node>
<node id="-18" lat="45.593941241" lon="-122.755092256" visible="true"><tag k="addr:housenumber" v="9037"/><tag k="addr:postcode" v="97203"/><tag k="addr:city" v="Portland"/><tag k="addr:street" v="North Central Street"/></node>
<node id="-19" lat="45.593588026" lon="-122.755724843" visible="true"><tag k="addr:housenumber" v="9038"/><tag k="addr:postcode" v="97203"/><tag k="addr:city" v="Portland"/><tag k="addr:street" v="North Central Street"/></node>
<node id="-20" lat="45.5959733" lon="-122.757648494" visible="true"><tag k="addr:housenumber" v="9524"/><tag k="addr:postcode" v="97203"/><tag k="addr:city" v="Portland"/><tag k="addr:street" v="North Central Street"/></node>
<node id="-21" lat="45.595972924" lon="-122.757650618" visible="true"><tag k="addr:housenumber" v="9530"/><tag k="addr:postcode" v="97203"/><tag k="addr:city" v="Portland"/><tag k="addr:street" v="North Central Street"/></node>
<node id="-22" lat="45.596786996" lon="-122.758547463" visible="true"><tag k="addr:housenumber" v="9660"/><tag k="addr:postcode" v="97203"/><tag k="addr:city" v="Portland"/><tag k="addr:street" v="North Central Street"/></node>
<node id="-23" lat="45.591434465" lon="-122.756461993" visible="true"><tag k="addr:housenumber" v="7326"/><tag k="addr:postcode" v="97203"/><tag k="addr:city" v="Portland"/><tag k="addr:street" v="North Chicago Avenue"/></node>
<node id="-24" lat="45.591437404" lon="-122.756471025" visible="true"><tag k="addr:housenumber" v="7334"/><tag k="addr:postcode" v="97203"/><tag k="addr:city" v="Portland"/><tag k="addr:street" v="North Chicago Avenue"/></node>
<node id="-25" lat="45.591722763" lon="-122.756764466" visible="true"><tag k="addr:housenumber" v="7337"/><tag k="addr:postcode" v="97203"/><tag k="addr:city" v="Portland"/><tag k="addr:street" v="North Chicago Avenue"/></node>
<node id="-26" lat="45.594553012" lon="-122.7548242" visible="true"><tag k="addr:housenumber" v="9116"/><tag k="addr:postcode" v="97203"/><tag k="addr:city" v="Portland"/><tag k="addr:street" v="North Hudson Street"/></node>
<node id="-27" lat="45.591384613" lon="-122.757659456" visible="true"><tag k="addr:housenumber" v="8904"/><tag k="addr:postcode" v="97203"/><tag k="addr:city" v="Portland"/><tag k="addr:street" v="North Ivanhoe Street"/></node>
<node id="-28" lat="45.591378961" lon="-122.757658846" visible="true"><tag k="addr:housenumber" v="8908"/><tag k="addr:postcode" v="97203"/><tag k="addr:city" v="Portland"/><tag k="addr:street" v="North Ivanhoe Street"/></node>
<node id="-29" lat="45.592621228" lon="-122.758857574" visible="true"><tag k="addr:housenumber" v="9114"/><tag k="addr:postcode" v="97203"/><tag k="addr:city" v="Portland"/><tag k="addr:street" v="North Ivanhoe Street"/></node>
<node id="-30" lat="45.592862378" lon="-122.758343586" visible="true"><tag k="addr:housenumber" v="9115"/><tag k="addr:postcode" v="97203"/><tag k="addr:city" v="Portland"/><tag k="addr:street" v="North Ivanhoe Street"/></node>
<node id="-31" lat="45.592623287" lon="-122.758852497" visible="true"><tag k="addr:housenumber" v="9116"/><tag k="addr:postcode" v="97203"/><tag k="addr:city" v="Portland"/><tag k="addr:street" v="North Ivanhoe Street"/></node>
<node id="-32" lat="45.592864264" lon="-122.758339507" visible="true"><tag k="addr:housenumber" v="9117"/><tag k="addr:postcode" v="97203"/><tag k="addr:city" v="Portland"/><tag k="addr:street" v="North Ivanhoe Street"/></node>
<node id="-33" lat="45.593183983" lon="-122.759405421" visible="true"><tag k="addr:housenumber" v="9226"/><tag k="addr:postcode" v="97203"/><tag k="addr:city" v="Portland"/><tag k="addr:street" v="North Ivanhoe Street"/></node>
<node id="-34" lat="45.593182081" lon="-122.75940835" visible="true"><tag k="addr:housenumber" v="9228"/><tag k="addr:postcode" v="97203"/><tag k="addr:city" v="Portland"/><tag k="addr:street" v="North Ivanhoe Street"/></node>
<node id="-35" lat="45.594806" lon="-122.760970164" visible="true"><tag k="addr:housenumber" v="9530"/><tag k="addr:postcode" v="97203"/><tag k="addr:city" v="Portland"/><tag k="addr:street" v="North Ivanhoe Street"/></node>
<node id="-36" lat="45.594800053" lon="-122.760973479" visible="true"><tag k="addr:housenumber" v="9532"/><tag k="addr:postcode" v="97203"/><tag k="addr:city" v="Portland"/><tag k="addr:street" v="North Ivanhoe Street"/></node>
<node id="-37" lat="45.595737818" lon="-122.76188232" visible="true"><tag k="addr:housenumber" v="9646"/><tag k="addr:postcode" v="97203"/><tag k="addr:city" v="Portland"/><tag k="addr:street" v="North Ivanhoe Street"/></node>
<node id="-38" lat="45.596034929" lon="-122.762111532" visible="true"><tag k="addr:housenumber" v="9702"/><tag k="addr:postcode" v="97203"/><tag k="addr:city" v="Portland"/><tag k="addr:street" v="North Ivanhoe Street"/></node>
<node id="-39" lat="45.596038383" lon="-122.762109225" visible="true"><tag k="addr:housenumber" v="9704"/><tag k="addr:postcode" v="97203"/><tag k="addr:city" v="Portland"/><tag k="addr:street" v="North Ivanhoe Street"/></node>
<node id="-40" lat="45.597469101" lon="-122.761322473" visible="true"><tag k="addr:housenumber" v="9815"/><tag k="addr:postcode" v="97203"/><tag k="addr:city" v="Portland"/><tag k="addr:street" v="North Jersey Street"/></node>
<node id="-41" lat="45.597466367" lon="-122.761326821" visible="true"><tag k="addr:housenumber" v="9817"/><tag k="addr:postcode" v="97203"/><tag k="addr:city" v="Portland"/><tag k="addr:street" v="North Jersey Street"/></node>
<node id="-42" lat="45.597461141" lon="-122.761318606" visible="true"><tag k="addr:housenumber" v="9819"/><tag k="addr:postcode" v="97203"/><tag k="addr:city" v="Portland"/><tag k="addr:street" v="North Jersey Street"/></node>
<node id="-43" lat="45.597758503" lon="-122.761694669" visible="true"><tag k="addr:housenumber" v="9845"/><tag k="addr:postcode" v="97203"/><tag k="addr:city" v="Portland"/><tag k="addr:street" v="North Jersey Street"/></node>
<node id="-44" lat="45.59220638" lon="-122.755165342" visible="true"><tag k="addr:housenumber" v="8905"/><tag k="addr:postcode" v="97203"/><tag k="addr:city" v="Portland"/><tag k="addr:street" v="North Kellogg Street"/></node>
<node id="-45" lat="45.592206274" lon="-122.755168881" visible="true"><tag k="addr:housenumber" v="8910"/><tag k="addr:postcode" v="97203"/><tag k="addr:city" v="Portland"/><tag k="addr:street" v="North Kellogg Street"/></node>
<node id="-46" lat="45.592187556" lon="-122.75590209" visible="true"><tag k="addr:housenumber" v="8928"/><tag k="addr:postcode" v="97203"/><tag k="addr:city" v="Portland"/><tag k="addr:street" v="North Kellogg Street"/></node>
<node id="-47" lat="45.592189401" lon="-122.755904991" visible="true"><tag k="addr:housenumber" v="8932"/><tag k="addr:postcode" v="97203"/><tag k="addr:city" v="Portland"/><tag k="addr:street" v="North Kellogg Street"/></node>
<node id="-48" lat="45.591749062" lon="-122.754084326" visible="true"><tag k="addr:housenumber" v="8605"/><tag k="addr:postcode" v="97203"/><tag k="addr:city" v="Portland"/><tag k="addr:street" v="North Leonard Street"/></node>
<node id="-49" lat="45.591756076" lon="-122.754086346" visible="true"><tag k="addr:housenumber" v="8607"/><tag k="addr:postcode" v="97203"/><tag k="addr:city" v="Portland"/><tag k="addr:street" v="North Leonard Street"/></node>
<node id="-50" lat="45.591747539" lon="-122.754090327" visible="true"><tag k="addr:housenumber" v="8609"/><tag k="addr:postcode" v="97203"/><tag k="addr:city" v="Portland"/><tag k="addr:street" v="North Leonard Street"/></node>
<node id="-51" lat="45.595898755" lon="-122.757808633" visible="true"><tag k="addr:housenumber" v="9525"/><tag k="addr:postcode" v="97203"/><tag k="addr:city" v="Portland"/><tag k="addr:street" v="North Leonard Street"/></node>
<node id="-52" lat="45.595897529" lon="-122.757811255" visible="true"><tag k="addr:housenumber" v="9533"/><tag k="addr:postcode" v="97203"/><tag k="addr:city" v="Portland"/><tag k="addr:street" v="North Leonard Street"/></node>
<node id="-53" lat="45.596782441" lon="-122.758552456" visible="true"><tag k="addr:housenumber" v="9657"/><tag k="addr:postcode" v="97203"/><tag k="addr:city" v="Portland"/><tag k="addr:street" v="North Leonard Street"/></node>
<node id="-54" lat="45.591357551" lon="-122.755639381" visible="true"><tag k="addr:housenumber" v="8801"/><tag k="addr:postcode" v="97203"/><tag k="addr:city" v="Portland"/><tag k="addr:street" v="North Lombard Street"/></node>
<node id="-55" lat="45.591357349" lon="-122.755643564" visible="true"><tag k="addr:housenumber" v="8803"/><tag k="addr:postcode" v="97203"/><tag k="addr:city" v="Portland"/><tag k="addr:street" v="North Lombard Street"/></node>
<node id="-56" lat="45.591726362" lon="-122.756763914" visible="true"><tag k="addr:housenumber" v="8926"/><tag k="addr:postcode" v="97203"/><tag k="addr:city" v="Portland"/><tag k="addr:street" v="North Lombard Street"/></node>
<node id="-57" lat="45.593260202" lon="-122.757513363" visible="true"><tag k="addr:housenumber" v="9101"/><tag k="addr:postcode" v="97203"/><tag k="addr:city" v="Portland"/><tag k="addr:street" v="North Lombard Street"/></node>
<node id="-58" lat="45.593255026" lon="-122.75751166" visible="true"><tag k="addr:housenumber" v="9105"/><tag k="addr:postcode" v="97203"/><tag k="addr:city" v="Portland"/><tag k="addr:street" v="North Lombard Street"/></node>
<node id="-59" lat="45.595337331" lon="-122.759504614" visible="true"><tag k="addr:housenumber" v="9543"/><tag k="addr:postcode" v="97203"/><tag k="addr:city" v="Portland"/><tag k="addr:street" v="North Lombard Street"/></node>
<node id="-60" lat="45.595335973" lon="-122.759501519" visible="true"><tag k="addr:housenumber" v="9545"/><tag k="addr:postcode" v="97203"/><tag k="addr:city" v="Portland"/><tag k="addr:street" v="North Lombard Street"/></node>
<node id="-61" lat="45.595249495" lon="-122.760042751" visible="true"><tag k="addr:housenumber" v="9550"/><tag k="addr:postcode" v="97203"/><tag k="addr:city" v="Portland"/><tag k="addr:street" v="North Lombard Street"/></node>
<node id="-62" lat="45.595248707" lon="-122.760050473" visible="true"><tag k="addr:housenumber" v="9554"/><tag k="addr:postcode" v="97203"/><tag k="addr:city" v="Portland"/><tag k="addr:street" v="North Lombard Street"/></node>
<node id="-63" lat="45.595426086" lon="-122.760348409" visible="true"><tag k="addr:housenumber" v="9570"/><tag k="addr:postcode" v="97203"/><tag k="addr:city" v="Portland"/><tag k="addr:street" v="North Lombard Street"/></node>
<node id="-64" lat="45.595427034" lon="-122.760353816" visible="true"><tag k="addr:housenumber" v="9572"/><tag k="addr:postcode" v="97203"/><tag k="addr:city" v="Portland"/><tag k="addr:street" v="North Lombard Street"/></node>
<node id="-65" lat="45.596960638" lon="-122.760225807" visible="true"><tag k="addr:housenumber" v="9715"/><tag k="addr:postcode" v="97203"/><tag k="addr:city" v="Portland"/><tag k="addr:street" v="North Lombard Street"/></node>
<node id="-66" lat="45.596954739" lon="-122.760221535" visible="true"><tag k="addr:housenumber" v="9717"/><tag k="addr:postcode" v="97203"/><tag k="addr:city" v="Portland"/><tag k="addr:street" v="North Lombard Street"/></node>
<node id="-67" lat="45.597792541" lon="-122.760770064" visible="true"><tag k="addr:housenumber" v="9817"/><tag k="addr:postcode" v="97203"/><tag k="addr:city" v="Portland"/><tag k="addr:street" v="North Lombard Street"/></node>
<node id="-68" lat="45.597787986" lon="-122.760766806" visible="true"><tag k="addr:housenumber" v="9819"/><tag k="addr:postcode" v="97203"/><tag k="addr:city" v="Portland"/><tag k="addr:street" v="North Lombard Street"/></node>
<node id="-69" lat="45.597785859" lon="-122.760762704" visible="true"><tag k="addr:housenumber" v="9823"/><tag k="addr:postcode" v="97203"/><tag k="addr:city" v="Portland"/><tag k="addr:street" v="North Lombard Street"/></node>
<node id="-70" lat="45.598093294" lon="-122.760894818" visible="true"><tag k="addr:housenumber" v="9828"/><tag k="addr:postcode" v="97203"/><tag k="addr:city" v="Portland"/><tag k="addr:street" v="North Lombard Street"/></node>
<node id="-71" lat="45.597894799" lon="-122.760776441" visible="true"><tag k="addr:housenumber" v="9829"/><tag k="addr:postcode" v="97203"/><tag k="addr:city" v="Portland"/><tag k="addr:street" v="North Lombard Street"/></node>
<node id="-72" lat="45.597891657" lon="-122.760774647" visible="true"><tag k="addr:housenumber" v="9833"/><tag k="addr:postcode" v="97203"/><tag k="addr:city" v="Portland"/><tag k="addr:street" v="North Lombard Street"/></node>
<node id="-73" lat="45.59810008" lon="-122.760896013" visible="true"><tag k="addr:housenumber" v="9835"/><tag k="addr:postcode" v="97203"/><tag k="addr:city" v="Portland"/><tag k="addr:street" v="North Lombard Street"/></node>
<node id="-74" lat="45.597992824" lon="-122.760837736" visible="true"><tag k="addr:housenumber" v="9837"/><tag k="addr:postcode" v="97203"/><tag k="addr:city" v="Portland"/><tag k="addr:street" v="North Lombard Street"/></node>
<node id="-75" lat="45.597996823" lon="-122.760841203" visible="true"><tag k="addr:housenumber" v="9841"/><tag k="addr:postcode" v="97203"/><tag k="addr:city" v="Portland"/><tag k="addr:street" v="North Lombard Street"/></node>
<node id="-76" lat="45.598094656" lon="-122.760900453" visible="true"><tag k="addr:housenumber" v="9845"/><tag k="addr:postcode" v="97203"/><tag k="addr:city" v="Portland"/><tag k="addr:street" v="North Lombard Street"/></node>
<node id="-77" lat="45.598100839" lon="-122.76090433" visible="true"><tag k="addr:housenumber" v="9849"/><tag k="addr:postcode" v="97203"/><tag k="addr:city" v="Portland"/><tag k="addr:street" v="North Lombard Street"/></node>
<node id="-78" lat="45.591507037" lon="-122.758256882" visible="true"><tag k="addr:housenumber" v="7210"/><tag k="addr:postcode" v="97203"/><tag k="addr:city" v="Portland"/><tag k="addr:street" v="North New York Avenue"/></node>
<node id="-79" lat="45.591509071" lon="-122.758259681" visible="true"><tag k="addr:housenumber" v="7212"/><tag k="addr:postcode" v="97203"/><tag k="addr:city" v="Portland"/><tag k="addr:street" v="North New York Avenue"/></node>
<node id="-80" lat="45.591511941" lon="-122.758256709" visible="true"><tag k="addr:housenumber" v="7214"/><tag k="addr:postcode" v="97203"/><tag k="addr:city" v="Portland"/><tag k="addr:street" v="North New York Avenue"/></node>
<node id="-81" lat="45.591508337" lon="-122.758258677" visible="true"><tag k="addr:housenumber" v="7216"/><tag k="addr:postcode" v="97203"/><tag k="addr:city" v="Portland"/><tag k="addr:street" v="North New York Avenue"/></node>
<node id="-82" lat="45.597351795" lon="-122.763660071" visible="true"><tag k="addr:housenumber" v="7205"/><tag k="addr:postcode" v="97203"/><tag k="addr:city" v="Portland"/><tag k="addr:street" v="North Reno Avenue"/></node>
<node id="-83" lat="45.597350537" lon="-122.763659043" visible="true"><tag k="addr:housenumber" v="7207"/><tag k="addr:postcode" v="97203"/><tag k="addr:city" v="Portland"/><tag k="addr:street" v="North Reno Avenue"/></node>
<node id="-84" lat="45.59735387" lon="-122.763659673" visible="true"><tag k="addr:housenumber" v="7209"/><tag k="addr:postcode" v="97203"/><tag k="addr:city" v="Portland"/><tag k="addr:street" v="North Reno Avenue"/></node>
<node id="-85" lat="45.597359336" lon="-122.763661267" visible="true"><tag k="addr:housenumber" v="7211"/><tag k="addr:postcode" v="97203"/><tag k="addr:city" v="Portland"/><tag k="addr:street" v="North Reno Avenue"/></node>
<node id="-86" lat="45.597750836" lon="-122.761694767" visible="true"><tag k="addr:housenumber" v="7416"/><tag k="addr:postcode" v="97203"/><tag k="addr:city" v="Portland"/><tag k="addr:street" v="North Reno Avenue"/></node>
<node id="-87" lat="45.595737965" lon="-122.761884907" visible="true"><tag k="addr:housenumber" v="7222"/><tag k="addr:postcode" v="97203"/><tag k="addr:city" v="Portland"/><tag k="addr:street" v="North St Johns Avenue"/></node>
<node id="-88" lat="45.592504787" lon="-122.758747858" visible="true"><tag k="addr:housenumber" v="7225"/><tag k="addr:postcode" v="97203"/><tag k="addr:city" v="Portland"/><tag k="addr:street" v="North St Louis Avenue"/></node>
<node id="-89" lat="45.59250495" lon="-122.75874314" visible="true"><tag k="addr:housenumber" v="7227"/><tag k="addr:postcode" v="97203"/><tag k="addr:city" v="Portland"/><tag k="addr:street" v="North St Louis Avenue"/></node>
<node id="-90" lat="45.592505617" lon="-122.758744024" visible="true"><tag k="addr:housenumber" v="7229"/><tag k="addr:postcode" v="97203"/><tag k="addr:city" v="Portland"/><tag k="addr:street" v="North St Louis Avenue"/></node>
<node id="-91" lat="45.592754214" lon="-122.758227007" visible="true"><tag k="addr:housenumber" v="7305"/><tag k="addr:postcode" v="97203"/><tag k="addr:city" v="Portland"/><tag k="addr:street" v="North St Louis Avenue"/></node>
<node id="-92" lat="45.592755089" lon="-122.758229348" visible="true"><tag k="addr:housenumber" v="7307"/><tag k="addr:postcode" v="97203"/><tag k="addr:city" v="Portland"/><tag k="addr:street" v="North St Louis Avenue"/></node>
<node id="-93" lat="45.592755316" lon="-122.758233923" visible="true"><tag k="addr:housenumber" v="7309"/><tag k="addr:postcode" v="97203"/><tag k="addr:city" v="Portland"/><tag k="addr:street" v="North St Louis Avenue"/></node>
<node id="-94" lat="45.593769393" lon="-122.756453657" visible="true"><tag k="addr:housenumber" v="7521"/><tag k="addr:postcode" v="97203"/><tag k="addr:city" v="Portland"/><tag k="addr:street" v="North St Louis Avenue"/></node>
<node id="-95" lat="45.593770331" lon="-122.756454462" visible="true"><tag k="addr:housenumber" v="7525"/><tag k="addr:postcode" v="97203"/><tag k="addr:city" v="Portland"/><tag k="addr:street" v="North St Louis Avenue"/></node>
<node id="-96" lat="45.593849102" lon="-122.756291497" visible="true"><tag k="addr:housenumber" v="7533"/><tag k="addr:postcode" v="97203"/><tag k="addr:city" v="Portland"/><tag k="addr:street" v="North St Louis Avenue"/></node>
<node id="-97" lat="45.593855612" lon="-122.756288578" visible="true"><tag k="addr:housenumber" v="7537"/><tag k="addr:postcode" v="97203"/><tag k="addr:city" v="Portland"/><tag k="addr:street" v="North St Louis Avenue"/></node>
<node id="-98" lat="45.593933813" lon="-122.755098264" visible="true"><tag k="addr:housenumber" v="8510"/><tag k="addr:postcode" v="97203"/><tag k="addr:city" v="Portland"/><tag k="addr:street" v="North St Louis Avenue"/></node>
<node id="-99" lat="45.593937172" lon="-122.755090642" visible="true"><tag k="addr:housenumber" v="8516"/><tag k="addr:postcode" v="97203"/><tag k="addr:city" v="Portland"/><tag k="addr:street" v="North St Louis Avenue"/></node>
<node id="-100" lat="45.594554299" lon="-122.754827034" visible="true"><tag k="addr:housenumber" v="8549"/><tag k="addr:postcode" v="97203"/><tag k="addr:city" v="Portland"/><tag k="addr:street" v="North St Louis Avenue"/></node>
<node id="-101" lat="45.591513609" lon="-122.758257457" visible="true"><tag k="addr:housenumber" v="8935"/><tag k="addr:postcode" v="97203"/><tag k="addr:city" v="Portland"/><tag k="addr:street" v="North Syracuse Street"/></node>
<node id="-102" lat="45.592885879" lon="-122.760288861" visible="true"><tag k="addr:housenumber" v="9226"/><tag k="addr:postcode" v="97203"/><tag k="addr:city" v="Portland"/><tag k="addr:street" v="North Syracuse Street"/></node>
<node id="-103" lat="45.59289096" lon="-122.760288564" visible="true"><tag k="addr:housenumber" v="9232"/><tag k="addr:postcode" v="97203"/><tag k="addr:city" v="Portland"/><tag k="addr:street" v="North Syracuse Street"/></node>
<node id="-104" lat="45.593393003" lon="-122.760080116" visible="true"><tag k="addr:housenumber" v="9303"/><tag k="addr:postcode" v="97203"/><tag k="addr:city" v="Portland"/><tag k="addr:street" v="North Syracuse Street"/></node>
<node id="-105" lat="45.593395634" lon="-122.760081783" visible="true"><tag k="addr:housenumber" v="9309"/><tag k="addr:postcode" v="97203"/><tag k="addr:city" v="Portland"/><tag k="addr:street" v="North Syracuse Street"/></node>
<node id="-106" lat="45.593096835" lon="-122.761016373" visible="true"><tag k="addr:housenumber" v="7011"/><tag k="addr:postcode" v="97203"/><tag k="addr:city" v="Portland"/><tag k="addr:street" v="North Trumbull Avenue"/></node>
<node id="-107" lat="45.593100975" lon="-122.761023579" visible="true"><tag k="addr:housenumber" v="9311"/><tag k="addr:postcode" v="97203"/><tag k="addr:city" v="Portland"/><tag k="addr:street" v="North Willamette Boulevard"/></node>
</osm>