<?xml version="1.0"?>
<osm version="0.6" upload="false" generator="uvmogr2osm">
<node id="-1" lat="45.591375779" lon="-122.745880214" visible="true"><tag k="addr:housenumber" v="8574"/><tag k="addr:postcode" v="97203"/><tag k="addr:city" v="Portland"/><tag k="addr:street" v="North Allegheny Avenue"/></node>
<node id="-2" lat="45.591368149" lon="-122.74588566" visible="true"><tag k="addr:housenumber" v="8576"/><tag k="addr:postcode" v="97203"/><tag k="addr:city" v="Portland"/><tag k="addr:street" v="North Allegheny Avenue"/></node>
<node id="-3" lat="45.592374176" lon="-122.753614509" visible="true"><tag k="addr:housenumber" v="8057"/><tag k="addr:postcode" v="97203"/><tag k="addr:city" v="Portland"/><tag k="addr:street" v="North Burlington Avenue"/></node>
<node id="-4" lat="45.592372109" lon="-122.753615627" visible="true"><tag k="addr:housenumber" v="8059"/><tag k="addr:postcode" v="97203"/><tag k="addr:city" v="Portland"/><tag k="addr:street" v="North Burlington Avenue"/></node>
<node id="-5" lat="45.591705597" lon="-122.751419564" visible="true"><tag k="addr:housenumber" v="8345"/><tag k="addr:postcode" v="97203"/><tag k="addr:city" v="Portland"/><tag k="addr:street" v="North Central Street"/></node>
<node id="-6" lat="45.591706336" lon="-122.751419336" visible="true"><tag k="addr:housenumber" v="8347"/><tag k="addr:postcode" v="97203"/><tag k="addr:city" v="Portland"/><tag k="addr:street" v="North Central Street"/></node>
<node id="-7" lat="45.596326797" lon="-122.748237624" visible="true"><tag k="addr:housenumber" v="9471"/><tag k="addr:postcode" v="97203"/><tag k="addr:city" v="Portland"/><tag k="addr:street" v="North Charleston Avenue"/></node>
<node id="-8" lat="45.596215838" lon="-122.747806869" visible="true"><tag k="addr:housenumber" v="9472"/><tag k="addr:postcode" v="97203"/><tag k="addr:city" v="Portland"/><tag k="addr:street" v="North Charleston Avenue"/></node>
<node id="-9" lat="45.596323996" lon="-122.748235123" visible="true"><tag k="addr:housenumber" v="9473"/><tag k="addr:postcode" v="97203"/><tag k="addr:city" v="Portland"/><tag k="addr:street" v="North Charleston Avenue"/></node>
<node id="-10" lat="45.596220724" lon="-122.747811047" visible="true"><tag k="addr:housenumber" v="9476"/><tag k="addr:postcode" v="97203"/><tag k="addr:city" v="Portland"/><tag k="addr:street" v="North Charleston Avenue"/></node>
<node id="-11" lat="45.596322356" lon="-122.748236393" visible="true"><tag k="addr:housenumber" v="9479"/><tag k="addr:postcode" v="97203"/><tag k="addr:city" v="Portland"/><tag k="addr:street" v="North Charleston Avenue"/></node>
<node id="-12" lat="45.59244743" lon="-122.753813303" visible="true"><tag k="addr:housenumber" v="8020"/><tag k="addr:postcode" v="97203"/><tag k="addr:city" v="Portland"/><tag k="addr:street" v="North Chicago Avenue"/></node>
<node id="-13" lat="45.592440374" lon="-122.753813304" visible="true"><tag k="addr:housenumber" v="8024"/><tag k="addr:postcode" v="97203"/><tag k="addr:city" v="Portland"/><tag k="addr:street" v="North Chicago Avenue"/></node>
<node id="-14" lat="45.595090229" lon="-122.751151969" visible="true"><tag k="addr:housenumber" v="9243"/><tag k="addr:postcode" v="97203"/><tag k="addr:city" v="Portland"/><tag k="addr:street" v="North Chicago Avenue"/></node>
<node id="-15" lat="45.595090898" lon="-122.751158606" visible="true"><tag k="addr:housenumber" v="9251"/><tag k="addr:postcode" v="97203"/><tag k="addr:city" v="Portland"/><tag k="addr:street" v="North Chicago Avenue"/></node>
<node id="-16" lat="45.595892094" lon="-122.744274334" visible="true"><tag k="addr:housenumber" v="7905"/><tag k="addr:postcode" v="97203"/><tag k="addr:city" v="Portland"/><tag k="addr:street" v="North Fessenden Street"/></node>
<node id="-17" lat="45.595894496" lon="-122.744273192" visible="true"><tag k="addr:housenumber" v="7915"/><tag k="addr:postcode" v="97203"/><tag k="addr:city" v="Portland"/><tag k="addr:street" v="North Fessenden Street"/></node>
<node id="-18" lat="45.595924229" lon="-122.744771329" visible="true"><tag k="addr:housenumber" v="7927"/><tag k="addr:postcode" v="97203"/><tag k="addr:city" v="Portland"/><tag k="addr:street" v="North Fessenden Street"/></node>
<node id="-19" lat="45.595534291" lon="-122.744848502" visible="true"><tag k="addr:housenumber" v="7928"/><tag k="addr:postcode" v="97203"/><tag k="addr:city" v="Portland"/><tag k="addr:street" v="North Fessenden Street"/></node>
<node id="-20" lat="45.595536277" lon="-122.744847516" visible="true"><tag k="addr:housenumber" v="7936"/><tag k="addr:postcode" v="97203"/><tag k="addr:city" v="Portland"/><tag k="addr:street" v="North Fessenden Street"/></node>
<node id="-21" lat="45.595923624" lon="-122.744773823" visible="true"><tag k="addr:housenumber" v="7937"/><tag k="addr:postcode" v="97203"/><tag k="addr:city" v="Portland"/><tag k="addr:street" v="North Fessenden Street"/></node>
<node id="-22" lat="45.596118839" lon="-122.745322264" visible="true"><tag k="addr:housenumber" v="8005"/><tag k="addr:postcode" v="97203"/><tag k="addr:city" v="Portland"/><tag k="addr:street" v="North Fessenden Street"/></node>
<node id="-23" lat="45.596111845" lon="-122.745321254" visible="true"><tag k="addr:housenumber" v="8011"/><tag k="addr:postcode" v="97203"/><tag k="addr:city" v="Portland"/><tag k="addr:street" v="North Fessenden Street"/></node>
<node id="-24" lat="45.595938085" lon="-122.746279331" visible="true"><tag k="addr:housenumber" v="8100"/><tag k="addr:postcode" v="97203"/><tag k="addr:city" v="Portland"/><tag k="addr:street" v="North Fessenden Street"/></node>
<node id="-25" lat="45.595937156" lon="-122.746279837" visible="true"><tag k="addr:housenumber" v="8104"/><tag k="addr:postcode" v="97203"/><tag k="addr:city" v="Portland"/><tag k="addr:street" v="North Fessenden Street"/></node>
<node id="-26" lat="45.59689227" lon="-122.74601402" visible="true"><tag k="addr:housenumber" v="8115"/><tag k="addr:postcode" v="97203"/><tag k="addr:city" v="Portland"/><tag k="addr:street" v="North Fox Street"/></node>
<node id="-27" lat="45.596897124" lon="-122.746012858" visible="true"><tag k="addr:housenumber" v="8117"/><tag k="addr:postcode" v="97203"/><tag k="addr:city" v="Portland"/><tag k="addr:street" v="North Fox Street"/></node>
<node id="-28" lat="45.597375286" lon="-122.747772824" visible="true"><tag k="addr:housenumber" v="8303"/><tag k="addr:postcode" v="97203"/><tag k="addr:city" v="Portland"/><tag k="addr:street" v="North Fox Street"/></node>
<node id="-29" lat="45.597382895" lon="-122.747773243" visible="true"><tag k="addr:housenumber" v="8305"/><tag k="addr:postcode" v="97203"/><tag k="addr:city" v="Portland"/><tag k="addr:street" v="North Fox Street"/></node>
<node id="-30" lat="45.59743691" lon="-122.74926516" visible="true"><tag k="addr:housenumber" v="8615"/><tag k="addr:postcode" v="97203"/><tag k="addr:city" v="Portland"/><tag k="addr:street" v="North Fox Street"/></node>
<node id="-31" lat="45.597433319" lon="-122.749265173" visible="true"><tag k="addr:housenumber" v="8617"/><tag k="addr:postcode" v="97203"/><tag k="addr:city" v="Portland"/><tag k="addr:street" v="North Fox Street"/></node>
<node id="-32" lat="45.592272572" lon="-122.748213191" visible="true"><tag k="addr:housenumber" v="8115"/><tag k="addr:postcode" v="97203"/><tag k="addr:city" v="Portland"/><tag k="addr:street" v="North Hudson Street"/></node>
<node id="-33" lat="45.592903678" lon="-122.750440715" visible="true"><tag k="addr:housenumber" v="8323"/><tag k="addr:postcode" v="97203"/><tag k="addr:city" v="Portland"/><tag k="addr:street" v="North Hudson Street"/></node>
<node id="-34" lat="45.592905872" lon="-122.750443349" visible="true"><tag k="addr:housenumber" v="8327"/><tag k="addr:postcode" v="97203"/><tag k="addr:city" v="Portland"/><tag k="addr:street" v="North Hudson Street"/></node>
<node id="-35" lat="45.593368982" lon="-122.750424051" visible="true"><tag k="addr:housenumber" v="9116"/><tag k="addr:postcode" v="97203"/><tag k="addr:city" v="Portland"/><tag k="addr:street" v="North John Avenue"/></node>
<node id="-36" lat="45.593366969" lon="-122.750426026" visible="true"><tag k="addr:housenumber" v="9118"/><tag k="addr:postcode" v="97203"/><tag k="addr:city" v="Portland"/><tag k="addr:street" v="North John Avenue"/></node>
<node id="-37" lat="45.594365687" lon="-122.749878433" visible="true"><tag k="addr:housenumber" v="9206"/><tag k="addr:postcode" v="97203"/><tag k="addr:city" v="Portland"/><tag k="addr:street" v="North John Avenue"/></node>
<node id="-38" lat="45.594364936" lon="-122.749879315" visible="true"><tag k="addr:housenumber" v="9208"/><tag k="addr:postcode" v="97203"/><tag k="addr:city" v="Portland"/><tag k="addr:street" v="North John Avenue"/></node>
<node id="-39" lat="45.594364938" lon="-122.749881304" visible="true"><tag k="addr:housenumber" v="9210"/><tag k="addr:postcode" v="97203"/><tag k="addr:city" v="Portland"/><tag k="addr:street" v="North John Avenue"/></node>
<node id="-40" lat="45.592177721" lon="-122.74655879" visible="true"><tag k="addr:housenumber" v="9016"/><tag k="addr:postcode" v="97203"/><tag k="addr:city" v="Portland"/><tag k="addr:street" v="North Mohawk Avenue"/></node>
<node id="-41" lat="45.592174801" lon="-122.746557617" visible="true"><tag k="addr:housenumber" v="9022"/><tag k="addr:postcode" v="97203"/><tag k="addr:city" v="Portland"/><tag k="addr:street" v="North Mohawk Avenue"/></node>
<node id="-42" lat="45.592175235" lon="-122.746555148" visible="true"><tag k="addr:housenumber" v="9024"/><tag k="addr:postcode" v="97203"/><tag k="addr:city" v="Portland"/><tag k="addr:street" v="North Mohawk Avenue"/></node>
<node id="-43" lat="45.593772762" lon="-122.746400355" visible="true"><tag k="addr:housenumber" v="9231"/><tag k="addr:postcode" v="97203"/><tag k="addr:city" v="Portland"/><tag k="addr:street" v="North Mohawk Avenue"/></node>
<node id="-44" lat="45.593777965" lon="-122.746406456" visible="true"><tag k="addr:housenumber" v="9237"/><tag k="addr:postcode" v="97203"/><tag k="addr:city" v="Portland"/><tag k="addr:street" v="North Mohawk Avenue"/></node>
<node id="-45" lat="45.595647906" lon="-122.745513874" visible="true"><tag k="addr:housenumber" v="9465"/><tag k="addr:postcode" v="97203"/><tag k="addr:city" v="Portland"/><tag k="addr:street" v="North Mohawk Avenue"/></node>
<node id="-46" lat="45.595650061" lon="-122.745515208" visible="true"><tag k="addr:housenumber" v="9467"/><tag k="addr:postcode" v="97203"/><tag k="addr:city" v="Portland"/><tag k="addr:street" v="North Mohawk Avenue"/></node>
<node id="-47" lat="45.595652236" lon="-122.745509078" visible="true"><tag k="addr:housenumber" v="9471"/><tag k="addr:postcode" v="97203"/><tag k="addr:city" v="Portland"/><tag k="addr:street" v="North Mohawk Avenue"/></node>
<node id="-48" lat="45.595654198" lon="-122.745510574" visible="true"><tag k="addr:housenumber" v="9477"/><tag k="addr:postcode" v="97203"/><tag k="addr:city" v="Portland"/><tag k="addr:street" v="North Mohawk Avenue"/></node>
<node id="-49" lat="45.596014516" lon="-122.744616176" visible="true"><tag k="addr:housenumber" v="9510"/><tag k="addr:postcode" v="97203"/><tag k="addr:city" v="Portland"/><tag k="addr:street" v="North Mohawk Avenue"/></node>
<node id="-50" lat="45.596007202" lon="-122.744613077" visible="true"><tag k="addr:housenumber" v="9512"/><tag k="addr:postcode" v="97203"/><tag k="addr:city" v="Portland"/><tag k="addr:street" v="North Mohawk Avenue"/></node>
<node id="-51" lat="45.596011238" lon="-122.744615245" visible="true"><tag k="addr:housenumber" v="9514"/><tag k="addr:postcode" v="97203"/><tag k="addr:city" v="Portland"/><tag k="addr:street" v="North Mohawk Avenue"/></node>
<node id="-52" lat="45.596105411" lon="-122.745164304" visible="true"><tag k="addr:housenumber" v="9515"/><tag k="addr:postcode" v="97203"/><tag k="addr:city" v="Portland"/><tag k="addr:street" v="North Mohawk Avenue"/></node>
<node id="-53" lat="45.596100177" lon="-122.745162937" visible="true"><tag k="addr:housenumber" v="9517"/><tag k="addr:postcode" v="97203"/><tag k="addr:city" v="Portland"/><tag k="addr:street" v="North Mohawk Avenue"/></node>
<node id="-54" lat="45.596105788" lon="-122.745161165" visible="true"><tag k="addr:housenumber" v="9519"/><tag k="addr:postcode" v="97203"/><tag k="addr:city" v="Portland"/><tag k="addr:street" v="North Mohawk Avenue"/></node>
<node id="-55" lat="45.596127977" lon="-122.744453923" visible="true"><tag k="addr:housenumber" v="9522"/><tag k="addr:postcode" v="97203"/><tag k="addr:city" v="Portland"/><tag k="addr:street" v="North Mohawk Avenue"/></node>
<node id="-56" lat="45.596121928" lon="-122.744458126" visible="true"><tag k="addr:housenumber" v="9524"/><tag k="addr:postcode" v="97203"/><tag k="addr:city" v="Portland"/><tag k="addr:street" v="North Mohawk Avenue"/></node>
<node id="-57" lat="45.595341161" lon="-122.752126528" visible="true"><tag k="addr:housenumber" v="9247"/><tag k="addr:postcode" v="97203"/><tag k="addr:city" v="Portland"/><tag k="addr:street" v="North New York Avenue"/></node>
<node id="-58" lat="45.597528778" lon="-122.745710224" visible="true"><tag k="addr:housenumber" v="8115"/><tag k="addr:postcode" v="97203"/><tag k="addr:city" v="Portland"/><tag k="addr:street" v="North Olympia Street"/></node>
<node id="-59" lat="45.597529721" lon="-122.745712003" visible="true"><tag k="addr:housenumber" v="8117"/><tag k="addr:postcode" v="97203"/><tag k="addr:city" v="Portland"/><tag k="addr:street" v="North Olympia Street"/></node>
<node id="-60" lat="45.598069801" lon="-122.747591911" visible="true"><tag k="addr:housenumber" v="8315"/><tag k="addr:postcode" v="97203"/><tag k="addr:city" v="Portland"/><tag k="addr:street" v="North Olympia Street"/></node>
<node id="-61" lat="45.598038931" lon="-122.747616249" visible="true"><tag k="addr:housenumber" v="8317"/><tag k="addr:postcode" v="97203"/><tag k="addr:city" v="Portland"/><tag k="addr:street" v="North Olympia Street"/></node>
<node id="-62" lat="45.597540493" lon="-122.745496235" visible="true"><tag k="addr:housenumber" v="10003"/><tag k="addr:postcode" v="97203"/><tag k="addr:city" v="Portland"/><tag k="addr:street" v="North Oswego Avenue"/></node>
<node id="-63" lat="45.597536375" lon="-122.745503074" visible="true"><tag k="addr:housenumber" v="10005"/><tag k="addr:postcode" v="97203"/><tag k="addr:city" v="Portland"/><tag k="addr:street" v="North Oswego Avenue"/></node>
<node id="-64" lat="45.592272869" lon="-122.748212266" visible="true"><tag k="addr:housenumber" v="9005"/><tag k="addr:postcode" v="97203"/><tag k="addr:city" v="Portland"/><tag k="addr:street" v="North Oswego Avenue"/></node>
<node id="-65" lat="45.592266172" lon="-122.74821642" visible="true"><tag k="addr:housenumber" v="9009"/><tag k="addr:postcode" v="97203"/><tag k="addr:city" v="Portland"/><tag k="addr:street" v="North Oswego Avenue"/></node>
<node id="-66" lat="45.59692117" lon="-122.750080162" visible="true"><tag k="addr:housenumber" v="9124"/><tag k="addr:postcode" v="97203"/><tag k="addr:city" v="Portland"/><tag k="addr:street" v="North Pier Park Place"/></node>
<node id="-67" lat="45.59692203" lon="-122.750086851" visible="true"><tag k="addr:housenumber" v="9126"/><tag k="addr:postcode" v="97203"/><tag k="addr:city" v="Portland"/><tag k="addr:street" v="North Pier Park Place"/></node>
<node id="-68" lat="45.592089655" lon="-122.744023138" visible="true"><tag k="addr:housenumber" v="9117"/><tag k="addr:postcode" v="97203"/><tag k="addr:city" v="Portland"/><tag k="addr:street" v="North Polk Avenue"/></node>
<node id="-69" lat="45.592087008" lon="-122.744029422" visible="true"><tag k="addr:housenumber" v="9119"/><tag k="addr:postcode" v="97203"/><tag k="addr:city" v="Portland"/><tag k="addr:street" v="North Polk Avenue"/></node>
<node id="-70" lat="45.59276434" lon="-122.749072863" visible="true"><tag k="addr:housenumber" v="9025"/><tag k="addr:postcode" v="97203"/><tag k="addr:city" v="Portland"/><tag k="addr:street" v="North Richmond Avenue"/></node>
<node id="-71" lat="45.592764986" lon="-122.74907621" visible="true"><tag k="addr:housenumber" v="9027"/><tag k="addr:postcode" v="97203"/><tag k="addr:city" v="Portland"/><tag k="addr:street" v="North Richmond Avenue"/></node>
<node id="-72" lat="45.595199724" lon="-122.752535742" visible="true"><tag k="addr:housenumber" v="9228"/><tag k="addr:postcode" v="97203"/><tag k="addr:city" v="Portland"/><tag k="addr:street" v="North St Louis Avenue"/></node>
<node id="-73" lat="45.595203323" lon="-122.752536438" visible="true"><tag k="addr:housenumber" v="9232"/><tag k="addr:postcode" v="97203"/><tag k="addr:city" v="Portland"/><tag k="addr:street" v="North St Louis Avenue"/></node>
<node id="-74" lat="45.59534655" lon="-122.752126744" visible="true"><tag k="addr:housenumber" v="9306"/><tag k="addr:postcode" v="97203"/><tag k="addr:city" v="Portland"/><tag k="addr:street" v="North St Louis Avenue"/></node>
<node id="-75" lat="45.596765049" lon="-122.750248974" visible="true"><tag k="addr:housenumber" v="9469"/><tag k="addr:postcode" v="97203"/><tag k="addr:city" v="Portland"/><tag k="addr:street" v="North St Louis Avenue"/></node>
<node id="-76" lat="45.596764932" lon="-122.750243191" visible="true"><tag k="addr:housenumber" v="9471"/><tag k="addr:postcode" v="97203"/><tag k="addr:city" v="Portland"/><tag k="addr:street" v="North St Louis Avenue"/></node>
<node id="-77" lat="45.596766512" lon="-122.750241912" visible="true"><tag k="addr:housenumber" v="9473"/><tag k="addr:postcode" v="97203"/><tag k="addr:city" v="Portland"/><tag k="addr:street" v="North St Louis Avenue"/></node>
<node id="-78" lat="45.596814547" lon="-122.750014014" visible="true"><tag k="addr:housenumber" v="9477"/><tag k="addr:postcode" v="97203"/><tag k="addr:city" v="Portland"/><tag k="addr:street" v="North St Louis Avenue"/></node>
<node id="-79" lat="45.59680822" lon="-122.750014328" visible="true"><tag k="addr:housenumber" v="9479"/><tag k="addr:postcode" v="97203"/><tag k="addr:city" v="Portland"/><tag k="addr:street" v="North St Louis Avenue"/></node>
</osm>