<?xml version="1.0"?>
<osm version="0.6" upload="false" generator="uvmogr2osm">
<node id="-1" lat="45.535117994" lon="-122.551292997" visible="true"><tag k="addr:housenumber" v="1716"/><tag k="addr:postcode" v="97220"/><tag k="addr:city" v="Portland"/><tag k="addr:street" v="Northeast 108th Avenue"/></node>
<node id="-2" lat="45.535112011" lon="-122.551287525" visible="true"><tag k="addr:housenumber" v="1717"/><tag k="addr:postcode" v="97220"/><tag k="addr:city" v="Portland"/><tag k="addr:street" v="Northeast 108th Avenue"/></node>
<node id="-3" lat="45.53511468" lon="-122.551296306" visible="true"><tag k="addr:housenumber" v="1719"/><tag k="addr:postcode" v="97220"/><tag k="addr:city" v="Portland"/><tag k="addr:street" v="Northeast 108th Avenue"/></node>
<node id="-4" lat="45.535116564" lon="-122.551291833" visible="true"><tag k="addr:housenumber" v="1720"/><tag k="addr:postcode" v="97220"/><tag k="addr:city" v="Portland"/><tag k="addr:street" v="Northeast 108th Avenue"/></node>
<node id="-5" lat="45.533692553" lon="-122.548710647" visible="true"><tag k="addr:housenumber" v="1510"/><tag k="addr:postcode" v="97220"/><tag k="addr:city" v="Portland"/><tag k="addr:street" v="Northeast 111th Avenue"/></node>
<node id="-6" lat="45.533693435" lon="-122.548711502" visible="true"><tag k="addr:housenumber" v="1516"/><tag k="addr:postcode" v="97220"/><tag k="addr:city" v="Portland"/><tag k="addr:street" v="Northeast 111th Avenue"/></node>
<node id="-7" lat="45.538029963" lon="-122.5498368" visible="true"><tag k="addr:housenumber" v="10960"/><tag k="addr:postcode" v="97220"/><tag k="addr:city" v="Portland"/><tag k="addr:street" v="Northeast Eugene Street"/></node>
<node id="-8" lat="45.538021976" lon="-122.54983462" visible="true"><tag k="addr:housenumber" v="11010"/><tag k="addr:postcode" v="97220"/><tag k="addr:city" v="Portland"/><tag k="addr:street" v="Northeast Eugene Street"/></node>
<node id="-9" lat="45.53378253" lon="-122.557335671" visible="true"><tag k="addr:housenumber" v="10227"/><tag k="addr:postcode" v="97220"/><tag k="addr:city" v="Portland"/><tag k="addr:street" v="Northeast Halsey Street"/></node>
<node id="-10" lat="45.53378449" lon="-122.55732752" visible="true"><tag k="addr:housenumber" v="10235"/><tag k="addr:postcode" v="97220"/><tag k="addr:city" v="Portland"/><tag k="addr:street" v="Northeast Halsey Street"/></node>
<node id="-11" lat="45.533803189" lon="-122.556251455" visible="true"><tag k="addr:housenumber" v="10305"/><tag k="addr:postcode" v="97220"/><tag k="addr:city" v="Portland"/><tag k="addr:street" v="Northeast Halsey Street"/></node>
<node id="-12" lat="45.533795849" lon="-122.556245572" visible="true"><tag k="addr:housenumber" v="10307"/><tag k="addr:postcode" v="97220"/><tag k="addr:city" v="Portland"/><tag k="addr:street" v="Northeast Halsey Street"/></node>
<node id="-13" lat="45.533804801" lon="-122.556247445" visible="true"><tag k="addr:housenumber" v="10309"/><tag k="addr:postcode" v="97220"/><tag k="addr:city" v="Portland"/><tag k="addr:street" v="Northeast Halsey Street"/></node>
<node id="-14" lat="45.533827333" lon="-122.551153033" visible="true"><tag k="addr:housenumber" v="10805"/><tag k="addr:postcode" v="97220"/><tag k="addr:city" v="Portland"/><tag k="addr:street" v="Northeast Halsey Street"/></node>
<node id="-15" lat="45.533828906" lon="-122.551155485" visible="true"><tag k="addr:housenumber" v="10813"/><tag k="addr:postcode" v="97220"/><tag k="addr:city" v="Portland"/><tag k="addr:street" v="Northeast Halsey Street"/></node>
<node id="-16" lat="45.533709105" lon="-122.549983986" visible="true"><tag k="addr:housenumber" v="10941"/><tag k="addr:postcode" v="97220"/><tag k="addr:city" v="Portland"/><tag k="addr:street" v="Northeast Halsey Street"/></node>
<node id="-17" lat="45.533716282" lon="-122.549988253" visible="true"><tag k="addr:housenumber" v="10945"/><tag k="addr:postcode" v="97220"/><tag k="addr:city" v="Portland"/><tag k="addr:street" v="Northeast Halsey Street"/></node>
<node id="-18" lat="45.533711184" lon="-122.549352641" visible="true"><tag k="addr:housenumber" v="11011"/><tag k="addr:postcode" v="97220"/><tag k="addr:city" v="Portland"/><tag k="addr:street" v="Northeast Halsey Street"/></node>
<node id="-19" lat="45.533706472" lon="-122.549349765" visible="true"><tag k="addr:housenumber" v="11025"/><tag k="addr:postcode" v="97220"/><tag k="addr:city" v="Portland"/><tag k="addr:street" v="Northeast Halsey Street"/></node>
<node id="-20" lat="45.533694563" lon="-122.548711314" visible="true"><tag k="addr:housenumber" v="11107"/><tag k="addr:postcode" v="97220"/><tag k="addr:city" v="Portland"/><tag k="addr:street" v="Northeast Halsey Street"/></node>
<node id="-21" lat="45.533686368" lon="-122.548712562" visible="true"><tag k="addr:housenumber" v="11114"/><tag k="addr:postcode" v="97220"/><tag k="addr:city" v="Portland"/><tag k="addr:street" v="Northeast Halsey Street"/></node>
<node id="-22" lat="45.533686462" lon="-122.548708184" visible="true"><tag k="addr:housenumber" v="11115"/><tag k="addr:postcode" v="97220"/><tag k="addr:city" v="Portland"/><tag k="addr:street" v="Northeast Halsey Street"/></node>
<node id="-23" lat="45.533692293" lon="-122.54871543" visible="true"><tag k="addr:housenumber" v="11121"/><tag k="addr:postcode" v="97220"/><tag k="addr:city" v="Portland"/><tag k="addr:street" v="Northeast Halsey Street"/></node>
<node id="-24" lat="45.533748532" lon="-122.547775845" visible="true"><tag k="addr:housenumber" v="11155"/><tag k="addr:postcode" v="97220"/><tag k="addr:city" v="Portland"/><tag k="addr:street" v="Northeast Halsey Street"/></node>
<node id="-25" lat="45.533748517" lon="-122.547771374" visible="true"><tag k="addr:housenumber" v="11157"/><tag k="addr:postcode" v="97220"/><tag k="addr:city" v="Portland"/><tag k="addr:street" v="Northeast Halsey Street"/></node>
<node id="-26" lat="45.539693447" lon="-122.547991274" visible="true"><tag k="addr:housenumber" v="11141"/><tag k="addr:postcode" v="97220"/><tag k="addr:city" v="Portland"/><tag k="addr:street" v="Northeast Sacramento Street"/></node>
<node id="-27" lat="45.539692091" lon="-122.547995131" visible="true"><tag k="addr:housenumber" v="11143"/><tag k="addr:postcode" v="97220"/><tag k="addr:city" v="Portland"/><tag k="addr:street" v="Northeast Sacramento Street"/></node>
<node id="-28" lat="45.536978665" lon="-122.554656774" visible="true"><tag k="addr:housenumber" v="10501"/><tag k="addr:postcode" v="97220"/><tag k="addr:city" v="Portland"/><tag k="addr:street" v="Northeast San Rafael Street"/></node>
<node id="-29" lat="45.536978148" lon="-122.554654815" visible="true"><tag k="addr:housenumber" v="10507"/><tag k="addr:postcode" v="97220"/><tag k="addr:city" v="Portland"/><tag k="addr:street" v="Northeast San Rafael Street"/></node>
<node id="-30" lat="45.537298783" lon="-122.548733555" visible="true"><tag k="addr:housenumber" v="11107"/><tag k="addr:postcode" v="97220"/><tag k="addr:city" v="Portland"/><tag k="addr:street" v="Northeast San Rafael Street"/></node>
<node id="-31" lat="45.537299707" lon="-122.548740182" visible="true"><tag k="addr:housenumber" v="11109"/><tag k="addr:postcode" v="97220"/><tag k="addr:city" v="Portland"/><tag k="addr:street" v="Northeast San Rafael Street"/></node>
<node id="-32" lat="45.535371376" lon="-122.548753321" visible="true"><tag k="addr:housenumber" v="11106"/><tag k="addr:postcode" v="97220"/><tag k="addr:city" v="Portland"/><tag k="addr:street" v="Northeast Schuyler Street"/></node>
<node id="-33" lat="45.535364445" lon="-122.548748371" visible="true"><tag k="addr:housenumber" v="11108"/><tag k="addr:postcode" v="97220"/><tag k="addr:city" v="Portland"/><tag k="addr:street" v="Northeast Schuyler Street"/></node>
<node id="-34" lat="45.535339991" lon="-122.548426771" visible="true"><tag k="addr:housenumber" v="11128"/><tag k="addr:postcode" v="97220"/><tag k="addr:city" v="Portland"/><tag k="addr:street" v="Northeast Schuyler Street"/></node>
<node id="-35" lat="45.535336156" lon="-122.548428359" visible="true"><tag k="addr:housenumber" v="11130"/><tag k="addr:postcode" v="97220"/><tag k="addr:city" v="Portland"/><tag k="addr:street" v="Northeast Schuyler Street"/></node>
<node id="-36" lat="45.533931331" lon="-122.554381395" visible="true"><tag k="addr:housenumber" v="10520"/><tag k="addr:postcode" v="97220"/><tag k="addr:city" v="Portland"/><tag k="addr:street" v="Northeast Weidler Street"/></node>
<node id="-37" lat="45.5339308" lon="-122.554384034" visible="true"><tag k="addr:housenumber" v="10530"/><tag k="addr:postcode" v="97220"/><tag k="addr:city" v="Portland"/><tag k="addr:street" v="Northeast Weidler Street"/></node>
<node id="-38" lat="45.533949209" lon="-122.550028783" visible="true"><tag k="addr:housenumber" v="10930"/><tag k="addr:postcode" v="97220"/><tag k="addr:city" v="Portland"/><tag k="addr:street" v="Northeast Weidler Street"/></node>
<node id="-39" lat="45.533951304" lon="-122.550029099" visible="true"><tag k="addr:housenumber" v="10942"/><tag k="addr:postcode" v="97220"/><tag k="addr:city" v="Portland"/><tag k="addr:street" v="Northeast Weidler Street"/></node>
<node id="-40" lat="45.533709798" lon="-122.549353553" visible="true"><tag k="addr:housenumber" v="11040"/><tag k="addr:postcode" v="97220"/><tag k="addr:city" v="Portland"/><tag k="addr:street" v="Northeast Weidler Street"/></node>
</osm>