<?xml version="1.0"?>
<osm version="0.6" upload="false" generator="uvmogr2osm">
<node id="-1" lat="45.522616802" lon="-122.599218995" visible="true"><tag k="addr:housenumber" v="6202"/><tag k="addr:postcode" v="97215"/><tag k="addr:city" v="Portland"/><tag k="addr:street" v="East Burnside Street"/></node>
<node id="-2" lat="45.523098868" lon="-122.599285803" visible="true"><tag k="addr:housenumber" v="6203"/><tag k="addr:postcode" v="97215"/><tag k="addr:city" v="Portland"/><tag k="addr:street" v="East Burnside Street"/></node>
<node id="-3" lat="45.523103389" lon="-122.599286875" visible="true"><tag k="addr:housenumber" v="6205"/><tag k="addr:postcode" v="97215"/><tag k="addr:city" v="Portland"/><tag k="addr:street" v="East Burnside Street"/></node>
<node id="-4" lat="45.523101931" lon="-122.59928777" visible="true"><tag k="addr:housenumber" v="6206"/><tag k="addr:postcode" v="97215"/><tag k="addr:city" v="Portland"/><tag k="addr:street" v="East Burnside Street"/></node>
<node id="-5" lat="45.52309593" lon="-122.599287328" visible="true"><tag k="addr:housenumber" v="6207"/><tag k="addr:postcode" v="97215"/><tag k="addr:city" v="Portland"/><tag k="addr:street" v="East Burnside Street"/></node>
<node id="-6" lat="45.523096696" lon="-122.59928563" visible="true"><tag k="addr:housenumber" v="6209"/><tag k="addr:postcode" v="97215"/><tag k="addr:city" v="Portland"/><tag k="addr:street" v="East Burnside Street"/></node>
<node id="-7" lat="45.522621614" lon="-122.599210742" visible="true"><tag k="addr:housenumber" v="6211"/><tag k="addr:postcode" v="97215"/><tag k="addr:city" v="Portland"/><tag k="addr:street" v="East Burnside Street"/></node>
<node id="-8" lat="45.522614849" lon="-122.599217192" visible="true"><tag k="addr:housenumber" v="6214"/><tag k="addr:postcode" v="97215"/><tag k="addr:city" v="Portland"/><tag k="addr:street" v="East Burnside Street"/></node>
<node id="-9" lat="45.523102037" lon="-122.598991947" visible="true"><tag k="addr:housenumber" v="6219"/><tag k="addr:postcode" v="97215"/><tag k="addr:city" v="Portland"/><tag k="addr:street" v="East Burnside Street"/></node>
<node id="-10" lat="45.523099481" lon="-122.598986644" visible="true"><tag k="addr:housenumber" v="6220"/><tag k="addr:postcode" v="97215"/><tag k="addr:city" v="Portland"/><tag k="addr:street" v="East Burnside Street"/></node>
<node id="-11" lat="45.523104358" lon="-122.598995414" visible="true"><tag k="addr:housenumber" v="6221"/><tag k="addr:postcode" v="97215"/><tag k="addr:city" v="Portland"/><tag k="addr:street" v="East Burnside Street"/></node>
<node id="-12" lat="45.523102486" lon="-122.598986215" visible="true"><tag k="addr:housenumber" v="6223"/><tag k="addr:postcode" v="97215"/><tag k="addr:city" v="Portland"/><tag k="addr:street" v="East Burnside Street"/></node>
<node id="-13" lat="45.522612989" lon="-122.599217486" visible="true"><tag k="addr:housenumber" v="6224"/><tag k="addr:postcode" v="97215"/><tag k="addr:city" v="Portland"/><tag k="addr:street" v="East Burnside Street"/></node>
<node id="-14" lat="45.523104853" lon="-122.598994028" visible="true"><tag k="addr:housenumber" v="6225"/><tag k="addr:postcode" v="97215"/><tag k="addr:city" v="Portland"/><tag k="addr:street" v="East Burnside Street"/></node>
<node id="-15" lat="45.522806713" lon="-122.597811199" visible="true"><tag k="addr:housenumber" v="6404"/><tag k="addr:postcode" v="97215"/><tag k="addr:city" v="Portland"/><tag k="addr:street" v="East Burnside Street"/></node>
<node id="-16" lat="45.522802441" lon="-122.597811608" visible="true"><tag k="addr:housenumber" v="6406"/><tag k="addr:postcode" v="97215"/><tag k="addr:city" v="Portland"/><tag k="addr:street" v="East Burnside Street"/></node>
<node id="-17" lat="45.522897744" lon="-122.597149266" visible="true"><tag k="addr:housenumber" v="6510"/><tag k="addr:postcode" v="97215"/><tag k="addr:city" v="Portland"/><tag k="addr:street" v="East Burnside Street"/></node>
<node id="-18" lat="45.522906554" lon="-122.597156748" visible="true"><tag k="addr:housenumber" v="6512"/><tag k="addr:postcode" v="97215"/><tag k="addr:city" v="Portland"/><tag k="addr:street" v="East Burnside Street"/></node>
<node id="-19" lat="45.522902201" lon="-122.596955234" visible="true"><tag k="addr:housenumber" v="6524"/><tag k="addr:postcode" v="97215"/><tag k="addr:city" v="Portland"/><tag k="addr:street" v="East Burnside Street"/></node>
<node id="-20" lat="45.522903776" lon="-122.596958349" visible="true"><tag k="addr:housenumber" v="6526"/><tag k="addr:postcode" v="97215"/><tag k="addr:city" v="Portland"/><tag k="addr:street" v="East Burnside Street"/></node>
<node id="-21" lat="45.523379449" lon="-122.596460506" visible="true"><tag k="addr:housenumber" v="6555"/><tag k="addr:postcode" v="97215"/><tag k="addr:city" v="Portland"/><tag k="addr:street" v="East Burnside Street"/></node>
<node id="-22" lat="45.523376205" lon="-122.596466361" visible="true"><tag k="addr:housenumber" v="6557"/><tag k="addr:postcode" v="97215"/><tag k="addr:city" v="Portland"/><tag k="addr:street" v="East Burnside Street"/></node>
<node id="-23" lat="45.522903628" lon="-122.596272487" visible="true"><tag k="addr:housenumber" v="6604"/><tag k="addr:postcode" v="97215"/><tag k="addr:city" v="Portland"/><tag k="addr:street" v="East Burnside Street"/></node>
<node id="-24" lat="45.522906272" lon="-122.596274013" visible="true"><tag k="addr:housenumber" v="6608"/><tag k="addr:postcode" v="97215"/><tag k="addr:city" v="Portland"/><tag k="addr:street" v="East Burnside Street"/></node>
<node id="-25" lat="45.522907824" lon="-122.596276227" visible="true"><tag k="addr:housenumber" v="6610"/><tag k="addr:postcode" v="97215"/><tag k="addr:city" v="Portland"/><tag k="addr:street" v="East Burnside Street"/></node>
<node id="-26" lat="45.522906465" lon="-122.596278709" visible="true"><tag k="addr:housenumber" v="6614"/><tag k="addr:postcode" v="97215"/><tag k="addr:city" v="Portland"/><tag k="addr:street" v="East Burnside Street"/></node>
<node id="-27" lat="45.523355709" lon="-122.595504366" visible="true"><tag k="addr:housenumber" v="6650"/><tag k="addr:postcode" v="97215"/><tag k="addr:city" v="Portland"/><tag k="addr:street" v="East Burnside Street"/></node>
<node id="-28" lat="45.523348937" lon="-122.595505867" visible="true"><tag k="addr:housenumber" v="6651"/><tag k="addr:postcode" v="97215"/><tag k="addr:city" v="Portland"/><tag k="addr:street" v="East Burnside Street"/></node>
<node id="-29" lat="45.523347491" lon="-122.595501064" visible="true"><tag k="addr:housenumber" v="6653"/><tag k="addr:postcode" v="97215"/><tag k="addr:city" v="Portland"/><tag k="addr:street" v="East Burnside Street"/></node>
<node id="-30" lat="45.523348983" lon="-122.594492196" visible="true"><tag k="addr:housenumber" v="6725"/><tag k="addr:postcode" v="97215"/><tag k="addr:city" v="Portland"/><tag k="addr:street" v="East Burnside Street"/></node>
<node id="-31" lat="45.523351431" lon="-122.594489055" visible="true"><tag k="addr:housenumber" v="6727"/><tag k="addr:postcode" v="97215"/><tag k="addr:city" v="Portland"/><tag k="addr:street" v="East Burnside Street"/></node>
<node id="-32" lat="45.523302116" lon="-122.593438447" visible="true"><tag k="addr:housenumber" v="6815"/><tag k="addr:postcode" v="97215"/><tag k="addr:city" v="Portland"/><tag k="addr:street" v="East Burnside Street"/></node>
<node id="-33" lat="45.523305968" lon="-122.593443288" visible="true"><tag k="addr:housenumber" v="6817"/><tag k="addr:postcode" v="97215"/><tag k="addr:city" v="Portland"/><tag k="addr:street" v="East Burnside Street"/></node>
<node id="-34" lat="45.52295981" lon="-122.591610406" visible="true"><tag k="addr:housenumber" v="6920"/><tag k="addr:postcode" v="97215"/><tag k="addr:city" v="Portland"/><tag k="addr:street" v="East Burnside Street"/></node>
<node id="-35" lat="45.522961292" lon="-122.591604646" visible="true"><tag k="addr:housenumber" v="6922"/><tag k="addr:postcode" v="97215"/><tag k="addr:city" v="Portland"/><tag k="addr:street" v="East Burnside Street"/></node>
<node id="-36" lat="45.524751473" lon="-122.599273033" visible="true"><tag k="addr:housenumber" v="236"/><tag k="addr:postcode" v="97213"/><tag k="addr:city" v="Portland"/><tag k="addr:street" v="Northeast 62nd Avenue"/></node>
<node id="-37" lat="45.524755683" lon="-122.599263704" visible="true"><tag k="addr:housenumber" v="238"/><tag k="addr:postcode" v="97213"/><tag k="addr:city" v="Portland"/><tag k="addr:street" v="Northeast 62nd Avenue"/></node>
<node id="-38" lat="45.524894718" lon="-122.599262165" visible="true"><tag k="addr:housenumber" v="242"/><tag k="addr:postcode" v="97213"/><tag k="addr:city" v="Portland"/><tag k="addr:street" v="Northeast 62nd Avenue"/></node>
<node id="-39" lat="45.524895303" lon="-122.599263223" visible="true"><tag k="addr:housenumber" v="244"/><tag k="addr:postcode" v="97213"/><tag k="addr:city" v="Portland"/><tag k="addr:street" v="Northeast 62nd Avenue"/></node>
<node id="-40" lat="45.525432877" lon="-122.598872639" visible="true"><tag k="addr:housenumber" v="341"/><tag k="addr:postcode" v="97213"/><tag k="addr:city" v="Portland"/><tag k="addr:street" v="Northeast 63rd Avenue"/></node>
<node id="-41" lat="45.525437617" lon="-122.598866458" visible="true"><tag k="addr:housenumber" v="343"/><tag k="addr:postcode" v="97213"/><tag k="addr:city" v="Portland"/><tag k="addr:street" v="Northeast 63rd Avenue"/></node>
<node id="-42" lat="45.525522569" lon="-122.598128266" visible="true"><tag k="addr:housenumber" v="400"/><tag k="addr:postcode" v="97213"/><tag k="addr:city" v="Portland"/><tag k="addr:street" v="Northeast 63rd Avenue"/></node>
<node id="-43" lat="45.525518384" lon="-122.598137011" visible="true"><tag k="addr:housenumber" v="402"/><tag k="addr:postcode" v="97213"/><tag k="addr:city" v="Portland"/><tag k="addr:street" v="Northeast 63rd Avenue"/></node>
<node id="-44" lat="45.525525314" lon="-122.598132506" visible="true"><tag k="addr:housenumber" v="404"/><tag k="addr:postcode" v="97213"/><tag k="addr:city" v="Portland"/><tag k="addr:street" v="Northeast 63rd Avenue"/></node>
<node id="-45" lat="45.525519061" lon="-122.598132899" visible="true"><tag k="addr:housenumber" v="406"/><tag k="addr:postcode" v="97213"/><tag k="addr:city" v="Portland"/><tag k="addr:street" v="Northeast 63rd Avenue"/></node>
<node id="-46" lat="45.52583129" lon="-122.598125157" visible="true"><tag k="addr:housenumber" v="416"/><tag k="addr:postcode" v="97213"/><tag k="addr:city" v="Portland"/><tag k="addr:street" v="Northeast 63rd Avenue"/></node>
<node id="-47" lat="45.525826022" lon="-122.59812735" visible="true"><tag k="addr:housenumber" v="426"/><tag k="addr:postcode" v="97213"/><tag k="addr:city" v="Portland"/><tag k="addr:street" v="Northeast 63rd Avenue"/></node>
<node id="-48" lat="45.525825678" lon="-122.598129417" visible="true"><tag k="addr:housenumber" v="436"/><tag k="addr:postcode" v="97213"/><tag k="addr:city" v="Portland"/><tag k="addr:street" v="Northeast 63rd Avenue"/></node>
<node id="-49" lat="45.525084348" lon="-122.59678896" visible="true"><tag k="addr:housenumber" v="314"/><tag k="addr:postcode" v="97213"/><tag k="addr:city" v="Portland"/><tag k="addr:street" v="Northeast 65th Avenue"/></node>
<node id="-50" lat="45.525087025" lon="-122.59678888" visible="true"><tag k="addr:housenumber" v="318"/><tag k="addr:postcode" v="97213"/><tag k="addr:city" v="Portland"/><tag k="addr:street" v="Northeast 65th Avenue"/></node>
<node id="-51" lat="45.523347604" lon="-122.595896948" visible="true"><tag k="addr:housenumber" v="10"/><tag k="addr:postcode" v="97213"/><tag k="addr:city" v="Portland"/><tag k="addr:street" v="Northeast 66th Avenue"/></node>
<node id="-52" lat="45.523350453" lon="-122.595896238" visible="true"><tag k="addr:housenumber" v="14"/><tag k="addr:postcode" v="97213"/><tag k="addr:city" v="Portland"/><tag k="addr:street" v="Northeast 66th Avenue"/></node>
<node id="-53" lat="45.524675452" lon="-122.596075875" visible="true"><tag k="addr:housenumber" v="211"/><tag k="addr:postcode" v="97213"/><tag k="addr:city" v="Portland"/><tag k="addr:street" v="Northeast 66th Avenue"/></node>
<node id="-54" lat="45.524678313" lon="-122.596075832" visible="true"><tag k="addr:housenumber" v="231"/><tag k="addr:postcode" v="97213"/><tag k="addr:city" v="Portland"/><tag k="addr:street" v="Northeast 66th Avenue"/></node>
<node id="-55" lat="45.526015265" lon="-122.595336577" visible="true"><tag k="addr:housenumber" v="438"/><tag k="addr:postcode" v="97213"/><tag k="addr:city" v="Portland"/><tag k="addr:street" v="Northeast 66th Avenue"/></node>
<node id="-56" lat="45.526014907" lon="-122.595337517" visible="true"><tag k="addr:housenumber" v="440"/><tag k="addr:postcode" v="97213"/><tag k="addr:city" v="Portland"/><tag k="addr:street" v="Northeast 66th Avenue"/></node>
<node id="-57" lat="45.526013286" lon="-122.595335048" visible="true"><tag k="addr:housenumber" v="442"/><tag k="addr:postcode" v="97213"/><tag k="addr:city" v="Portland"/><tag k="addr:street" v="Northeast 66th Avenue"/></node>
<node id="-58" lat="45.526011252" lon="-122.59533378" visible="true"><tag k="addr:housenumber" v="444"/><tag k="addr:postcode" v="97213"/><tag k="addr:city" v="Portland"/><tag k="addr:street" v="Northeast 66th Avenue"/></node>
<node id="-59" lat="45.52619098" lon="-122.595890384" visible="true"><tag k="addr:housenumber" v="447"/><tag k="addr:postcode" v="97213"/><tag k="addr:city" v="Portland"/><tag k="addr:street" v="Northeast 66th Avenue"/></node>
<node id="-60" lat="45.526194201" lon="-122.595894496" visible="true"><tag k="addr:housenumber" v="451"/><tag k="addr:postcode" v="97213"/><tag k="addr:city" v="Portland"/><tag k="addr:street" v="Northeast 66th Avenue"/></node>
<node id="-61" lat="45.526187403" lon="-122.595891634" visible="true"><tag k="addr:housenumber" v="453"/><tag k="addr:postcode" v="97213"/><tag k="addr:city" v="Portland"/><tag k="addr:street" v="Northeast 66th Avenue"/></node>
<node id="-62" lat="45.526192349" lon="-122.595890053" visible="true"><tag k="addr:housenumber" v="455"/><tag k="addr:postcode" v="97213"/><tag k="addr:city" v="Portland"/><tag k="addr:street" v="Northeast 66th Avenue"/></node>
<node id="-63" lat="45.523973726" lon="-122.594780156" visible="true"><tag k="addr:housenumber" v="126"/><tag k="addr:postcode" v="97213"/><tag k="addr:city" v="Portland"/><tag k="addr:street" v="Northeast 67th Avenue"/></node>
<node id="-64" lat="45.523380337" lon="-122.593146645" visible="true"><tag k="addr:housenumber" v="17"/><tag k="addr:postcode" v="97213"/><tag k="addr:city" v="Portland"/><tag k="addr:street" v="Northeast 68th Avenue"/></node>
<node id="-65" lat="45.523385478" lon="-122.593146479" visible="true"><tag k="addr:housenumber" v="29"/><tag k="addr:postcode" v="97213"/><tag k="addr:city" v="Portland"/><tag k="addr:street" v="Northeast 68th Avenue"/></node>
<node id="-66" lat="45.526075162" lon="-122.593766904" visible="true"><tag k="addr:housenumber" v="445"/><tag k="addr:postcode" v="97213"/><tag k="addr:city" v="Portland"/><tag k="addr:street" v="Northeast 68th Avenue"/></node>
<node id="-67" lat="45.526069066" lon="-122.593769362" visible="true"><tag k="addr:housenumber" v="447"/><tag k="addr:postcode" v="97213"/><tag k="addr:city" v="Portland"/><tag k="addr:street" v="Northeast 68th Avenue"/></node>
<node id="-68" lat="45.526067898" lon="-122.593145817" visible="true"><tag k="addr:housenumber" v="448"/><tag k="addr:postcode" v="97213"/><tag k="addr:city" v="Portland"/><tag k="addr:street" v="Northeast 68th Avenue"/></node>
<node id="-69" lat="45.526069815" lon="-122.593144499" visible="true"><tag k="addr:housenumber" v="450"/><tag k="addr:postcode" v="97213"/><tag k="addr:city" v="Portland"/><tag k="addr:street" v="Northeast 68th Avenue"/></node>
<node id="-70" lat="45.525924562" lon="-122.592121051" visible="true"><tag k="addr:housenumber" v="428"/><tag k="addr:postcode" v="97213"/><tag k="addr:city" v="Portland"/><tag k="addr:street" v="Northeast 69th Avenue"/></node>
<node id="-71" lat="45.52592739" lon="-122.592122145" visible="true"><tag k="addr:housenumber" v="436"/><tag k="addr:postcode" v="97213"/><tag k="addr:city" v="Portland"/><tag k="addr:street" v="Northeast 69th Avenue"/></node>
<node id="-72" lat="45.526149382" lon="-122.59111976" visible="true"><tag k="addr:housenumber" v="444"/><tag k="addr:postcode" v="97213"/><tag k="addr:city" v="Portland"/><tag k="addr:street" v="Northeast 70th Avenue"/></node>
<node id="-73" lat="45.526020073" lon="-122.589538622" visible="true"><tag k="addr:housenumber" v="424"/><tag k="addr:postcode" v="97213"/><tag k="addr:city" v="Portland"/><tag k="addr:street" v="Northeast 71st Avenue"/></node>
<node id="-74" lat="45.526022667" lon="-122.589544424" visible="true"><tag k="addr:housenumber" v="436"/><tag k="addr:postcode" v="97213"/><tag k="addr:city" v="Portland"/><tag k="addr:street" v="Northeast 71st Avenue"/></node>
<node id="-75" lat="45.52601968" lon="-122.589545044" visible="true"><tag k="addr:housenumber" v="440"/><tag k="addr:postcode" v="97213"/><tag k="addr:city" v="Portland"/><tag k="addr:street" v="Northeast 71st Avenue"/></node>
<node id="-76" lat="45.523334955" lon="-122.590166724" visible="true"><tag k="addr:housenumber" v="5"/><tag k="addr:postcode" v="97213"/><tag k="addr:city" v="Portland"/><tag k="addr:street" v="Northeast 71st Avenue"/></node>
<node id="-77" lat="45.523333041" lon="-122.590167667" visible="true"><tag k="addr:housenumber" v="7"/><tag k="addr:postcode" v="97213"/><tag k="addr:city" v="Portland"/><tag k="addr:street" v="Northeast 71st Avenue"/></node>
<node id="-78" lat="45.523971586" lon="-122.594772127" visible="true"><tag k="addr:housenumber" v="6680"/><tag k="addr:postcode" v="97213"/><tag k="addr:city" v="Portland"/><tag k="addr:street" v="Northeast Davis Street"/></node>
<node id="-79" lat="45.523391203" lon="-122.593764572" visible="true"><tag k="addr:housenumber" v="22"/><tag k="addr:postcode" v="97213"/><tag k="addr:city" v="Portland"/><tag k="addr:street" v="Northeast Gilham Avenue"/></node>
<node id="-80" lat="45.523386183" lon="-122.593764599" visible="true"><tag k="addr:housenumber" v="26"/><tag k="addr:postcode" v="97213"/><tag k="addr:city" v="Portland"/><tag k="addr:street" v="Northeast Gilham Avenue"/></node>
<node id="-81" lat="45.526270603" lon="-122.599345409" visible="true"><tag k="addr:housenumber" v="6208"/><tag k="addr:postcode" v="97213"/><tag k="addr:city" v="Portland"/><tag k="addr:street" v="Northeast Glisan Street"/></node>
<node id="-82" lat="45.526264624" lon="-122.599345471" visible="true"><tag k="addr:housenumber" v="6212"/><tag k="addr:postcode" v="97213"/><tag k="addr:city" v="Portland"/><tag k="addr:street" v="Northeast Glisan Street"/></node>
<node id="-83" lat="45.526258381" lon="-122.598090582" visible="true"><tag k="addr:housenumber" v="6322"/><tag k="addr:postcode" v="97213"/><tag k="addr:city" v="Portland"/><tag k="addr:street" v="Northeast Glisan Street"/></node>
<node id="-84" lat="45.526264972" lon="-122.598092118" visible="true"><tag k="addr:housenumber" v="6324"/><tag k="addr:postcode" v="97213"/><tag k="addr:city" v="Portland"/><tag k="addr:street" v="Northeast Glisan Street"/></node>
<node id="-85" lat="45.526259265" lon="-122.59788766" visible="true"><tag k="addr:housenumber" v="6336"/><tag k="addr:postcode" v="97213"/><tag k="addr:city" v="Portland"/><tag k="addr:street" v="Northeast Glisan Street"/></node>
<node id="-86" lat="45.526258778" lon="-122.597891659" visible="true"><tag k="addr:housenumber" v="6337"/><tag k="addr:postcode" v="97213"/><tag k="addr:city" v="Portland"/><tag k="addr:street" v="Northeast Glisan Street"/></node>
<node id="-87" lat="45.526266293" lon="-122.597889297" visible="true"><tag k="addr:housenumber" v="6338"/><tag k="addr:postcode" v="97213"/><tag k="addr:city" v="Portland"/><tag k="addr:street" v="Northeast Glisan Street"/></node>
<node id="-88" lat="45.526138445" lon="-122.596165566" visible="true"><tag k="addr:housenumber" v="6532"/><tag k="addr:postcode" v="97213"/><tag k="addr:city" v="Portland"/><tag k="addr:street" v="Northeast Glisan Street"/></node>
<node id="-89" lat="45.526139134" lon="-122.596169629" visible="true"><tag k="addr:housenumber" v="6534"/><tag k="addr:postcode" v="97213"/><tag k="addr:city" v="Portland"/><tag k="addr:street" v="Northeast Glisan Street"/></node>
<node id="-90" lat="45.526146029" lon="-122.596163804" visible="true"><tag k="addr:housenumber" v="6536"/><tag k="addr:postcode" v="97213"/><tag k="addr:city" v="Portland"/><tag k="addr:street" v="Northeast Glisan Street"/></node>
<node id="-91" lat="45.526145814" lon="-122.596161793" visible="true"><tag k="addr:housenumber" v="6538"/><tag k="addr:postcode" v="97213"/><tag k="addr:city" v="Portland"/><tag k="addr:street" v="Northeast Glisan Street"/></node>
<node id="-92" lat="45.526143611" lon="-122.596170331" visible="true"><tag k="addr:housenumber" v="6540"/><tag k="addr:postcode" v="97213"/><tag k="addr:city" v="Portland"/><tag k="addr:street" v="Northeast Glisan Street"/></node>
<node id="-93" lat="45.52614617" lon="-122.596162007" visible="true"><tag k="addr:housenumber" v="6544"/><tag k="addr:postcode" v="97213"/><tag k="addr:city" v="Portland"/><tag k="addr:street" v="Northeast Glisan Street"/></node>
<node id="-94" lat="45.526137774" lon="-122.596167204" visible="true"><tag k="addr:housenumber" v="6546"/><tag k="addr:postcode" v="97213"/><tag k="addr:city" v="Portland"/><tag k="addr:street" v="Northeast Glisan Street"/></node>
<node id="-95" lat="45.526176671" lon="-122.594828309" visible="true"><tag k="addr:housenumber" v="6620"/><tag k="addr:postcode" v="97213"/><tag k="addr:city" v="Portland"/><tag k="addr:street" v="Northeast Glisan Street"/></node>
<node id="-96" lat="45.526171819" lon="-122.594820534" visible="true"><tag k="addr:housenumber" v="6630"/><tag k="addr:postcode" v="97213"/><tag k="addr:city" v="Portland"/><tag k="addr:street" v="Northeast Glisan Street"/></node>
<node id="-97" lat="45.526173119" lon="-122.594827795" visible="true"><tag k="addr:housenumber" v="6660"/><tag k="addr:postcode" v="97213"/><tag k="addr:city" v="Portland"/><tag k="addr:street" v="Northeast Glisan Street"/></node>
<node id="-98" lat="45.526315942" lon="-122.592749062" visible="true"><tag k="addr:housenumber" v="6824"/><tag k="addr:postcode" v="97213"/><tag k="addr:city" v="Portland"/><tag k="addr:street" v="Northeast Glisan Street"/></node>
<node id="-99" lat="45.526321706" lon="-122.592755376" visible="true"><tag k="addr:housenumber" v="6826"/><tag k="addr:postcode" v="97213"/><tag k="addr:city" v="Portland"/><tag k="addr:street" v="Northeast Glisan Street"/></node>
<node id="-100" lat="45.526320899" lon="-122.59275489" visible="true"><tag k="addr:housenumber" v="6834"/><tag k="addr:postcode" v="97213"/><tag k="addr:city" v="Portland"/><tag k="addr:street" v="Northeast Glisan Street"/></node>
<node id="-101" lat="45.526151133" lon="-122.591121423" visible="true"><tag k="addr:housenumber" v="7006"/><tag k="addr:postcode" v="97213"/><tag k="addr:city" v="Portland"/><tag k="addr:street" v="Northeast Glisan Street"/></node>
<node id="-102" lat="45.526156762" lon="-122.591124922" visible="true"><tag k="addr:housenumber" v="7010"/><tag k="addr:postcode" v="97213"/><tag k="addr:city" v="Portland"/><tag k="addr:street" v="Northeast Glisan Street"/></node>
<node id="-103" lat="45.526118647" lon="-122.590475421" visible="true"><tag k="addr:housenumber" v="7034"/><tag k="addr:postcode" v="97213"/><tag k="addr:city" v="Portland"/><tag k="addr:street" v="Northeast Glisan Street"/></node>
<node id="-104" lat="45.526120023" lon="-122.59047643" visible="true"><tag k="addr:housenumber" v="7056"/><tag k="addr:postcode" v="97213"/><tag k="addr:city" v="Portland"/><tag k="addr:street" v="Northeast Glisan Street"/></node>
<node id="-105" lat="45.526264424" lon="-122.589545366" visible="true"><tag k="addr:housenumber" v="7100"/><tag k="addr:postcode" v="97213"/><tag k="addr:city" v="Portland"/><tag k="addr:street" v="Northeast Glisan Street"/></node>
<node id="-106" lat="45.526266415" lon="-122.589544674" visible="true"><tag k="addr:housenumber" v="7108"/><tag k="addr:postcode" v="97213"/><tag k="addr:city" v="Portland"/><tag k="addr:street" v="Northeast Glisan Street"/></node>
<node id="-107" lat="45.519538445" lon="-122.59862862" visible="true"><tag k="addr:housenumber" v="426"/><tag k="addr:postcode" v="97215"/><tag k="addr:city" v="Portland"/><tag k="addr:street" v="Southeast 62nd Place"/></node>
<node id="-108" lat="45.522617624" lon="-122.599217047" visible="true"><tag k="addr:housenumber" v="17"/><tag k="addr:postcode" v="97215"/><tag k="addr:city" v="Portland"/><tag k="addr:street" v="Southeast 63rd Avenue"/></node>
<node id="-109" lat="45.522527813" lon="-122.59820738" visible="true"><tag k="addr:housenumber" v="22"/><tag k="addr:postcode" v="97215"/><tag k="addr:city" v="Portland"/><tag k="addr:street" v="Southeast 63rd Avenue"/></node>
<node id="-110" lat="45.522534734" lon="-122.598209624" visible="true"><tag k="addr:housenumber" v="24"/><tag k="addr:postcode" v="97215"/><tag k="addr:city" v="Portland"/><tag k="addr:street" v="Southeast 63rd Avenue"/></node>
<node id="-111" lat="45.522399729" lon="-122.598805539" visible="true"><tag k="addr:housenumber" v="25"/><tag k="addr:postcode" v="97215"/><tag k="addr:city" v="Portland"/><tag k="addr:street" v="Southeast 63rd Avenue"/></node>
<node id="-112" lat="45.522394032" lon="-122.598210601" visible="true"><tag k="addr:housenumber" v="26"/><tag k="addr:postcode" v="97215"/><tag k="addr:city" v="Portland"/><tag k="addr:street" v="Southeast 63rd Avenue"/></node>
<node id="-113" lat="45.522392581" lon="-122.598211486" visible="true"><tag k="addr:housenumber" v="28"/><tag k="addr:postcode" v="97215"/><tag k="addr:city" v="Portland"/><tag k="addr:street" v="Southeast 63rd Avenue"/></node>
<node id="-114" lat="45.522392087" lon="-122.598804812" visible="true"><tag k="addr:housenumber" v="29"/><tag k="addr:postcode" v="97215"/><tag k="addr:city" v="Portland"/><tag k="addr:street" v="Southeast 63rd Avenue"/></node>
<node id="-115" lat="45.520039529" lon="-122.596424971" visible="true"><tag k="addr:housenumber" v="411"/><tag k="addr:postcode" v="97215"/><tag k="addr:city" v="Portland"/><tag k="addr:street" v="Southeast 65th Avenue"/></node>
<node id="-116" lat="45.522700768" lon="-122.596851953" visible="true"><tag k="addr:housenumber" v="25"/><tag k="addr:postcode" v="97215"/><tag k="addr:city" v="Portland"/><tag k="addr:street" v="Southeast 66th Avenue"/></node>
<node id="-117" lat="45.522709915" lon="-122.596855554" visible="true"><tag k="addr:housenumber" v="27"/><tag k="addr:postcode" v="97215"/><tag k="addr:city" v="Portland"/><tag k="addr:street" v="Southeast 66th Avenue"/></node>
<node id="-118" lat="45.520135413" lon="-122.592911764" visible="true"><tag k="addr:housenumber" v="404 A"/><tag k="addr:postcode" v="97215"/><tag k="addr:city" v="Portland"/><tag k="addr:street" v="Southeast 68th Avenue"/></node>
<node id="-119" lat="45.520103352" lon="-122.592911114" visible="true"><tag k="addr:housenumber" v="404 B"/><tag k="addr:postcode" v="97215"/><tag k="addr:city" v="Portland"/><tag k="addr:street" v="Southeast 68th Avenue"/></node>
<node id="-120" lat="45.521217214" lon="-122.590537998" visible="true"><tag k="addr:housenumber" v="210"/><tag k="addr:postcode" v="97215"/><tag k="addr:city" v="Portland"/><tag k="addr:street" v="Southeast Gilham Avenue"/></node>
<node id="-121" lat="45.521214239" lon="-122.590539254" visible="true"><tag k="addr:housenumber" v="220"/><tag k="addr:postcode" v="97215"/><tag k="addr:city" v="Portland"/><tag k="addr:street" v="Southeast Gilham Avenue"/></node>
<node id="-122" lat="45.521214601" lon="-122.590535308" visible="true"><tag k="addr:housenumber" v="230"/><tag k="addr:postcode" v="97215"/><tag k="addr:city" v="Portland"/><tag k="addr:street" v="Southeast Gilham Avenue"/></node>
<node id="-123" lat="45.521221101" lon="-122.590543732" visible="true"><tag k="addr:housenumber" v="240"/><tag k="addr:postcode" v="97215"/><tag k="addr:city" v="Portland"/><tag k="addr:street" v="Southeast Gilham Avenue"/></node>
<node id="-124" lat="45.520039768" lon="-122.596432006" visible="true"><tag k="addr:housenumber" v="6448"/><tag k="addr:postcode" v="97215"/><tag k="addr:city" v="Portland"/><tag k="addr:street" v="Southeast Pine Street"/></node>
<node id="-125" lat="45.519541534" lon="-122.598628318" visible="true"><tag k="addr:housenumber" v="6277"/><tag k="addr:postcode" v="97215"/><tag k="addr:city" v="Portland"/><tag k="addr:street" v="Southeast Stark Street"/></node>
</osm>