<?xml version="1.0"?>
<osm version="0.6" upload="false" generator="uvmogr2osm">
<node id="-1" lat="45.535203328" lon="-122.578568147" visible="true"><tag k="addr:housenumber" v="1710"/><tag k="addr:postcode" v="97220"/><tag k="addr:city" v="Portland"/><tag k="addr:street" v="Northeast 82nd Avenue"/></node>
<node id="-2" lat="45.535206578" lon="-122.578573757" visible="true"><tag k="addr:housenumber" v="1718"/><tag k="addr:postcode" v="97220"/><tag k="addr:city" v="Portland"/><tag k="addr:street" v="Northeast 82nd Avenue"/></node>
<node id="-3" lat="45.537496083" lon="-122.578627757" visible="true"><tag k="addr:housenumber" v="2116"/><tag k="addr:postcode" v="97220"/><tag k="addr:city" v="Portland"/><tag k="addr:street" v="Northeast 82nd Avenue"/></node>
<node id="-4" lat="45.53749685" lon="-122.578629751" visible="true"><tag k="addr:housenumber" v="2120"/><tag k="addr:postcode" v="97220"/><tag k="addr:city" v="Portland"/><tag k="addr:street" v="Northeast 82nd Avenue"/></node>
<node id="-5" lat="45.53830791" lon="-122.57861075" visible="true"><tag k="addr:housenumber" v="2206"/><tag k="addr:postcode" v="97220"/><tag k="addr:city" v="Portland"/><tag k="addr:street" v="Northeast 82nd Avenue"/></node>
<node id="-6" lat="45.538308014" lon="-122.578617662" visible="true"><tag k="addr:housenumber" v="2218"/><tag k="addr:postcode" v="97220"/><tag k="addr:city" v="Portland"/><tag k="addr:street" v="Northeast 82nd Avenue"/></node>
<node id="-7" lat="45.54030148" lon="-122.578525772" visible="true"><tag k="addr:housenumber" v="2518"/><tag k="addr:postcode" v="97220"/><tag k="addr:city" v="Portland"/><tag k="addr:street" v="Northeast 82nd Avenue"/></node>
<node id="-8" lat="45.538162162" lon="-122.572694532" visible="true"><tag k="addr:housenumber" v="2217"/><tag k="addr:postcode" v="97220"/><tag k="addr:city" v="Portland"/><tag k="addr:street" v="Northeast 88th Avenue"/></node>
<node id="-9" lat="45.533708998" lon="-122.568919512" visible="true"><tag k="addr:housenumber" v="1505"/><tag k="addr:postcode" v="97220"/><tag k="addr:city" v="Portland"/><tag k="addr:street" v="Northeast 92nd Avenue"/></node>
<node id="-10" lat="45.53370858" lon="-122.568920819" visible="true"><tag k="addr:housenumber" v="1511"/><tag k="addr:postcode" v="97220"/><tag k="addr:city" v="Portland"/><tag k="addr:street" v="Northeast 92nd Avenue"/></node>
<node id="-11" lat="45.540305741" lon="-122.578531102" visible="true"><tag k="addr:housenumber" v="8211"/><tag k="addr:postcode" v="97220"/><tag k="addr:city" v="Portland"/><tag k="addr:street" v="Northeast Brazee Street"/></node>
<node id="-12" lat="45.540308234" lon="-122.577265908" visible="true"><tag k="addr:housenumber" v="8315"/><tag k="addr:postcode" v="97220"/><tag k="addr:city" v="Portland"/><tag k="addr:street" v="Northeast Brazee Street"/></node>
<node id="-13" lat="45.540309167" lon="-122.577265227" visible="true"><tag k="addr:housenumber" v="8319"/><tag k="addr:postcode" v="97220"/><tag k="addr:city" v="Portland"/><tag k="addr:street" v="Northeast Brazee Street"/></node>
<node id="-14" lat="45.540306604" lon="-122.577266836" visible="true"><tag k="addr:housenumber" v="8323"/><tag k="addr:postcode" v="97220"/><tag k="addr:city" v="Portland"/><tag k="addr:street" v="Northeast Brazee Street"/></node>
<node id="-15" lat="45.540297621" lon="-122.575326491" visible="true"><tag k="addr:housenumber" v="8443"/><tag k="addr:postcode" v="97220"/><tag k="addr:city" v="Portland"/><tag k="addr:street" v="Northeast Brazee Street"/></node>
<node id="-16" lat="45.540293543" lon="-122.575330816" visible="true"><tag k="addr:housenumber" v="8449"/><tag k="addr:postcode" v="97220"/><tag k="addr:city" v="Portland"/><tag k="addr:street" v="Northeast Brazee Street"/></node>
<node id="-17" lat="45.539843067" lon="-122.568743774" visible="true"><tag k="addr:housenumber" v="9130"/><tag k="addr:postcode" v="97220"/><tag k="addr:city" v="Portland"/><tag k="addr:street" v="Northeast Brazee Street"/></node>
<node id="-18" lat="45.539837079" lon="-122.568738353" visible="true"><tag k="addr:housenumber" v="9132"/><tag k="addr:postcode" v="97220"/><tag k="addr:city" v="Portland"/><tag k="addr:street" v="Northeast Brazee Street"/></node>
<node id="-19" lat="45.538158233" lon="-122.5726958" visible="true"><tag k="addr:housenumber" v="8735"/><tag k="addr:postcode" v="97220"/><tag k="addr:city" v="Portland"/><tag k="addr:street" v="Northeast Eugene Street"/></node>
<node id="-20" lat="45.533861182" lon="-122.574809561" visible="true"><tag k="addr:housenumber" v="8531"/><tag k="addr:postcode" v="97220"/><tag k="addr:city" v="Portland"/><tag k="addr:street" v="Northeast Halsey Street"/></node>
<node id="-21" lat="45.533861813" lon="-122.57481044" visible="true"><tag k="addr:housenumber" v="8533"/><tag k="addr:postcode" v="97220"/><tag k="addr:city" v="Portland"/><tag k="addr:street" v="Northeast Halsey Street"/></node>
<node id="-22" lat="45.533861988" lon="-122.574815081" visible="true"><tag k="addr:housenumber" v="8535"/><tag k="addr:postcode" v="97220"/><tag k="addr:city" v="Portland"/><tag k="addr:street" v="Northeast Halsey Street"/></node>
<node id="-23" lat="45.533869731" lon="-122.574818652" visible="true"><tag k="addr:housenumber" v="8537"/><tag k="addr:postcode" v="97220"/><tag k="addr:city" v="Portland"/><tag k="addr:street" v="Northeast Halsey Street"/></node>
<node id="-24" lat="45.533714659" lon="-122.5689169" visible="true"><tag k="addr:housenumber" v="9125"/><tag k="addr:postcode" v="97220"/><tag k="addr:city" v="Portland"/><tag k="addr:street" v="Northeast Halsey Street"/></node>
<node id="-25" lat="45.536501393" lon="-122.575213181" visible="true"><tag k="addr:housenumber" v="8515"/><tag k="addr:postcode" v="97220"/><tag k="addr:city" v="Portland"/><tag k="addr:street" v="Northeast Hancock Street"/></node>
<node id="-26" lat="45.536510566" lon="-122.575215778" visible="true"><tag k="addr:housenumber" v="8519"/><tag k="addr:postcode" v="97220"/><tag k="addr:city" v="Portland"/><tag k="addr:street" v="Northeast Hancock Street"/></node>
<node id="-27" lat="45.536543625" lon="-122.574898381" visible="true"><tag k="addr:housenumber" v="8529"/><tag k="addr:postcode" v="97220"/><tag k="addr:city" v="Portland"/><tag k="addr:street" v="Northeast Hancock Street"/></node>
<node id="-28" lat="45.536549312" lon="-122.574904379" visible="true"><tag k="addr:housenumber" v="8531"/><tag k="addr:postcode" v="97220"/><tag k="addr:city" v="Portland"/><tag k="addr:street" v="Northeast Hancock Street"/></node>
<node id="-29" lat="45.535470141" lon="-122.577993424" visible="true"><tag k="addr:housenumber" v="8240"/><tag k="addr:postcode" v="97220"/><tag k="addr:city" v="Portland"/><tag k="addr:street" v="Northeast Schuyler Street"/></node>
<node id="-30" lat="45.535478167" lon="-122.577996659" visible="true"><tag k="addr:housenumber" v="8242"/><tag k="addr:postcode" v="97220"/><tag k="addr:city" v="Portland"/><tag k="addr:street" v="Northeast Schuyler Street"/></node>
<node id="-31" lat="45.535470628" lon="-122.577800867" visible="true"><tag k="addr:housenumber" v="8250"/><tag k="addr:postcode" v="97220"/><tag k="addr:city" v="Portland"/><tag k="addr:street" v="Northeast Schuyler Street"/></node>
<node id="-32" lat="45.535477409" lon="-122.577796526" visible="true"><tag k="addr:housenumber" v="8252"/><tag k="addr:postcode" v="97220"/><tag k="addr:city" v="Portland"/><tag k="addr:street" v="Northeast Schuyler Street"/></node>
<node id="-33" lat="45.536911769" lon="-122.575825412" visible="true"><tag k="addr:housenumber" v="8422"/><tag k="addr:postcode" v="97220"/><tag k="addr:city" v="Portland"/><tag k="addr:street" v="Northeast Tillamook Street"/></node>
<node id="-34" lat="45.536910992" lon="-122.575834226" visible="true"><tag k="addr:housenumber" v="8424"/><tag k="addr:postcode" v="97220"/><tag k="addr:city" v="Portland"/><tag k="addr:street" v="Northeast Tillamook Street"/></node>
</osm>