<?xml version="1.0"?>
<osm version="0.6" upload="false" generator="uvmogr2osm">
<node id="-1" lat="45.523185514" lon="-122.612994615" visible="true"><tag k="addr:housenumber" v="4831"/><tag k="addr:postcode" v="97215"/><tag k="addr:city" v="Portland"/><tag k="addr:street" v="East Burnside Street"/></node>
<node id="-2" lat="45.523186194" lon="-122.61299091" visible="true"><tag k="addr:housenumber" v="4833"/><tag k="addr:postcode" v="97215"/><tag k="addr:city" v="Portland"/><tag k="addr:street" v="East Burnside Street"/></node>
<node id="-3" lat="45.523185585" lon="-122.612992208" visible="true"><tag k="addr:housenumber" v="4835"/><tag k="addr:postcode" v="97215"/><tag k="addr:city" v="Portland"/><tag k="addr:street" v="East Burnside Street"/></node>
<node id="-4" lat="45.523186236" lon="-122.612995897" visible="true"><tag k="addr:housenumber" v="4837"/><tag k="addr:postcode" v="97215"/><tag k="addr:city" v="Portland"/><tag k="addr:street" v="East Burnside Street"/></node>
<node id="-5" lat="45.523184049" lon="-122.612995039" visible="true"><tag k="addr:housenumber" v="4839"/><tag k="addr:postcode" v="97215"/><tag k="addr:city" v="Portland"/><tag k="addr:street" v="East Burnside Street"/></node>
<node id="-6" lat="45.523181221" lon="-122.612991703" visible="true"><tag k="addr:housenumber" v="4841"/><tag k="addr:postcode" v="97215"/><tag k="addr:city" v="Portland"/><tag k="addr:street" v="East Burnside Street"/></node>
<node id="-7" lat="45.523116746" lon="-122.612599202" visible="true"><tag k="addr:housenumber" v="4905"/><tag k="addr:postcode" v="97215"/><tag k="addr:city" v="Portland"/><tag k="addr:street" v="East Burnside Street"/></node>
<node id="-8" lat="45.523117763" lon="-122.612606093" visible="true"><tag k="addr:housenumber" v="4911"/><tag k="addr:postcode" v="97215"/><tag k="addr:city" v="Portland"/><tag k="addr:street" v="East Burnside Street"/></node>
<node id="-9" lat="45.523116699" lon="-122.612403585" visible="true"><tag k="addr:housenumber" v="4915"/><tag k="addr:postcode" v="97215"/><tag k="addr:city" v="Portland"/><tag k="addr:street" v="East Burnside Street"/></node>
<node id="-10" lat="45.523123637" lon="-122.612404492" visible="true"><tag k="addr:housenumber" v="4916"/><tag k="addr:postcode" v="97215"/><tag k="addr:city" v="Portland"/><tag k="addr:street" v="East Burnside Street"/></node>
<node id="-11" lat="45.5231175" lon="-122.612405511" visible="true"><tag k="addr:housenumber" v="4921"/><tag k="addr:postcode" v="97215"/><tag k="addr:city" v="Portland"/><tag k="addr:street" v="East Burnside Street"/></node>
<node id="-12" lat="45.523117685" lon="-122.612201001" visible="true"><tag k="addr:housenumber" v="4925"/><tag k="addr:postcode" v="97215"/><tag k="addr:city" v="Portland"/><tag k="addr:street" v="East Burnside Street"/></node>
<node id="-13" lat="45.523120475" lon="-122.612205507" visible="true"><tag k="addr:housenumber" v="4926"/><tag k="addr:postcode" v="97215"/><tag k="addr:city" v="Portland"/><tag k="addr:street" v="East Burnside Street"/></node>
<node id="-14" lat="45.523116409" lon="-122.61219922" visible="true"><tag k="addr:housenumber" v="4935"/><tag k="addr:postcode" v="97215"/><tag k="addr:city" v="Portland"/><tag k="addr:street" v="East Burnside Street"/></node>
<node id="-15" lat="45.522737051" lon="-122.611625678" visible="true"><tag k="addr:housenumber" v="5018"/><tag k="addr:postcode" v="97215"/><tag k="addr:city" v="Portland"/><tag k="addr:street" v="East Burnside Street"/></node>
<node id="-16" lat="45.522739596" lon="-122.611624031" visible="true"><tag k="addr:housenumber" v="5024"/><tag k="addr:postcode" v="97215"/><tag k="addr:city" v="Portland"/><tag k="addr:street" v="East Burnside Street"/></node>
<node id="-17" lat="45.522708867" lon="-122.611081336" visible="true"><tag k="addr:housenumber" v="5112"/><tag k="addr:postcode" v="97215"/><tag k="addr:city" v="Portland"/><tag k="addr:street" v="East Burnside Street"/></node>
<node id="-18" lat="45.522708466" lon="-122.611078451" visible="true"><tag k="addr:housenumber" v="5114"/><tag k="addr:postcode" v="97215"/><tag k="addr:city" v="Portland"/><tag k="addr:street" v="East Burnside Street"/></node>
<node id="-19" lat="45.522709313" lon="-122.611076095" visible="true"><tag k="addr:housenumber" v="5116"/><tag k="addr:postcode" v="97215"/><tag k="addr:city" v="Portland"/><tag k="addr:street" v="East Burnside Street"/></node>
<node id="-20" lat="45.522707472" lon="-122.611072458" visible="true"><tag k="addr:housenumber" v="5118"/><tag k="addr:postcode" v="97215"/><tag k="addr:city" v="Portland"/><tag k="addr:street" v="East Burnside Street"/></node>
<node id="-21" lat="45.522715323" lon="-122.611078364" visible="true"><tag k="addr:housenumber" v="5120"/><tag k="addr:postcode" v="97215"/><tag k="addr:city" v="Portland"/><tag k="addr:street" v="East Burnside Street"/></node>
<node id="-22" lat="45.522715247" lon="-122.611080307" visible="true"><tag k="addr:housenumber" v="5122"/><tag k="addr:postcode" v="97215"/><tag k="addr:city" v="Portland"/><tag k="addr:street" v="East Burnside Street"/></node>
<node id="-23" lat="45.522714907" lon="-122.611073445" visible="true"><tag k="addr:housenumber" v="5124"/><tag k="addr:postcode" v="97215"/><tag k="addr:city" v="Portland"/><tag k="addr:street" v="East Burnside Street"/></node>
<node id="-24" lat="45.522712058" lon="-122.611079922" visible="true"><tag k="addr:housenumber" v="5126"/><tag k="addr:postcode" v="97215"/><tag k="addr:city" v="Portland"/><tag k="addr:street" v="East Burnside Street"/></node>
<node id="-25" lat="45.522707901" lon="-122.611073706" visible="true"><tag k="addr:housenumber" v="5128"/><tag k="addr:postcode" v="97215"/><tag k="addr:city" v="Portland"/><tag k="addr:street" v="East Burnside Street"/></node>
<node id="-26" lat="45.522707171" lon="-122.611076846" visible="true"><tag k="addr:housenumber" v="5130"/><tag k="addr:postcode" v="97215"/><tag k="addr:city" v="Portland"/><tag k="addr:street" v="East Burnside Street"/></node>
<node id="-27" lat="45.524190078" lon="-122.612306702" visible="true"><tag k="addr:housenumber" v="205"/><tag k="addr:postcode" v="97213"/><tag k="addr:city" v="Portland"/><tag k="addr:street" v="Northeast 50th Avenue"/></node>
<node id="-28" lat="45.524869967" lon="-122.61042698" visible="true"><tag k="addr:housenumber" v="227"/><tag k="addr:postcode" v="97213"/><tag k="addr:city" v="Portland"/><tag k="addr:street" v="Northeast 52nd Avenue"/></node>
<node id="-29" lat="45.524860966" lon="-122.610426259" visible="true"><tag k="addr:housenumber" v="231"/><tag k="addr:postcode" v="97213"/><tag k="addr:city" v="Portland"/><tag k="addr:street" v="Northeast 52nd Avenue"/></node>
<node id="-30" lat="45.52530787" lon="-122.610421236" visible="true"><tag k="addr:housenumber" v="303"/><tag k="addr:postcode" v="97213"/><tag k="addr:city" v="Portland"/><tag k="addr:street" v="Northeast 52nd Avenue"/></node>
<node id="-31" lat="45.525307443" lon="-122.610424596" visible="true"><tag k="addr:housenumber" v="309"/><tag k="addr:postcode" v="97213"/><tag k="addr:city" v="Portland"/><tag k="addr:street" v="Northeast 52nd Avenue"/></node>
<node id="-32" lat="45.525304487" lon="-122.610422963" visible="true"><tag k="addr:housenumber" v="315"/><tag k="addr:postcode" v="97213"/><tag k="addr:city" v="Portland"/><tag k="addr:street" v="Northeast 52nd Avenue"/></node>
<node id="-33" lat="45.525580095" lon="-122.610031791" visible="true"><tag k="addr:housenumber" v="328"/><tag k="addr:postcode" v="97213"/><tag k="addr:city" v="Portland"/><tag k="addr:street" v="Northeast 52nd Avenue"/></node>
<node id="-34" lat="45.525580941" lon="-122.610032724" visible="true"><tag k="addr:housenumber" v="330"/><tag k="addr:postcode" v="97213"/><tag k="addr:city" v="Portland"/><tag k="addr:street" v="Northeast 52nd Avenue"/></node>
<node id="-35" lat="45.525574419" lon="-122.61002604" visible="true"><tag k="addr:housenumber" v="332"/><tag k="addr:postcode" v="97213"/><tag k="addr:city" v="Portland"/><tag k="addr:street" v="Northeast 52nd Avenue"/></node>
<node id="-36" lat="45.526013743" lon="-122.61002851" visible="true"><tag k="addr:housenumber" v="406"/><tag k="addr:postcode" v="97213"/><tag k="addr:city" v="Portland"/><tag k="addr:street" v="Northeast 52nd Avenue"/></node>
<node id="-37" lat="45.526020553" lon="-122.610028393" visible="true"><tag k="addr:housenumber" v="410"/><tag k="addr:postcode" v="97213"/><tag k="addr:city" v="Portland"/><tag k="addr:street" v="Northeast 52nd Avenue"/></node>
<node id="-38" lat="45.526018803" lon="-122.610030736" visible="true"><tag k="addr:housenumber" v="414"/><tag k="addr:postcode" v="97213"/><tag k="addr:city" v="Portland"/><tag k="addr:street" v="Northeast 52nd Avenue"/></node>
<node id="-39" lat="45.526021276" lon="-122.610024327" visible="true"><tag k="addr:housenumber" v="418"/><tag k="addr:postcode" v="97213"/><tag k="addr:city" v="Portland"/><tag k="addr:street" v="Northeast 52nd Avenue"/></node>
<node id="-40" lat="45.524196737" lon="-122.612311289" visible="true"><tag k="addr:housenumber" v="4855"/><tag k="addr:postcode" v="97213"/><tag k="addr:city" v="Portland"/><tag k="addr:street" v="Northeast Couch Street"/></node>
<node id="-41" lat="45.52419677" lon="-122.6123103" visible="true"><tag k="addr:housenumber" v="4911"/><tag k="addr:postcode" v="97213"/><tag k="addr:city" v="Portland"/><tag k="addr:street" v="Northeast Couch Street"/></node>
<node id="-42" lat="45.523474115" lon="-122.611067194" visible="true"><tag k="addr:housenumber" v="5110"/><tag k="addr:postcode" v="97213"/><tag k="addr:city" v="Portland"/><tag k="addr:street" v="Northeast Couch Street"/></node>
<node id="-43" lat="45.523477612" lon="-122.611062482" visible="true"><tag k="addr:housenumber" v="5112"/><tag k="addr:postcode" v="97213"/><tag k="addr:city" v="Portland"/><tag k="addr:street" v="Northeast Couch Street"/></node>
<node id="-44" lat="45.523477244" lon="-122.611061831" visible="true"><tag k="addr:housenumber" v="5114"/><tag k="addr:postcode" v="97213"/><tag k="addr:city" v="Portland"/><tag k="addr:street" v="Northeast Couch Street"/></node>
<node id="-45" lat="45.523476131" lon="-122.611063534" visible="true"><tag k="addr:housenumber" v="5116"/><tag k="addr:postcode" v="97213"/><tag k="addr:city" v="Portland"/><tag k="addr:street" v="Northeast Couch Street"/></node>
<node id="-46" lat="45.523478173" lon="-122.611063563" visible="true"><tag k="addr:housenumber" v="5118"/><tag k="addr:postcode" v="97213"/><tag k="addr:city" v="Portland"/><tag k="addr:street" v="Northeast Couch Street"/></node>
<node id="-47" lat="45.524592774" lon="-122.610618647" visible="true"><tag k="addr:housenumber" v="5133"/><tag k="addr:postcode" v="97213"/><tag k="addr:city" v="Portland"/><tag k="addr:street" v="Northeast Davis Street"/></node>
<node id="-48" lat="45.524593876" lon="-122.61061928" visible="true"><tag k="addr:housenumber" v="5135"/><tag k="addr:postcode" v="97213"/><tag k="addr:city" v="Portland"/><tag k="addr:street" v="Northeast Davis Street"/></node>
<node id="-49" lat="45.524865678" lon="-122.610813575" visible="true"><tag k="addr:housenumber" v="5124"/><tag k="addr:postcode" v="97213"/><tag k="addr:city" v="Portland"/><tag k="addr:street" v="Northeast Everett Street"/></node>
<node id="-50" lat="45.524865443" lon="-122.610810026" visible="true"><tag k="addr:housenumber" v="5126"/><tag k="addr:postcode" v="97213"/><tag k="addr:city" v="Portland"/><tag k="addr:street" v="Northeast Everett Street"/></node>
<node id="-51" lat="45.525581098" lon="-122.6125187" visible="true"><tag k="addr:housenumber" v="4906"/><tag k="addr:postcode" v="97213"/><tag k="addr:city" v="Portland"/><tag k="addr:street" v="Northeast Flanders Street"/></node>
<node id="-52" lat="45.525577533" lon="-122.612523704" visible="true"><tag k="addr:housenumber" v="4910"/><tag k="addr:postcode" v="97213"/><tag k="addr:city" v="Portland"/><tag k="addr:street" v="Northeast Flanders Street"/></node>
<node id="-53" lat="45.526173364" lon="-122.617071863" visible="true"><tag k="addr:housenumber" v="4400"/><tag k="addr:postcode" v="97213"/><tag k="addr:city" v="Portland"/><tag k="addr:street" v="Northeast Glisan Street"/></node>
<node id="-54" lat="45.526177639" lon="-122.617069794" visible="true"><tag k="addr:housenumber" v="4410"/><tag k="addr:postcode" v="97213"/><tag k="addr:city" v="Portland"/><tag k="addr:street" v="Northeast Glisan Street"/></node>
<node id="-55" lat="45.526244406" lon="-122.616498893" visible="true"><tag k="addr:housenumber" v="4430"/><tag k="addr:postcode" v="97213"/><tag k="addr:city" v="Portland"/><tag k="addr:street" v="Northeast Glisan Street"/></node>
<node id="-56" lat="45.52624673" lon="-122.616497981" visible="true"><tag k="addr:housenumber" v="4438"/><tag k="addr:postcode" v="97213"/><tag k="addr:city" v="Portland"/><tag k="addr:street" v="Northeast Glisan Street"/></node>
<node id="-57" lat="45.526181348" lon="-122.615541141" visible="true"><tag k="addr:housenumber" v="4500"/><tag k="addr:postcode" v="97213"/><tag k="addr:city" v="Portland"/><tag k="addr:street" v="Northeast Glisan Street"/></node>
<node id="-58" lat="45.526185808" lon="-122.615539456" visible="true"><tag k="addr:housenumber" v="4540"/><tag k="addr:postcode" v="97213"/><tag k="addr:city" v="Portland"/><tag k="addr:street" v="Northeast Glisan Street"/></node>
<node id="-59" lat="45.526178573" lon="-122.615538782" visible="true"><tag k="addr:housenumber" v="4600"/><tag k="addr:postcode" v="97213"/><tag k="addr:city" v="Portland"/><tag k="addr:street" v="Northeast Glisan Street"/></node>
<node id="-60" lat="45.526186861" lon="-122.615546054" visible="true"><tag k="addr:housenumber" v="4602"/><tag k="addr:postcode" v="97213"/><tag k="addr:city" v="Portland"/><tag k="addr:street" v="Northeast Glisan Street"/></node>
<node id="-61" lat="45.526182757" lon="-122.615543464" visible="true"><tag k="addr:housenumber" v="4606"/><tag k="addr:postcode" v="97213"/><tag k="addr:city" v="Portland"/><tag k="addr:street" v="Northeast Glisan Street"/></node>
<node id="-62" lat="45.526179735" lon="-122.615539467" visible="true"><tag k="addr:housenumber" v="4610"/><tag k="addr:postcode" v="97213"/><tag k="addr:city" v="Portland"/><tag k="addr:street" v="Northeast Glisan Street"/></node>
<node id="-63" lat="45.526185024" lon="-122.615543209" visible="true"><tag k="addr:housenumber" v="4612"/><tag k="addr:postcode" v="97213"/><tag k="addr:city" v="Portland"/><tag k="addr:street" v="Northeast Glisan Street"/></node>
<node id="-64" lat="45.526178535" lon="-122.615545506" visible="true"><tag k="addr:housenumber" v="4620"/><tag k="addr:postcode" v="97213"/><tag k="addr:city" v="Portland"/><tag k="addr:street" v="Northeast Glisan Street"/></node>
<node id="-65" lat="45.526179901" lon="-122.615548647" visible="true"><tag k="addr:housenumber" v="4622"/><tag k="addr:postcode" v="97213"/><tag k="addr:city" v="Portland"/><tag k="addr:street" v="Northeast Glisan Street"/></node>
<node id="-66" lat="45.526270608" lon="-122.613666884" visible="true"><tag k="addr:housenumber" v="4804"/><tag k="addr:postcode" v="97213"/><tag k="addr:city" v="Portland"/><tag k="addr:street" v="Northeast Glisan Street"/></node>
<node id="-67" lat="45.526264652" lon="-122.613668153" visible="true"><tag k="addr:housenumber" v="4806"/><tag k="addr:postcode" v="97213"/><tag k="addr:city" v="Portland"/><tag k="addr:street" v="Northeast Glisan Street"/></node>
<node id="-68" lat="45.526344153" lon="-122.610807105" visible="true"><tag k="addr:housenumber" v="5108"/><tag k="addr:postcode" v="97213"/><tag k="addr:city" v="Portland"/><tag k="addr:street" v="Northeast Glisan Street"/></node>
<node id="-69" lat="45.526348263" lon="-122.610805182" visible="true"><tag k="addr:housenumber" v="5110"/><tag k="addr:postcode" v="97213"/><tag k="addr:city" v="Portland"/><tag k="addr:street" v="Northeast Glisan Street"/></node>
<node id="-70" lat="45.526341555" lon="-122.610809512" visible="true"><tag k="addr:housenumber" v="5112"/><tag k="addr:postcode" v="97213"/><tag k="addr:city" v="Portland"/><tag k="addr:street" v="Northeast Glisan Street"/></node>
<node id="-71" lat="45.526330098" lon="-122.610594746" visible="true"><tag k="addr:housenumber" v="5120"/><tag k="addr:postcode" v="97213"/><tag k="addr:city" v="Portland"/><tag k="addr:street" v="Northeast Glisan Street"/></node>
<node id="-72" lat="45.526338235" lon="-122.61058904" visible="true"><tag k="addr:housenumber" v="5126"/><tag k="addr:postcode" v="97213"/><tag k="addr:city" v="Portland"/><tag k="addr:street" v="Northeast Glisan Street"/></node>
<node id="-73" lat="45.521147809" lon="-122.609978886" visible="true"><tag k="addr:housenumber" v="228"/><tag k="addr:postcode" v="97215"/><tag k="addr:city" v="Portland"/><tag k="addr:street" v="Southeast 52nd Avenue"/></node>
<node id="-74" lat="45.52114541" lon="-122.609981819" visible="true"><tag k="addr:housenumber" v="230"/><tag k="addr:postcode" v="97215"/><tag k="addr:city" v="Portland"/><tag k="addr:street" v="Southeast 52nd Avenue"/></node>
<node id="-75" lat="45.520980112" lon="-122.609858316" visible="true"><tag k="addr:housenumber" v="234"/><tag k="addr:postcode" v="97215"/><tag k="addr:city" v="Portland"/><tag k="addr:street" v="Southeast 52nd Avenue"/></node>
<node id="-76" lat="45.520980614" lon="-122.609867098" visible="true"><tag k="addr:housenumber" v="236"/><tag k="addr:postcode" v="97215"/><tag k="addr:city" v="Portland"/><tag k="addr:street" v="Southeast 52nd Avenue"/></node>
<node id="-77" lat="45.522384119" lon="-122.610568555" visible="true"><tag k="addr:housenumber" v="29"/><tag k="addr:postcode" v="97215"/><tag k="addr:city" v="Portland"/><tag k="addr:street" v="Southeast 52nd Avenue"/></node>
<node id="-78" lat="45.522388526" lon="-122.610568301" visible="true"><tag k="addr:housenumber" v="31"/><tag k="addr:postcode" v="97215"/><tag k="addr:city" v="Portland"/><tag k="addr:street" v="Southeast 52nd Avenue"/></node>
<node id="-79" lat="45.52053302" lon="-122.610004618" visible="true"><tag k="addr:housenumber" v="312"/><tag k="addr:postcode" v="97215"/><tag k="addr:city" v="Portland"/><tag k="addr:street" v="Southeast 52nd Avenue"/></node>
<node id="-80" lat="45.520534724" lon="-122.60999888" visible="true"><tag k="addr:housenumber" v="314"/><tag k="addr:postcode" v="97215"/><tag k="addr:city" v="Portland"/><tag k="addr:street" v="Southeast 52nd Avenue"/></node>
<node id="-81" lat="45.522384364" lon="-122.61056685" visible="true"><tag k="addr:housenumber" v="33"/><tag k="addr:postcode" v="97215"/><tag k="addr:city" v="Portland"/><tag k="addr:street" v="Southeast 52nd Avenue"/></node>
<node id="-82" lat="45.520069534" lon="-122.610490368" visible="true"><tag k="addr:housenumber" v="403"/><tag k="addr:postcode" v="97215"/><tag k="addr:city" v="Portland"/><tag k="addr:street" v="Southeast 52nd Avenue"/></node>
<node id="-83" lat="45.520076821" lon="-122.610493688" visible="true"><tag k="addr:housenumber" v="405"/><tag k="addr:postcode" v="97215"/><tag k="addr:city" v="Portland"/><tag k="addr:street" v="Southeast 52nd Avenue"/></node>
<node id="-84" lat="45.519790727" lon="-122.609970931" visible="true"><tag k="addr:housenumber" v="420"/><tag k="addr:postcode" v="97215"/><tag k="addr:city" v="Portland"/><tag k="addr:street" v="Southeast 52nd Avenue"/></node>
<node id="-85" lat="45.519788811" lon="-122.609965401" visible="true"><tag k="addr:housenumber" v="5209"/><tag k="addr:postcode" v="97215"/><tag k="addr:city" v="Portland"/><tag k="addr:street" v="Southeast Stark Street"/></node>
</osm>