<?xml version="1.0"?>
<osm version="0.6" upload="false" generator="uvmogr2osm">
<node id="-1" lat="45.548511344" lon="-122.586538678" visible="true"><tag k="addr:housenumber" v="3514"/><tag k="addr:postcode" v="97212"/><tag k="addr:city" v="Portland"/><tag k="addr:street" v="Northeast 14th Avenue"/></node>
<node id="-2" lat="45.548508673" lon="-122.586540559" visible="true"><tag k="addr:housenumber" v="3514"/><tag k="addr:postcode" v="97213"/><tag k="addr:city" v="Portland"/><tag k="addr:street" v="Northeast 74th Avenue"/></node>
<node id="-3" lat="45.548508785" lon="-122.58654383" visible="true"><tag k="addr:housenumber" v="3516"/><tag k="addr:postcode" v="97213"/><tag k="addr:city" v="Portland"/><tag k="addr:street" v="Northeast 74th Avenue"/></node>
<node id="-4" lat="45.551208584" lon="-122.586487139" visible="true"><tag k="addr:housenumber" v="3904"/><tag k="addr:postcode" v="97213"/><tag k="addr:city" v="Portland"/><tag k="addr:street" v="Northeast 74th Avenue"/></node>
<node id="-5" lat="45.551206326" lon="-122.586491893" visible="true"><tag k="addr:housenumber" v="3908"/><tag k="addr:postcode" v="97213"/><tag k="addr:city" v="Portland"/><tag k="addr:street" v="Northeast 74th Avenue"/></node>
<node id="-6" lat="45.554303345" lon="-122.584994656" visible="true"><tag k="addr:housenumber" v="4325"/><tag k="addr:postcode" v="97218"/><tag k="addr:city" v="Portland"/><tag k="addr:street" v="Northeast 76th Avenue"/></node>
<node id="-7" lat="45.554308091" lon="-122.584993029" visible="true"><tag k="addr:housenumber" v="4327"/><tag k="addr:postcode" v="97218"/><tag k="addr:city" v="Portland"/><tag k="addr:street" v="Northeast 76th Avenue"/></node>
<node id="-8" lat="45.554508981" lon="-122.584388276" visible="true"><tag k="addr:housenumber" v="4338"/><tag k="addr:postcode" v="97218"/><tag k="addr:city" v="Portland"/><tag k="addr:street" v="Northeast 76th Avenue"/></node>
<node id="-9" lat="45.55450838" lon="-122.584386471" visible="true"><tag k="addr:housenumber" v="4344"/><tag k="addr:postcode" v="97218"/><tag k="addr:city" v="Portland"/><tag k="addr:street" v="Northeast 76th Avenue"/></node>
<node id="-10" lat="45.550744777" lon="-122.584081625" visible="true"><tag k="addr:housenumber" v="3821"/><tag k="addr:postcode" v="97213"/><tag k="addr:city" v="Portland"/><tag k="addr:street" v="Northeast 77th Avenue"/></node>
<node id="-11" lat="45.550736954" lon="-122.58407833" visible="true"><tag k="addr:housenumber" v="3823"/><tag k="addr:postcode" v="97213"/><tag k="addr:city" v="Portland"/><tag k="addr:street" v="Northeast 77th Avenue"/></node>
<node id="-12" lat="45.550737665" lon="-122.584075866" visible="true"><tag k="addr:housenumber" v="3825"/><tag k="addr:postcode" v="97213"/><tag k="addr:city" v="Portland"/><tag k="addr:street" v="Northeast 77th Avenue"/></node>
<node id="-13" lat="45.554772975" lon="-122.582976263" visible="true"><tag k="addr:housenumber" v="4411"/><tag k="addr:postcode" v="97218"/><tag k="addr:city" v="Portland"/><tag k="addr:street" v="Northeast 78th Avenue"/></node>
<node id="-14" lat="45.554770313" lon="-122.582984642" visible="true"><tag k="addr:housenumber" v="4415"/><tag k="addr:postcode" v="97218"/><tag k="addr:city" v="Portland"/><tag k="addr:street" v="Northeast 78th Avenue"/></node>
<node id="-15" lat="45.548761934" lon="-122.582016862" visible="true"><tag k="addr:housenumber" v="3535"/><tag k="addr:postcode" v="97213"/><tag k="addr:city" v="Portland"/><tag k="addr:street" v="Northeast 79th Avenue"/></node>
<node id="-16" lat="45.548761161" lon="-122.582013514" visible="true"><tag k="addr:housenumber" v="3537"/><tag k="addr:postcode" v="97213"/><tag k="addr:city" v="Portland"/><tag k="addr:street" v="Northeast 79th Avenue"/></node>
<node id="-17" lat="45.548328882" lon="-122.581076353" visible="true"><tag k="addr:housenumber" v="3505"/><tag k="addr:postcode" v="97213"/><tag k="addr:city" v="Portland"/><tag k="addr:street" v="Northeast 80th Avenue"/></node>
<node id="-18" lat="45.552074304" lon="-122.581020867" visible="true"><tag k="addr:housenumber" v="4023"/><tag k="addr:postcode" v="97213"/><tag k="addr:city" v="Portland"/><tag k="addr:street" v="Northeast 80th Avenue"/></node>
<node id="-19" lat="45.552072176" lon="-122.581016542" visible="true"><tag k="addr:housenumber" v="4027"/><tag k="addr:postcode" v="97213"/><tag k="addr:city" v="Portland"/><tag k="addr:street" v="Northeast 80th Avenue"/></node>
<node id="-20" lat="45.55207326" lon="-122.581017327" visible="true"><tag k="addr:housenumber" v="4033"/><tag k="addr:postcode" v="97213"/><tag k="addr:city" v="Portland"/><tag k="addr:street" v="Northeast 80th Avenue"/></node>
<node id="-21" lat="45.55115941" lon="-122.579390181" visible="true"><tag k="addr:housenumber" v="3906"/><tag k="addr:postcode" v="97213"/><tag k="addr:city" v="Portland"/><tag k="addr:street" v="Northeast 81st Avenue"/></node>
<node id="-22" lat="45.55115746" lon="-122.579389361" visible="true"><tag k="addr:housenumber" v="3908"/><tag k="addr:postcode" v="97213"/><tag k="addr:city" v="Portland"/><tag k="addr:street" v="Northeast 81st Avenue"/></node>
<node id="-23" lat="45.55321167" lon="-122.57933567" visible="true"><tag k="addr:housenumber" v="4206"/><tag k="addr:postcode" v="97218"/><tag k="addr:city" v="Portland"/><tag k="addr:street" v="Northeast 81st Avenue"/></node>
<node id="-24" lat="45.553209003" lon="-122.579329948" visible="true"><tag k="addr:housenumber" v="4210"/><tag k="addr:postcode" v="97218"/><tag k="addr:city" v="Portland"/><tag k="addr:street" v="Northeast 81st Avenue"/></node>
<node id="-25" lat="45.553207535" lon="-122.579328426" visible="true"><tag k="addr:housenumber" v="4214"/><tag k="addr:postcode" v="97218"/><tag k="addr:city" v="Portland"/><tag k="addr:street" v="Northeast 81st Avenue"/></node>
<node id="-26" lat="45.549017955" lon="-122.579056742" visible="true"><tag k="addr:housenumber" v="3545"/><tag k="addr:postcode" v="97220"/><tag k="addr:city" v="Portland"/><tag k="addr:street" v="Northeast 82nd Avenue"/></node>
<node id="-27" lat="45.549022873" lon="-122.579056149" visible="true"><tag k="addr:housenumber" v="3607"/><tag k="addr:postcode" v="97220"/><tag k="addr:city" v="Portland"/><tag k="addr:street" v="Northeast 82nd Avenue"/></node>
<node id="-28" lat="45.549019597" lon="-122.579053779" visible="true"><tag k="addr:housenumber" v="3611"/><tag k="addr:postcode" v="97220"/><tag k="addr:city" v="Portland"/><tag k="addr:street" v="Northeast 82nd Avenue"/></node>
<node id="-29" lat="45.549019323" lon="-122.579055819" visible="true"><tag k="addr:housenumber" v="3615"/><tag k="addr:postcode" v="97220"/><tag k="addr:city" v="Portland"/><tag k="addr:street" v="Northeast 82nd Avenue"/></node>
<node id="-30" lat="45.549147213" lon="-122.579043108" visible="true"><tag k="addr:housenumber" v="3619"/><tag k="addr:postcode" v="97220"/><tag k="addr:city" v="Portland"/><tag k="addr:street" v="Northeast 82nd Avenue"/></node>
<node id="-31" lat="45.549143378" lon="-122.579044232" visible="true"><tag k="addr:housenumber" v="3621"/><tag k="addr:postcode" v="97220"/><tag k="addr:city" v="Portland"/><tag k="addr:street" v="Northeast 82nd Avenue"/></node>
<node id="-32" lat="45.55043572" lon="-122.579027509" visible="true"><tag k="addr:housenumber" v="3807"/><tag k="addr:postcode" v="97220"/><tag k="addr:city" v="Portland"/><tag k="addr:street" v="Northeast 82nd Avenue"/></node>
<node id="-33" lat="45.550437236" lon="-122.57902432" visible="true"><tag k="addr:housenumber" v="3809"/><tag k="addr:postcode" v="97220"/><tag k="addr:city" v="Portland"/><tag k="addr:street" v="Northeast 82nd Avenue"/></node>
<node id="-34" lat="45.551431123" lon="-122.579008526" visible="true"><tag k="addr:housenumber" v="3925"/><tag k="addr:postcode" v="97220"/><tag k="addr:city" v="Portland"/><tag k="addr:street" v="Northeast 82nd Avenue"/></node>
<node id="-35" lat="45.551434965" lon="-122.579010024" visible="true"><tag k="addr:housenumber" v="3927"/><tag k="addr:postcode" v="97220"/><tag k="addr:city" v="Portland"/><tag k="addr:street" v="Northeast 82nd Avenue"/></node>
<node id="-36" lat="45.551565958" lon="-122.579005609" visible="true"><tag k="addr:housenumber" v="3931"/><tag k="addr:postcode" v="97220"/><tag k="addr:city" v="Portland"/><tag k="addr:street" v="Northeast 82nd Avenue"/></node>
<node id="-37" lat="45.551574302" lon="-122.579000643" visible="true"><tag k="addr:housenumber" v="3933"/><tag k="addr:postcode" v="97220"/><tag k="addr:city" v="Portland"/><tag k="addr:street" v="Northeast 82nd Avenue"/></node>
<node id="-38" lat="45.551710038" lon="-122.579002645" visible="true"><tag k="addr:housenumber" v="4003"/><tag k="addr:postcode" v="97220"/><tag k="addr:city" v="Portland"/><tag k="addr:street" v="Northeast 82nd Avenue"/></node>
<node id="-39" lat="45.551709511" lon="-122.579001916" visible="true"><tag k="addr:housenumber" v="4005"/><tag k="addr:postcode" v="97220"/><tag k="addr:city" v="Portland"/><tag k="addr:street" v="Northeast 82nd Avenue"/></node>
<node id="-40" lat="45.55170546" lon="-122.579004439" visible="true"><tag k="addr:housenumber" v="4007"/><tag k="addr:postcode" v="97220"/><tag k="addr:city" v="Portland"/><tag k="addr:street" v="Northeast 82nd Avenue"/></node>
<node id="-41" lat="45.551844633" lon="-122.579000306" visible="true"><tag k="addr:housenumber" v="4009"/><tag k="addr:postcode" v="97220"/><tag k="addr:city" v="Portland"/><tag k="addr:street" v="Northeast 82nd Avenue"/></node>
<node id="-42" lat="45.551840412" lon="-122.579001063" visible="true"><tag k="addr:housenumber" v="4011"/><tag k="addr:postcode" v="97220"/><tag k="addr:city" v="Portland"/><tag k="addr:street" v="Northeast 82nd Avenue"/></node>
<node id="-43" lat="45.551840416" lon="-122.57900248" visible="true"><tag k="addr:housenumber" v="4013"/><tag k="addr:postcode" v="97220"/><tag k="addr:city" v="Portland"/><tag k="addr:street" v="Northeast 82nd Avenue"/></node>
<node id="-44" lat="45.552964476" lon="-122.578984073" visible="true"><tag k="addr:housenumber" v="4125"/><tag k="addr:postcode" v="97220"/><tag k="addr:city" v="Portland"/><tag k="addr:street" v="Northeast 82nd Avenue"/></node>
<node id="-45" lat="45.552966736" lon="-122.57897762" visible="true"><tag k="addr:housenumber" v="4127"/><tag k="addr:postcode" v="97220"/><tag k="addr:city" v="Portland"/><tag k="addr:street" v="Northeast 82nd Avenue"/></node>
<node id="-46" lat="45.552968888" lon="-122.578976282" visible="true"><tag k="addr:housenumber" v="4129"/><tag k="addr:postcode" v="97220"/><tag k="addr:city" v="Portland"/><tag k="addr:street" v="Northeast 82nd Avenue"/></node>
<node id="-47" lat="45.55296573" lon="-122.578983525" visible="true"><tag k="addr:housenumber" v="4131"/><tag k="addr:postcode" v="97220"/><tag k="addr:city" v="Portland"/><tag k="addr:street" v="Northeast 82nd Avenue"/></node>
<node id="-48" lat="45.552964701" lon="-122.578979671" visible="true"><tag k="addr:housenumber" v="4133"/><tag k="addr:postcode" v="97220"/><tag k="addr:city" v="Portland"/><tag k="addr:street" v="Northeast 82nd Avenue"/></node>
<node id="-49" lat="45.55297017" lon="-122.578974904" visible="true"><tag k="addr:housenumber" v="4135"/><tag k="addr:postcode" v="97220"/><tag k="addr:city" v="Portland"/><tag k="addr:street" v="Northeast 82nd Avenue"/></node>
<node id="-50" lat="45.552966059" lon="-122.57897592" visible="true"><tag k="addr:housenumber" v="4137"/><tag k="addr:postcode" v="97220"/><tag k="addr:city" v="Portland"/><tag k="addr:street" v="Northeast 82nd Avenue"/></node>
<node id="-51" lat="45.552965946" lon="-122.578978142" visible="true"><tag k="addr:housenumber" v="4139"/><tag k="addr:postcode" v="97220"/><tag k="addr:city" v="Portland"/><tag k="addr:street" v="Northeast 82nd Avenue"/></node>
<node id="-52" lat="45.552964626" lon="-122.578983844" visible="true"><tag k="addr:housenumber" v="4141"/><tag k="addr:postcode" v="97220"/><tag k="addr:city" v="Portland"/><tag k="addr:street" v="Northeast 82nd Avenue"/></node>
<node id="-53" lat="45.552966347" lon="-122.578983472" visible="true"><tag k="addr:housenumber" v="4143"/><tag k="addr:postcode" v="97220"/><tag k="addr:city" v="Portland"/><tag k="addr:street" v="Northeast 82nd Avenue"/></node>
<node id="-54" lat="45.552968119" lon="-122.57898388" visible="true"><tag k="addr:housenumber" v="4145"/><tag k="addr:postcode" v="97220"/><tag k="addr:city" v="Portland"/><tag k="addr:street" v="Northeast 82nd Avenue"/></node>
<node id="-55" lat="45.552968406" lon="-122.578982633" visible="true"><tag k="addr:housenumber" v="4147"/><tag k="addr:postcode" v="97220"/><tag k="addr:city" v="Portland"/><tag k="addr:street" v="Northeast 82nd Avenue"/></node>
<node id="-56" lat="45.552968728" lon="-122.578976398" visible="true"><tag k="addr:housenumber" v="4149"/><tag k="addr:postcode" v="97220"/><tag k="addr:city" v="Portland"/><tag k="addr:street" v="Northeast 82nd Avenue"/></node>
<node id="-57" lat="45.554399419" lon="-122.578954703" visible="true"><tag k="addr:housenumber" v="4349"/><tag k="addr:postcode" v="97220"/><tag k="addr:city" v="Portland"/><tag k="addr:street" v="Northeast 82nd Avenue"/></node>
<node id="-58" lat="45.554404455" lon="-122.578958789" visible="true"><tag k="addr:housenumber" v="4351"/><tag k="addr:postcode" v="97220"/><tag k="addr:city" v="Portland"/><tag k="addr:street" v="Northeast 82nd Avenue"/></node>
<node id="-59" lat="45.549457047" lon="-122.584102964" visible="true"><tag k="addr:housenumber" v="7626"/><tag k="addr:postcode" v="97213"/><tag k="addr:city" v="Portland"/><tag k="addr:street" v="Northeast Beech Street"/></node>
<node id="-60" lat="45.549456641" lon="-122.5840997" visible="true"><tag k="addr:housenumber" v="7634"/><tag k="addr:postcode" v="97213"/><tag k="addr:city" v="Portland"/><tag k="addr:street" v="Northeast Beech Street"/></node>
<node id="-61" lat="45.549746989" lon="-122.580042383" visible="true"><tag k="addr:housenumber" v="8025"/><tag k="addr:postcode" v="97213"/><tag k="addr:city" v="Portland"/><tag k="addr:street" v="Northeast Beech Street"/></node>
<node id="-62" lat="45.549750136" lon="-122.580041867" visible="true"><tag k="addr:housenumber" v="8027"/><tag k="addr:postcode" v="97213"/><tag k="addr:city" v="Portland"/><tag k="addr:street" v="Northeast Beech Street"/></node>
<node id="-63" lat="45.549430706" lon="-122.579423963" visible="true"><tag k="addr:housenumber" v="8104"/><tag k="addr:postcode" v="97213"/><tag k="addr:city" v="Portland"/><tag k="addr:street" v="Northeast Beech Street"/></node>
<node id="-64" lat="45.5497402" lon="-122.579415731" visible="true"><tag k="addr:housenumber" v="8105"/><tag k="addr:postcode" v="97213"/><tag k="addr:city" v="Portland"/><tag k="addr:street" v="Northeast Beech Street"/></node>
<node id="-65" lat="45.549428374" lon="-122.579419254" visible="true"><tag k="addr:housenumber" v="8116"/><tag k="addr:postcode" v="97213"/><tag k="addr:city" v="Portland"/><tag k="addr:street" v="Northeast Beech Street"/></node>
<node id="-66" lat="45.549739136" lon="-122.579416881" visible="true"><tag k="addr:housenumber" v="8117"/><tag k="addr:postcode" v="97213"/><tag k="addr:city" v="Portland"/><tag k="addr:street" v="Northeast Beech Street"/></node>
<node id="-67" lat="45.549753001" lon="-122.579058575" visible="true"><tag k="addr:housenumber" v="8127"/><tag k="addr:postcode" v="97213"/><tag k="addr:city" v="Portland"/><tag k="addr:street" v="Northeast Beech Street"/></node>
<node id="-68" lat="45.549411271" lon="-122.579065326" visible="true"><tag k="addr:housenumber" v="8128"/><tag k="addr:postcode" v="97213"/><tag k="addr:city" v="Portland"/><tag k="addr:street" v="Northeast Beech Street"/></node>
<node id="-69" lat="45.549756902" lon="-122.579060095" visible="true"><tag k="addr:housenumber" v="8129"/><tag k="addr:postcode" v="97213"/><tag k="addr:city" v="Portland"/><tag k="addr:street" v="Northeast Beech Street"/></node>
<node id="-70" lat="45.549751905" lon="-122.579058181" visible="true"><tag k="addr:housenumber" v="8130"/><tag k="addr:postcode" v="97213"/><tag k="addr:city" v="Portland"/><tag k="addr:street" v="Northeast Beech Street"/></node>
<node id="-71" lat="45.549758558" lon="-122.579056111" visible="true"><tag k="addr:housenumber" v="8131"/><tag k="addr:postcode" v="97213"/><tag k="addr:city" v="Portland"/><tag k="addr:street" v="Northeast Beech Street"/></node>
<node id="-72" lat="45.549411586" lon="-122.579063821" visible="true"><tag k="addr:housenumber" v="8132"/><tag k="addr:postcode" v="97213"/><tag k="addr:city" v="Portland"/><tag k="addr:street" v="Northeast Beech Street"/></node>
<node id="-73" lat="45.551168195" lon="-122.5804023" visible="true"><tag k="addr:housenumber" v="8005"/><tag k="addr:postcode" v="97213"/><tag k="addr:city" v="Portland"/><tag k="addr:street" v="Northeast Failing Street"/></node>
<node id="-74" lat="45.551164539" lon="-122.580395812" visible="true"><tag k="addr:housenumber" v="8007"/><tag k="addr:postcode" v="97213"/><tag k="addr:city" v="Portland"/><tag k="addr:street" v="Northeast Failing Street"/></node>
<node id="-75" lat="45.551164232" lon="-122.580404537" visible="true"><tag k="addr:housenumber" v="8015"/><tag k="addr:postcode" v="97213"/><tag k="addr:city" v="Portland"/><tag k="addr:street" v="Northeast Failing Street"/></node>
<node id="-76" lat="45.55116928" lon="-122.58040028" visible="true"><tag k="addr:housenumber" v="8017"/><tag k="addr:postcode" v="97213"/><tag k="addr:city" v="Portland"/><tag k="addr:street" v="Northeast Failing Street"/></node>
<node id="-77" lat="45.551157798" lon="-122.579383644" visible="true"><tag k="addr:housenumber" v="8107"/><tag k="addr:postcode" v="97213"/><tag k="addr:city" v="Portland"/><tag k="addr:street" v="Northeast Failing Street"/></node>
<node id="-78" lat="45.551163327" lon="-122.579384665" visible="true"><tag k="addr:housenumber" v="8109"/><tag k="addr:postcode" v="97213"/><tag k="addr:city" v="Portland"/><tag k="addr:street" v="Northeast Failing Street"/></node>
<node id="-79" lat="45.551166637" lon="-122.579382792" visible="true"><tag k="addr:housenumber" v="8111"/><tag k="addr:postcode" v="97213"/><tag k="addr:city" v="Portland"/><tag k="addr:street" v="Northeast Failing Street"/></node>
<node id="-80" lat="45.548343515" lon="-122.58349765" visible="true"><tag k="addr:housenumber" v="7703"/><tag k="addr:postcode" v="97213"/><tag k="addr:city" v="Portland"/><tag k="addr:street" v="Northeast Fremont Street"/></node>
<node id="-81" lat="45.548342247" lon="-122.583502494" visible="true"><tag k="addr:housenumber" v="7705"/><tag k="addr:postcode" v="97213"/><tag k="addr:city" v="Portland"/><tag k="addr:street" v="Northeast Fremont Street"/></node>
<node id="-82" lat="45.548326403" lon="-122.581082868" visible="true"><tag k="addr:housenumber" v="7931"/><tag k="addr:postcode" v="97213"/><tag k="addr:city" v="Portland"/><tag k="addr:street" v="Northeast Fremont Street"/></node>
<node id="-83" lat="45.548320848" lon="-122.579437393" visible="true"><tag k="addr:housenumber" v="8105"/><tag k="addr:postcode" v="97213"/><tag k="addr:city" v="Portland"/><tag k="addr:street" v="Northeast Fremont Street"/></node>
<node id="-84" lat="45.548315432" lon="-122.579437844" visible="true"><tag k="addr:housenumber" v="8107"/><tag k="addr:postcode" v="97213"/><tag k="addr:city" v="Portland"/><tag k="addr:street" v="Northeast Fremont Street"/></node>
<node id="-85" lat="45.552569748" lon="-122.580374544" visible="true"><tag k="addr:housenumber" v="8001"/><tag k="addr:postcode" v="97218"/><tag k="addr:city" v="Portland"/><tag k="addr:street" v="Northeast Mason Street"/></node>
<node id="-86" lat="45.552570268" lon="-122.580370615" visible="true"><tag k="addr:housenumber" v="8003"/><tag k="addr:postcode" v="97218"/><tag k="addr:city" v="Portland"/><tag k="addr:street" v="Northeast Mason Street"/></node>
<node id="-87" lat="45.552566321" lon="-122.579979498" visible="true"><tag k="addr:housenumber" v="8027"/><tag k="addr:postcode" v="97218"/><tag k="addr:city" v="Portland"/><tag k="addr:street" v="Northeast Mason Street"/></node>
<node id="-88" lat="45.552568013" lon="-122.579982023" visible="true"><tag k="addr:housenumber" v="8031"/><tag k="addr:postcode" v="97218"/><tag k="addr:city" v="Portland"/><tag k="addr:street" v="Northeast Mason Street"/></node>
<node id="-89" lat="45.548368391" lon="-122.588341667" visible="true"><tag k="addr:housenumber" v="7206"/><tag k="addr:postcode" v="97213"/><tag k="addr:city" v="Portland"/><tag k="addr:street" v="Northeast Sandy Boulevard"/></node>
<node id="-90" lat="45.548415844" lon="-122.588075802" visible="true"><tag k="addr:housenumber" v="7220"/><tag k="addr:postcode" v="97213"/><tag k="addr:city" v="Portland"/><tag k="addr:street" v="Northeast Sandy Boulevard"/></node>
<node id="-91" lat="45.548418353" lon="-122.58807869" visible="true"><tag k="addr:housenumber" v="7224"/><tag k="addr:postcode" v="97213"/><tag k="addr:city" v="Portland"/><tag k="addr:street" v="Northeast Sandy Boulevard"/></node>
<node id="-92" lat="45.54836709" lon="-122.588348402" visible="true"><tag k="addr:housenumber" v="7226"/><tag k="addr:postcode" v="97213"/><tag k="addr:city" v="Portland"/><tag k="addr:street" v="Northeast Sandy Boulevard"/></node>
<node id="-93" lat="45.548421414" lon="-122.58807242" visible="true"><tag k="addr:housenumber" v="7240"/><tag k="addr:postcode" v="97213"/><tag k="addr:city" v="Portland"/><tag k="addr:street" v="Northeast Sandy Boulevard"/></node>
<node id="-94" lat="45.548420789" lon="-122.588074323" visible="true"><tag k="addr:housenumber" v="7253"/><tag k="addr:postcode" v="97213"/><tag k="addr:city" v="Portland"/><tag k="addr:street" v="Northeast Sandy Boulevard"/></node>
<node id="-95" lat="45.548672803" lon="-122.587518539" visible="true"><tag k="addr:housenumber" v="7310"/><tag k="addr:postcode" v="97213"/><tag k="addr:city" v="Portland"/><tag k="addr:street" v="Northeast Sandy Boulevard"/></node>
<node id="-96" lat="45.548672778" lon="-122.587527685" visible="true"><tag k="addr:housenumber" v="7314"/><tag k="addr:postcode" v="97213"/><tag k="addr:city" v="Portland"/><tag k="addr:street" v="Northeast Sandy Boulevard"/></node>
<node id="-97" lat="45.548668326" lon="-122.587521977" visible="true"><tag k="addr:housenumber" v="7320"/><tag k="addr:postcode" v="97213"/><tag k="addr:city" v="Portland"/><tag k="addr:street" v="Northeast Sandy Boulevard"/></node>
<node id="-98" lat="45.549253923" lon="-122.5860892" visible="true"><tag k="addr:housenumber" v="7430"/><tag k="addr:postcode" v="97213"/><tag k="addr:city" v="Portland"/><tag k="addr:street" v="Northeast Sandy Boulevard"/></node>
<node id="-99" lat="45.549251772" lon="-122.5860871" visible="true"><tag k="addr:housenumber" v="7434"/><tag k="addr:postcode" v="97213"/><tag k="addr:city" v="Portland"/><tag k="addr:street" v="Northeast Sandy Boulevard"/></node>
<node id="-100" lat="45.549256702" lon="-122.58608854" visible="true"><tag k="addr:housenumber" v="7440"/><tag k="addr:postcode" v="97213"/><tag k="addr:city" v="Portland"/><tag k="addr:street" v="Northeast Sandy Boulevard"/></node>
<node id="-101" lat="45.550736396" lon="-122.583360196" visible="true"><tag k="addr:housenumber" v="7727"/><tag k="addr:postcode" v="97213"/><tag k="addr:city" v="Portland"/><tag k="addr:street" v="Northeast Sandy Boulevard"/></node>
<node id="-102" lat="45.55073944" lon="-122.583365848" visible="true"><tag k="addr:housenumber" v="7729"/><tag k="addr:postcode" v="97213"/><tag k="addr:city" v="Portland"/><tag k="addr:street" v="Northeast Sandy Boulevard"/></node>
<node id="-103" lat="45.550529133" lon="-122.582330299" visible="true"><tag k="addr:housenumber" v="7816"/><tag k="addr:postcode" v="97213"/><tag k="addr:city" v="Portland"/><tag k="addr:street" v="Northeast Sandy Boulevard"/></node>
<node id="-104" lat="45.550528757" lon="-122.58232929" visible="true"><tag k="addr:housenumber" v="7826"/><tag k="addr:postcode" v="97213"/><tag k="addr:city" v="Portland"/><tag k="addr:street" v="Northeast Sandy Boulevard"/></node>
<node id="-105" lat="45.553952644" lon="-122.578964848" visible="true"><tag k="addr:housenumber" v="8123"/><tag k="addr:postcode" v="97218"/><tag k="addr:city" v="Portland"/><tag k="addr:street" v="Northeast Skidmore Street"/></node>
<node id="-106" lat="45.553951315" lon="-122.578962276" visible="true"><tag k="addr:housenumber" v="8129"/><tag k="addr:postcode" v="97218"/><tag k="addr:city" v="Portland"/><tag k="addr:street" v="Northeast Skidmore Street"/></node>
</osm>