<?xml version="1.0"?>
<osm version="0.6" upload="false" generator="uvmogr2osm">
<node id="-1" lat="45.522617946" lon="-122.516062984" visible="true"><tag k="addr:housenumber" v="14251"/><tag k="addr:postcode" v="97233"/><tag k="addr:city" v="Portland"/><tag k="addr:street" v="East Burnside Street"/></node>
<node id="-2" lat="45.522629946" lon="-122.516076144" visible="true"><tag k="addr:housenumber" v="17"/><tag k="addr:postcode" v="97230"/><tag k="addr:city" v="Portland"/><tag k="addr:street" v="Northeast 143rd Avenue"/></node>
<node id="-3" lat="45.525098872" lon="-122.516086703" visible="true"><tag k="addr:housenumber" v="307"/><tag k="addr:postcode" v="97230"/><tag k="addr:city" v="Portland"/><tag k="addr:street" v="Northeast 143rd Avenue"/></node>
<node id="-4" lat="45.525103526" lon="-122.516088321" visible="true"><tag k="addr:housenumber" v="315"/><tag k="addr:postcode" v="97230"/><tag k="addr:city" v="Portland"/><tag k="addr:street" v="Northeast 143rd Avenue"/></node>
<node id="-5" lat="45.525535062" lon="-122.51548328" visible="true"><tag k="addr:housenumber" v="340"/><tag k="addr:postcode" v="97230"/><tag k="addr:city" v="Portland"/><tag k="addr:street" v="Northeast 143rd Avenue"/></node>
<node id="-6" lat="45.525532242" lon="-122.515483806" visible="true"><tag k="addr:housenumber" v="342"/><tag k="addr:postcode" v="97230"/><tag k="addr:city" v="Portland"/><tag k="addr:street" v="Northeast 143rd Avenue"/></node>
<node id="-7" lat="45.525535889" lon="-122.515483607" visible="true"><tag k="addr:housenumber" v="344"/><tag k="addr:postcode" v="97230"/><tag k="addr:city" v="Portland"/><tag k="addr:street" v="Northeast 143rd Avenue"/></node>
<node id="-8" lat="45.525531006" lon="-122.515481626" visible="true"><tag k="addr:housenumber" v="346"/><tag k="addr:postcode" v="97230"/><tag k="addr:city" v="Portland"/><tag k="addr:street" v="Northeast 143rd Avenue"/></node>
<node id="-9" lat="45.525528108" lon="-122.515476543" visible="true"><tag k="addr:housenumber" v="350"/><tag k="addr:postcode" v="97230"/><tag k="addr:city" v="Portland"/><tag k="addr:street" v="Northeast 143rd Avenue"/></node>
<node id="-10" lat="45.522750182" lon="-122.515249942" visible="true"><tag k="addr:housenumber" v="36"/><tag k="addr:postcode" v="97230"/><tag k="addr:city" v="Portland"/><tag k="addr:street" v="Northeast 143rd Avenue"/></node>
<node id="-11" lat="45.52274253" lon="-122.515246722" visible="true"><tag k="addr:housenumber" v="38"/><tag k="addr:postcode" v="97230"/><tag k="addr:city" v="Portland"/><tag k="addr:street" v="Northeast 143rd Avenue"/></node>
<node id="-12" lat="45.524970625" lon="-122.51393362" visible="true"><tag k="addr:housenumber" v="235"/><tag k="addr:postcode" v="97230"/><tag k="addr:city" v="Portland"/><tag k="addr:street" v="Northeast 146th Avenue"/></node>
<node id="-13" lat="45.52497115" lon="-122.513929208" visible="true"><tag k="addr:housenumber" v="247"/><tag k="addr:postcode" v="97230"/><tag k="addr:city" v="Portland"/><tag k="addr:street" v="Northeast 146th Avenue"/></node>
<node id="-14" lat="45.524966248" lon="-122.513927172" visible="true"><tag k="addr:housenumber" v="333"/><tag k="addr:postcode" v="97230"/><tag k="addr:city" v="Portland"/><tag k="addr:street" v="Northeast 146th Avenue"/></node>
<node id="-15" lat="45.524967701" lon="-122.513924475" visible="true"><tag k="addr:housenumber" v="409"/><tag k="addr:postcode" v="97230"/><tag k="addr:city" v="Portland"/><tag k="addr:street" v="Northeast 146th Avenue"/></node>
<node id="-16" lat="45.523497472" lon="-122.50995668" visible="true"><tag k="addr:housenumber" v="106"/><tag k="addr:postcode" v="97230"/><tag k="addr:city" v="Portland"/><tag k="addr:street" v="Northeast 148th Avenue"/></node>
<node id="-17" lat="45.525510879" lon="-122.511265543" visible="true"><tag k="addr:housenumber" v="335"/><tag k="addr:postcode" v="97230"/><tag k="addr:city" v="Portland"/><tag k="addr:street" v="Northeast 148th Avenue"/></node>
<node id="-18" lat="45.525941794" lon="-122.510920706" visible="true"><tag k="addr:housenumber" v="429"/><tag k="addr:postcode" v="97230"/><tag k="addr:city" v="Portland"/><tag k="addr:street" v="Northeast 148th Avenue"/></node>
<node id="-19" lat="45.525938653" lon="-122.510922272" visible="true"><tag k="addr:housenumber" v="433"/><tag k="addr:postcode" v="97230"/><tag k="addr:city" v="Portland"/><tag k="addr:street" v="Northeast 148th Avenue"/></node>
<node id="-20" lat="45.526088763" lon="-122.510913027" visible="true"><tag k="addr:housenumber" v="437"/><tag k="addr:postcode" v="97230"/><tag k="addr:city" v="Portland"/><tag k="addr:street" v="Northeast 148th Avenue"/></node>
<node id="-21" lat="45.526089724" lon="-122.510917338" visible="true"><tag k="addr:housenumber" v="439"/><tag k="addr:postcode" v="97230"/><tag k="addr:city" v="Portland"/><tag k="addr:street" v="Northeast 148th Avenue"/></node>
<node id="-22" lat="45.523503237" lon="-122.509961269" visible="true"><tag k="addr:housenumber" v="14833"/><tag k="addr:postcode" v="97230"/><tag k="addr:city" v="Portland"/><tag k="addr:street" v="Northeast Couch Street"/></node>
<node id="-23" lat="45.525517469" lon="-122.511260026" visible="true"><tag k="addr:housenumber" v="14727"/><tag k="addr:postcode" v="97230"/><tag k="addr:city" v="Portland"/><tag k="addr:street" v="Northeast Flanders Street"/></node>
<node id="-24" lat="45.526196841" lon="-122.51118047" visible="true"><tag k="addr:housenumber" v="14730"/><tag k="addr:postcode" v="97230"/><tag k="addr:city" v="Portland"/><tag k="addr:street" v="Northeast Glisan Street"/></node>
<node id="-25" lat="45.526195516" lon="-122.511177609" visible="true"><tag k="addr:housenumber" v="14738"/><tag k="addr:postcode" v="97230"/><tag k="addr:city" v="Portland"/><tag k="addr:street" v="Northeast Glisan Street"/></node>
<node id="-26" lat="45.519873321" lon="-122.515569046" visible="true"><tag k="addr:housenumber" v="404"/><tag k="addr:postcode" v="97233"/><tag k="addr:city" v="Portland"/><tag k="addr:street" v="Southeast 143rd Avenue"/></node>
<node id="-27" lat="45.519879831" lon="-122.515569182" visible="true"><tag k="addr:housenumber" v="406"/><tag k="addr:postcode" v="97233"/><tag k="addr:city" v="Portland"/><tag k="addr:street" v="Southeast 143rd Avenue"/></node>
<node id="-28" lat="45.521448179" lon="-122.511766874" visible="true"><tag k="addr:housenumber" v="107"/><tag k="addr:postcode" v="97233"/><tag k="addr:city" v="Portland"/><tag k="addr:street" v="Southeast 148th Avenue"/></node>
<node id="-29" lat="45.521444671" lon="-122.511768602" visible="true"><tag k="addr:housenumber" v="109"/><tag k="addr:postcode" v="97233"/><tag k="addr:city" v="Portland"/><tag k="addr:street" v="Southeast 148th Avenue"/></node>
<node id="-30" lat="45.521444993" lon="-122.511774212" visible="true"><tag k="addr:housenumber" v="111"/><tag k="addr:postcode" v="97233"/><tag k="addr:city" v="Portland"/><tag k="addr:street" v="Southeast 148th Avenue"/></node>
<node id="-31" lat="45.521443723" lon="-122.51177319" visible="true"><tag k="addr:housenumber" v="113"/><tag k="addr:postcode" v="97233"/><tag k="addr:city" v="Portland"/><tag k="addr:street" v="Southeast 148th Avenue"/></node>
<node id="-32" lat="45.521254723" lon="-122.511775806" visible="true"><tag k="addr:housenumber" v="115"/><tag k="addr:postcode" v="97233"/><tag k="addr:city" v="Portland"/><tag k="addr:street" v="Southeast 148th Avenue"/></node>
<node id="-33" lat="45.521259299" lon="-122.511773373" visible="true"><tag k="addr:housenumber" v="117"/><tag k="addr:postcode" v="97233"/><tag k="addr:city" v="Portland"/><tag k="addr:street" v="Southeast 148th Avenue"/></node>
<node id="-34" lat="45.521263357" lon="-122.511766573" visible="true"><tag k="addr:housenumber" v="119"/><tag k="addr:postcode" v="97233"/><tag k="addr:city" v="Portland"/><tag k="addr:street" v="Southeast 148th Avenue"/></node>
<node id="-35" lat="45.521257231" lon="-122.511773613" visible="true"><tag k="addr:housenumber" v="121"/><tag k="addr:postcode" v="97233"/><tag k="addr:city" v="Portland"/><tag k="addr:street" v="Southeast 148th Avenue"/></node>
<node id="-36" lat="45.521401063" lon="-122.508401495" visible="true"><tag k="addr:housenumber" v="117"/><tag k="addr:postcode" v="97233"/><tag k="addr:city" v="Portland"/><tag k="addr:street" v="Southeast 151st Avenue"/></node>
<node id="-37" lat="45.521400644" lon="-122.508400749" visible="true"><tag k="addr:housenumber" v="119"/><tag k="addr:postcode" v="97233"/><tag k="addr:city" v="Portland"/><tag k="addr:street" v="Southeast 151st Avenue"/></node>
<node id="-38" lat="45.521407182" lon="-122.50839774" visible="true"><tag k="addr:housenumber" v="121"/><tag k="addr:postcode" v="97233"/><tag k="addr:city" v="Portland"/><tag k="addr:street" v="Southeast 151st Avenue"/></node>
<node id="-39" lat="45.521403037" lon="-122.508396216" visible="true"><tag k="addr:housenumber" v="125"/><tag k="addr:postcode" v="97233"/><tag k="addr:city" v="Portland"/><tag k="addr:street" v="Southeast 151st Avenue"/></node>
<node id="-40" lat="45.520382157" lon="-122.507507001" visible="true"><tag k="addr:housenumber" v="308"/><tag k="addr:postcode" v="97233"/><tag k="addr:city" v="Portland"/><tag k="addr:street" v="Southeast 151st Avenue"/></node>
<node id="-41" lat="45.520384983" lon="-122.507505365" visible="true"><tag k="addr:housenumber" v="15139"/><tag k="addr:postcode" v="97233"/><tag k="addr:city" v="Portland"/><tag k="addr:street" v="Southeast Pine Court"/></node>
<node id="-42" lat="45.519618965" lon="-122.513663539" visible="true"><tag k="addr:housenumber" v="14513"/><tag k="addr:postcode" v="97233"/><tag k="addr:city" v="Portland"/><tag k="addr:street" v="Southeast Stark Street"/></node>
<node id="-43" lat="45.519623188" lon="-122.513657248" visible="true"><tag k="addr:housenumber" v="14515"/><tag k="addr:postcode" v="97233"/><tag k="addr:city" v="Portland"/><tag k="addr:street" v="Southeast Stark Street"/></node>
<node id="-44" lat="45.519621653" lon="-122.513662399" visible="true"><tag k="addr:housenumber" v="14565"/><tag k="addr:postcode" v="97233"/><tag k="addr:city" v="Portland"/><tag k="addr:street" v="Southeast Stark Street"/></node>
<node id="-45" lat="45.519377725" lon="-122.511159113" visible="true"><tag k="addr:housenumber" v="14741"/><tag k="addr:postcode" v="97233"/><tag k="addr:city" v="Portland"/><tag k="addr:street" v="Southeast Stark Street"/></node>
<node id="-46" lat="45.51937865" lon="-122.511157633" visible="true"><tag k="addr:housenumber" v="14761"/><tag k="addr:postcode" v="97233"/><tag k="addr:city" v="Portland"/><tag k="addr:street" v="Southeast Stark Street"/></node>
</osm>