<?xml version="1.0"?>
<osm version="0.6" upload="false" generator="uvmogr2osm">
<node id="-1" lat="45.529479313" lon="-122.610393822" visible="true"><tag k="addr:housenumber" v="825"/><tag k="addr:postcode" v="97213"/><tag k="addr:city" v="Portland"/><tag k="addr:street" v="Northeast 52nd Avenue"/></node>
<node id="-2" lat="45.529486575" lon="-122.610391287" visible="true"><tag k="addr:housenumber" v="827"/><tag k="addr:postcode" v="97213"/><tag k="addr:city" v="Portland"/><tag k="addr:street" v="Northeast 52nd Avenue"/></node>
<node id="-3" lat="45.530550049" lon="-122.617597926" visible="true"><tag k="addr:housenumber" v="4358"/><tag k="addr:postcode" v="97213"/><tag k="addr:city" v="Portland"/><tag k="addr:street" v="Northeast Hazelfern Place"/></node>
<node id="-4" lat="45.530553665" lon="-122.617594989" visible="true"><tag k="addr:housenumber" v="4360"/><tag k="addr:postcode" v="97213"/><tag k="addr:city" v="Portland"/><tag k="addr:street" v="Northeast Hazelfern Place"/></node>
<node id="-5" lat="45.530546387" lon="-122.617590884" visible="true"><tag k="addr:housenumber" v="4362"/><tag k="addr:postcode" v="97213"/><tag k="addr:city" v="Portland"/><tag k="addr:street" v="Northeast Hazelfern Place"/></node>
<node id="-6" lat="45.527739966" lon="-122.615243266" visible="true"><tag k="addr:housenumber" v="4614"/><tag k="addr:postcode" v="97213"/><tag k="addr:city" v="Portland"/><tag k="addr:street" v="Northeast Irving Street"/></node>
<node id="-7" lat="45.527738098" lon="-122.615242907" visible="true"><tag k="addr:housenumber" v="4616"/><tag k="addr:postcode" v="97213"/><tag k="addr:city" v="Portland"/><tag k="addr:street" v="Northeast Irving Street"/></node>
<node id="-8" lat="45.530896189" lon="-122.614284959" visible="true"><tag k="addr:housenumber" v="4720"/><tag k="addr:postcode" v="97213"/><tag k="addr:city" v="Portland"/><tag k="addr:street" v="Northeast Multnomah Street"/></node>
<node id="-9" lat="45.530894415" lon="-122.614285713" visible="true"><tag k="addr:housenumber" v="4722"/><tag k="addr:postcode" v="97213"/><tag k="addr:city" v="Portland"/><tag k="addr:street" v="Northeast Multnomah Street"/></node>
<node id="-10" lat="45.530887796" lon="-122.614286256" visible="true"><tag k="addr:housenumber" v="4724"/><tag k="addr:postcode" v="97213"/><tag k="addr:city" v="Portland"/><tag k="addr:street" v="Northeast Multnomah Street"/></node>
<node id="-11" lat="45.529213843" lon="-122.611763038" visible="true"><tag k="addr:housenumber" v="5010"/><tag k="addr:postcode" v="97213"/><tag k="addr:city" v="Portland"/><tag k="addr:street" v="Northeast Oregon Street"/></node>
<node id="-12" lat="45.52921687" lon="-122.611762408" visible="true"><tag k="addr:housenumber" v="5012"/><tag k="addr:postcode" v="97213"/><tag k="addr:city" v="Portland"/><tag k="addr:street" v="Northeast Oregon Street"/></node>
</osm>