<?xml version="1.0"?>
<osm version="0.6" upload="false" generator="uvmogr2osm">
<node id="-1" lat="45.539240246" lon="-122.43325743" visible="true"><tag k="addr:housenumber" v="2216"/><tag k="addr:postcode" v="97024"/><tag k="addr:city" v="Fairview"/><tag k="addr:street" v="Fairview Avenue"/></node>
<node id="-2" lat="45.534705579" lon="-122.43399937" visible="true"><tag k="addr:housenumber" v="1605"/><tag k="addr:postcode" v="97024"/><tag k="addr:city" v="Fairview"/><tag k="addr:street" v="Northeast 223rd Avenue"/></node>
<node id="-3" lat="45.535909158" lon="-122.42567159" visible="true"><tag k="addr:housenumber" v="1766"/><tag k="addr:postcode" v="97060"/><tag k="addr:city" v="Troutdale"/><tag k="addr:street" v="Northeast 230th Court"/></node>
<node id="-4" lat="45.535910878" lon="-122.425675393" visible="true"><tag k="addr:housenumber" v="1768"/><tag k="addr:postcode" v="97060"/><tag k="addr:city" v="Troutdale"/><tag k="addr:street" v="Northeast 230th Court"/></node>
<node id="-5" lat="45.535035828" lon="-122.424829941" visible="true"><tag k="addr:housenumber" v="1600"/><tag k="addr:postcode" v="97060"/><tag k="addr:city" v="Troutdale"/><tag k="addr:street" v="Northeast 231st Court"/></node>
<node id="-6" lat="45.535039724" lon="-122.424837024" visible="true"><tag k="addr:housenumber" v="1660"/><tag k="addr:postcode" v="97060"/><tag k="addr:city" v="Troutdale"/><tag k="addr:street" v="Northeast 231st Court"/></node>
<node id="-7" lat="45.534586204" lon="-122.434578078" visible="true"><tag k="addr:housenumber" v="22213"/><tag k="addr:postcode" v="97024"/><tag k="addr:city" v="Fairview"/><tag k="addr:street" v="Northeast Barr Road"/></node>
<node id="-8" lat="45.534587353" lon="-122.434581182" visible="true"><tag k="addr:housenumber" v="22215"/><tag k="addr:postcode" v="97024"/><tag k="addr:city" v="Fairview"/><tag k="addr:street" v="Northeast Barr Road"/></node>
<node id="-9" lat="45.523116163" lon="-122.433987752" visible="true"><tag k="addr:housenumber" v="22079"/><tag k="addr:postcode" v="97030"/><tag k="addr:city" v="Gresham"/><tag k="addr:street" v="Northeast Couch Street"/></node>
<node id="-10" lat="45.523119786" lon="-122.433986231" visible="true"><tag k="addr:housenumber" v="22089"/><tag k="addr:postcode" v="97030"/><tag k="addr:city" v="Gresham"/><tag k="addr:street" v="Northeast Couch Street"/></node>
<node id="-11" lat="45.534701971" lon="-122.433998517" visible="true"><tag k="addr:housenumber" v="1601"/><tag k="addr:postcode" v="97024"/><tag k="addr:city" v="Fairview"/><tag k="addr:street" v="Northeast Fairview Avenue"/></node>
<node id="-12" lat="45.539241176" lon="-122.433259858" visible="true"><tag k="addr:housenumber" v="2214"/><tag k="addr:postcode" v="97024"/><tag k="addr:city" v="Fairview"/><tag k="addr:street" v="Northeast Fairview Avenue"/></node>
<node id="-13" lat="45.528207227" lon="-122.432722274" visible="true"><tag k="addr:housenumber" v="22401"/><tag k="addr:postcode" v="97060"/><tag k="addr:city" v="Troutdale"/><tag k="addr:street" v="Northeast Glisan Street"/></node>
<node id="-14" lat="45.528207934" lon="-122.432722306" visible="true"><tag k="addr:housenumber" v="22583"/><tag k="addr:postcode" v="97060"/><tag k="addr:city" v="Troutdale"/><tag k="addr:street" v="Northeast Glisan Street"/></node>
<node id="-15" lat="45.52081164" lon="-122.43409859" visible="true"><tag k="addr:housenumber" v="211"/><tag k="addr:postcode" v="97030"/><tag k="addr:city" v="Gresham"/><tag k="addr:street" v="Southeast 223rd Avenue"/></node>
<node id="-16" lat="45.520804388" lon="-122.434091747" visible="true"><tag k="addr:housenumber" v="22222"/><tag k="addr:postcode" v="97030"/><tag k="addr:city" v="Gresham"/><tag k="addr:street" v="Southeast Ash Street"/></node>
</osm>