<?xml version="1.0"?>
<osm version="0.6" upload="false" generator="uvmogr2osm">
<node id="-1" lat="45.547192206" lon="-122.403607944" visible="true"><tag k="addr:housenumber" v="1020"/><tag k="addr:postcode" v="97060"/><tag k="addr:city" v="Troutdale"/><tag k="addr:street" v="Northwest Corporate Drive"/></node>
<node id="-2" lat="45.547186675" lon="-122.403602511" visible="true"><tag k="addr:housenumber" v="1022"/><tag k="addr:postcode" v="97060"/><tag k="addr:city" v="Troutdale"/><tag k="addr:street" v="Northwest Corporate Drive"/></node>
<node id="-3" lat="45.54718504" lon="-122.403603515" visible="true"><tag k="addr:housenumber" v="1030"/><tag k="addr:postcode" v="97060"/><tag k="addr:city" v="Troutdale"/><tag k="addr:street" v="Northwest Corporate Drive"/></node>
<node id="-4" lat="45.547188849" lon="-122.403605061" visible="true"><tag k="addr:housenumber" v="1032"/><tag k="addr:postcode" v="97060"/><tag k="addr:city" v="Troutdale"/><tag k="addr:street" v="Northwest Corporate Drive"/></node>
<node id="-5" lat="45.547191507" lon="-122.403603875" visible="true"><tag k="addr:housenumber" v="1040"/><tag k="addr:postcode" v="97060"/><tag k="addr:city" v="Troutdale"/><tag k="addr:street" v="Northwest Corporate Drive"/></node>
<node id="-6" lat="45.54718873" lon="-122.403610853" visible="true"><tag k="addr:housenumber" v="1042"/><tag k="addr:postcode" v="97060"/><tag k="addr:city" v="Troutdale"/><tag k="addr:street" v="Northwest Corporate Drive"/></node>
<node id="-7" lat="45.547185565" lon="-122.403604061" visible="true"><tag k="addr:housenumber" v="1050"/><tag k="addr:postcode" v="97060"/><tag k="addr:city" v="Troutdale"/><tag k="addr:street" v="Northwest Corporate Drive"/></node>
<node id="-8" lat="45.547187059" lon="-122.403603312" visible="true"><tag k="addr:housenumber" v="1052"/><tag k="addr:postcode" v="97060"/><tag k="addr:city" v="Troutdale"/><tag k="addr:street" v="Northwest Corporate Drive"/></node>
<node id="-9" lat="45.547193088" lon="-122.403610218" visible="true"><tag k="addr:housenumber" v="1060"/><tag k="addr:postcode" v="97060"/><tag k="addr:city" v="Troutdale"/><tag k="addr:street" v="Northwest Corporate Drive"/></node>
<node id="-10" lat="45.547187148" lon="-122.403610117" visible="true"><tag k="addr:housenumber" v="1062"/><tag k="addr:postcode" v="97060"/><tag k="addr:city" v="Troutdale"/><tag k="addr:street" v="Northwest Corporate Drive"/></node>
<node id="-11" lat="45.547194686" lon="-122.403609843" visible="true"><tag k="addr:housenumber" v="1070"/><tag k="addr:postcode" v="97060"/><tag k="addr:city" v="Troutdale"/><tag k="addr:street" v="Northwest Corporate Drive"/></node>
<node id="-12" lat="45.547186225" lon="-122.403609388" visible="true"><tag k="addr:housenumber" v="1072"/><tag k="addr:postcode" v="97060"/><tag k="addr:city" v="Troutdale"/><tag k="addr:street" v="Northwest Corporate Drive"/></node>
<node id="-13" lat="45.547187749" lon="-122.403610963" visible="true"><tag k="addr:housenumber" v="1080"/><tag k="addr:postcode" v="97060"/><tag k="addr:city" v="Troutdale"/><tag k="addr:street" v="Northwest Corporate Drive"/></node>
<node id="-14" lat="45.546630364" lon="-122.402577592" visible="true"><tag k="addr:housenumber" v="886"/><tag k="addr:postcode" v="97060"/><tag k="addr:city" v="Troutdale"/><tag k="addr:street" v="Northwest Corporate Drive"/></node>
<node id="-15" lat="45.54663192" lon="-122.402571507" visible="true"><tag k="addr:housenumber" v="892"/><tag k="addr:postcode" v="97060"/><tag k="addr:city" v="Troutdale"/><tag k="addr:street" v="Northwest Corporate Drive"/></node>
<node id="-16" lat="45.546637022" lon="-122.402575981" visible="true"><tag k="addr:housenumber" v="906"/><tag k="addr:postcode" v="97060"/><tag k="addr:city" v="Troutdale"/><tag k="addr:street" v="Northwest Corporate Drive"/></node>
<node id="-17" lat="45.546629689" lon="-122.40256812" visible="true"><tag k="addr:housenumber" v="912"/><tag k="addr:postcode" v="97060"/><tag k="addr:city" v="Troutdale"/><tag k="addr:street" v="Northwest Corporate Drive"/></node>
<node id="-18" lat="45.546635651" lon="-122.402571011" visible="true"><tag k="addr:housenumber" v="918"/><tag k="addr:postcode" v="97060"/><tag k="addr:city" v="Troutdale"/><tag k="addr:street" v="Northwest Corporate Drive"/></node>
<node id="-19" lat="45.543599082" lon="-122.398238743" visible="true"><tag k="addr:housenumber" v="1100"/><tag k="addr:postcode" v="97060"/><tag k="addr:city" v="Troutdale"/><tag k="addr:street" v="Northwest Frontage Road"/></node>
<node id="-20" lat="45.543600072" lon="-122.398238561" visible="true"><tag k="addr:housenumber" v="1108"/><tag k="addr:postcode" v="97060"/><tag k="addr:city" v="Troutdale"/><tag k="addr:street" v="Northwest Frontage Road"/></node>
<node id="-21" lat="45.54092287" lon="-122.399852976" visible="true"><tag k="addr:housenumber" v="125"/><tag k="addr:postcode" v="97060"/><tag k="addr:city" v="Troutdale"/><tag k="addr:street" v="Southwest Edgefield Court"/></node>
<node id="-22" lat="45.540768842" lon="-122.399787615" visible="true"><tag k="addr:housenumber" v="127"/><tag k="addr:postcode" v="97060"/><tag k="addr:city" v="Troutdale"/><tag k="addr:street" v="Southwest Edgefield Court"/></node>
<node id="-23" lat="45.540964934" lon="-122.400180143" visible="true"><tag k="addr:housenumber" v="1214"/><tag k="addr:postcode" v="97060"/><tag k="addr:city" v="Troutdale"/><tag k="addr:street" v="West Historic Columbia River Highway"/></node>
<node id="-24" lat="45.540961378" lon="-122.400172092" visible="true"><tag k="addr:housenumber" v="1216"/><tag k="addr:postcode" v="97060"/><tag k="addr:city" v="Troutdale"/><tag k="addr:street" v="West Historic Columbia River Highway"/></node>
<node id="-25" lat="45.540967193" lon="-122.400178678" visible="true"><tag k="addr:housenumber" v="1218"/><tag k="addr:postcode" v="97060"/><tag k="addr:city" v="Troutdale"/><tag k="addr:street" v="West Historic Columbia River Highway"/></node>
<node id="-26" lat="45.54103734" lon="-122.400542853" visible="true"><tag k="addr:housenumber" v="1230"/><tag k="addr:postcode" v="97060"/><tag k="addr:city" v="Troutdale"/><tag k="addr:street" v="West Historic Columbia River Highway"/></node>
<node id="-27" lat="45.541035228" lon="-122.400540143" visible="true"><tag k="addr:housenumber" v="1232"/><tag k="addr:postcode" v="97060"/><tag k="addr:city" v="Troutdale"/><tag k="addr:street" v="West Historic Columbia River Highway"/></node>
<node id="-28" lat="45.54103653" lon="-122.400536608" visible="true"><tag k="addr:housenumber" v="1234"/><tag k="addr:postcode" v="97060"/><tag k="addr:city" v="Troutdale"/><tag k="addr:street" v="West Historic Columbia River Highway"/></node>
<node id="-29" lat="45.541182235" lon="-122.400889851" visible="true"><tag k="addr:housenumber" v="1344"/><tag k="addr:postcode" v="97060"/><tag k="addr:city" v="Troutdale"/><tag k="addr:street" v="West Historic Columbia River Highway"/></node>
<node id="-30" lat="45.541111357" lon="-122.400895779" visible="true"><tag k="addr:housenumber" v="1346"/><tag k="addr:postcode" v="97060"/><tag k="addr:city" v="Troutdale"/><tag k="addr:street" v="West Historic Columbia River Highway"/></node>
<node id="-31" lat="45.541036395" lon="-122.400903112" visible="true"><tag k="addr:housenumber" v="1348"/><tag k="addr:postcode" v="97060"/><tag k="addr:city" v="Troutdale"/><tag k="addr:street" v="West Historic Columbia River Highway"/></node>
<node id="-32" lat="45.540966876" lon="-122.400893458" visible="true"><tag k="addr:housenumber" v="1350"/><tag k="addr:postcode" v="97060"/><tag k="addr:city" v="Troutdale"/><tag k="addr:street" v="West Historic Columbia River Highway"/></node>
</osm>