<?xml version="1.0"?>
<osm version="0.6" upload="false" generator="uvmogr2osm">
<node id="-1" lat="45.52008809" lon="-122.471540523" visible="true"><tag k="addr:housenumber" v="18706"/><tag k="addr:postcode" v="97233"/><tag k="addr:city" v="Portland"/><tag k="addr:street" v="East Burnside Street"/></node>
<node id="-2" lat="45.522699869" lon="-122.470545306" visible="true"><tag k="addr:housenumber" v="63"/><tag k="addr:postcode" v="97230"/><tag k="addr:city" v="Portland"/><tag k="addr:street" v="Northeast 188th Avenue"/></node>
<node id="-3" lat="45.522700763" lon="-122.470552192" visible="true"><tag k="addr:housenumber" v="77"/><tag k="addr:postcode" v="97230"/><tag k="addr:city" v="Portland"/><tag k="addr:street" v="Northeast 188th Avenue"/></node>
<node id="-4" lat="45.52612642" lon="-122.466678057" visible="true"><tag k="addr:housenumber" v="435"/><tag k="addr:postcode" v="97230"/><tag k="addr:city" v="Portland"/><tag k="addr:street" v="Northeast 191st Avenue"/></node>
<node id="-5" lat="45.526126488" lon="-122.466679125" visible="true"><tag k="addr:housenumber" v="441"/><tag k="addr:postcode" v="97230"/><tag k="addr:city" v="Portland"/><tag k="addr:street" v="Northeast 191st Avenue"/></node>
<node id="-6" lat="45.526130349" lon="-122.466096572" visible="true"><tag k="addr:housenumber" v="444"/><tag k="addr:postcode" v="97230"/><tag k="addr:city" v="Portland"/><tag k="addr:street" v="Northeast 191st Avenue"/></node>
<node id="-7" lat="45.526114448" lon="-122.472777293" visible="true"><tag k="addr:housenumber" v="18502"/><tag k="addr:postcode" v="97230"/><tag k="addr:city" v="Portland"/><tag k="addr:street" v="Northeast Glisan Street"/></node>
<node id="-8" lat="45.52611404" lon="-122.472784389" visible="true"><tag k="addr:housenumber" v="18504"/><tag k="addr:postcode" v="97230"/><tag k="addr:city" v="Portland"/><tag k="addr:street" v="Northeast Glisan Street"/></node>
<node id="-9" lat="45.525778947" lon="-122.472732774" visible="true"><tag k="addr:housenumber" v="18506"/><tag k="addr:postcode" v="97230"/><tag k="addr:city" v="Portland"/><tag k="addr:street" v="Northeast Glisan Street"/></node>
<node id="-10" lat="45.525777779" lon="-122.472729231" visible="true"><tag k="addr:housenumber" v="18508"/><tag k="addr:postcode" v="97230"/><tag k="addr:city" v="Portland"/><tag k="addr:street" v="Northeast Glisan Street"/></node>
<node id="-11" lat="45.525829678" lon="-122.472444217" visible="true"><tag k="addr:housenumber" v="18510"/><tag k="addr:postcode" v="97230"/><tag k="addr:city" v="Portland"/><tag k="addr:street" v="Northeast Glisan Street"/></node>
<node id="-12" lat="45.525829699" lon="-122.472447853" visible="true"><tag k="addr:housenumber" v="18512"/><tag k="addr:postcode" v="97230"/><tag k="addr:city" v="Portland"/><tag k="addr:street" v="Northeast Glisan Street"/></node>
<node id="-13" lat="45.525781246" lon="-122.467726044" visible="true"><tag k="addr:housenumber" v="19002"/><tag k="addr:postcode" v="97230"/><tag k="addr:city" v="Portland"/><tag k="addr:street" v="Northeast Glisan Street"/></node>
<node id="-14" lat="45.525778669" lon="-122.467722157" visible="true"><tag k="addr:housenumber" v="19004"/><tag k="addr:postcode" v="97230"/><tag k="addr:city" v="Portland"/><tag k="addr:street" v="Northeast Glisan Street"/></node>
<node id="-15" lat="45.526152253" lon="-122.467427775" visible="true"><tag k="addr:housenumber" v="19010"/><tag k="addr:postcode" v="97230"/><tag k="addr:city" v="Portland"/><tag k="addr:street" v="Northeast Glisan Street"/></node>
<node id="-16" lat="45.526154058" lon="-122.467428134" visible="true"><tag k="addr:housenumber" v="19012"/><tag k="addr:postcode" v="97230"/><tag k="addr:city" v="Portland"/><tag k="addr:street" v="Northeast Glisan Street"/></node>
<node id="-17" lat="45.525823648" lon="-122.467146665" visible="true"><tag k="addr:housenumber" v="19022"/><tag k="addr:postcode" v="97230"/><tag k="addr:city" v="Portland"/><tag k="addr:street" v="Northeast Glisan Street"/></node>
<node id="-18" lat="45.525822649" lon="-122.467147464" visible="true"><tag k="addr:housenumber" v="19024"/><tag k="addr:postcode" v="97230"/><tag k="addr:city" v="Portland"/><tag k="addr:street" v="Northeast Glisan Street"/></node>
<node id="-19" lat="45.526148076" lon="-122.466868758" visible="true"><tag k="addr:housenumber" v="19032"/><tag k="addr:postcode" v="97230"/><tag k="addr:city" v="Portland"/><tag k="addr:street" v="Northeast Glisan Street"/></node>
<node id="-20" lat="45.526146359" lon="-122.466865214" visible="true"><tag k="addr:housenumber" v="19034"/><tag k="addr:postcode" v="97230"/><tag k="addr:city" v="Portland"/><tag k="addr:street" v="Northeast Glisan Street"/></node>
<node id="-21" lat="45.526124545" lon="-122.466098352" visible="true"><tag k="addr:housenumber" v="19110"/><tag k="addr:postcode" v="97230"/><tag k="addr:city" v="Portland"/><tag k="addr:street" v="Northeast Glisan Street"/></node>
<node id="-22" lat="45.521764429" lon="-122.466093318" visible="true"><tag k="addr:housenumber" v="19154"/><tag k="addr:postcode" v="97233"/><tag k="addr:city" v="Portland"/><tag k="addr:street" v="Southeast Ankeny Court"/></node>
<node id="-23" lat="45.521765782" lon="-122.466095783" visible="true"><tag k="addr:housenumber" v="19156"/><tag k="addr:postcode" v="97233"/><tag k="addr:city" v="Portland"/><tag k="addr:street" v="Southeast Ankeny Court"/></node>
<node id="-24" lat="45.521762648" lon="-122.465940153" visible="true"><tag k="addr:housenumber" v="19160"/><tag k="addr:postcode" v="97233"/><tag k="addr:city" v="Portland"/><tag k="addr:street" v="Southeast Ankeny Court"/></node>
<node id="-25" lat="45.521766023" lon="-122.465941021" visible="true"><tag k="addr:housenumber" v="19168"/><tag k="addr:postcode" v="97233"/><tag k="addr:city" v="Portland"/><tag k="addr:street" v="Southeast Ankeny Court"/></node>
<node id="-26" lat="45.520067477" lon="-122.473064941" visible="true"><tag k="addr:housenumber" v="18427"/><tag k="addr:postcode" v="97233"/><tag k="addr:city" v="Portland"/><tag k="addr:street" v="Southeast Oak Street"/></node>
<node id="-27" lat="45.520069412" lon="-122.47306806" visible="true"><tag k="addr:housenumber" v="18437"/><tag k="addr:postcode" v="97233"/><tag k="addr:city" v="Portland"/><tag k="addr:street" v="Southeast Oak Street"/></node>
<node id="-28" lat="45.520060385" lon="-122.473060594" visible="true"><tag k="addr:housenumber" v="18447"/><tag k="addr:postcode" v="97233"/><tag k="addr:city" v="Portland"/><tag k="addr:street" v="Southeast Oak Street"/></node>
<node id="-29" lat="45.520066954" lon="-122.472867142" visible="true"><tag k="addr:housenumber" v="18451"/><tag k="addr:postcode" v="97233"/><tag k="addr:city" v="Portland"/><tag k="addr:street" v="Southeast Oak Street"/></node>
<node id="-30" lat="45.520062449" lon="-122.472872206" visible="true"><tag k="addr:housenumber" v="18461"/><tag k="addr:postcode" v="97233"/><tag k="addr:city" v="Portland"/><tag k="addr:street" v="Southeast Oak Street"/></node>
<node id="-31" lat="45.520069247" lon="-122.472871639" visible="true"><tag k="addr:housenumber" v="18471"/><tag k="addr:postcode" v="97233"/><tag k="addr:city" v="Portland"/><tag k="addr:street" v="Southeast Oak Street"/></node>
<node id="-32" lat="45.520300202" lon="-122.473090373" visible="true"><tag k="addr:housenumber" v="18438"/><tag k="addr:postcode" v="97233"/><tag k="addr:city" v="Portland"/><tag k="addr:street" v="Southeast Pine Street"/></node>
<node id="-33" lat="45.520300599" lon="-122.473090517" visible="true"><tag k="addr:housenumber" v="18448"/><tag k="addr:postcode" v="97233"/><tag k="addr:city" v="Portland"/><tag k="addr:street" v="Southeast Pine Street"/></node>
<node id="-34" lat="45.519395542" lon="-122.473943348" visible="true"><tag k="addr:housenumber" v="18345"/><tag k="addr:postcode" v="97233"/><tag k="addr:city" v="Portland"/><tag k="addr:street" v="Southeast Stark Street"/></node>
<node id="-35" lat="45.519398628" lon="-122.473938253" visible="true"><tag k="addr:housenumber" v="18361"/><tag k="addr:postcode" v="97233"/><tag k="addr:city" v="Portland"/><tag k="addr:street" v="Southeast Stark Street"/></node>
<node id="-36" lat="45.519537001" lon="-122.473217629" visible="true"><tag k="addr:housenumber" v="18433"/><tag k="addr:postcode" v="97233"/><tag k="addr:city" v="Portland"/><tag k="addr:street" v="Southeast Stark Street"/></node>
<node id="-37" lat="45.519538134" lon="-122.473218689" visible="true"><tag k="addr:housenumber" v="18449"/><tag k="addr:postcode" v="97233"/><tag k="addr:city" v="Portland"/><tag k="addr:street" v="Southeast Stark Street"/></node>
<node id="-38" lat="45.520089576" lon="-122.471540697" visible="true"><tag k="addr:housenumber" v="18611"/><tag k="addr:postcode" v="97233"/><tag k="addr:city" v="Portland"/><tag k="addr:street" v="Southeast Stark Street"/></node>
<node id="-39" lat="45.520088598" lon="-122.471545766" visible="true"><tag k="addr:housenumber" v="18709"/><tag k="addr:postcode" v="97233"/><tag k="addr:city" v="Portland"/><tag k="addr:street" v="Southeast Stark Street"/></node>
<node id="-40" lat="45.520087746" lon="-122.471540406" visible="true"><tag k="addr:housenumber" v="18719"/><tag k="addr:postcode" v="97233"/><tag k="addr:city" v="Portland"/><tag k="addr:street" v="Southeast Stark Street"/></node>
<node id="-41" lat="45.520086829" lon="-122.471543852" visible="true"><tag k="addr:housenumber" v="18721"/><tag k="addr:postcode" v="97233"/><tag k="addr:city" v="Portland"/><tag k="addr:street" v="Southeast Stark Street"/></node>
<node id="-42" lat="45.520084772" lon="-122.47154239" visible="true"><tag k="addr:housenumber" v="18725"/><tag k="addr:postcode" v="97233"/><tag k="addr:city" v="Portland"/><tag k="addr:street" v="Southeast Stark Street"/></node>
<node id="-43" lat="45.519475928" lon="-122.465826019" visible="true"><tag k="addr:housenumber" v="19125"/><tag k="addr:postcode" v="97233"/><tag k="addr:city" v="Portland"/><tag k="addr:street" v="Southeast Stark Street"/></node>
<node id="-44" lat="45.519479652" lon="-122.465821182" visible="true"><tag k="addr:housenumber" v="19137"/><tag k="addr:postcode" v="97233"/><tag k="addr:city" v="Portland"/><tag k="addr:street" v="Southeast Stark Street"/></node>
</osm>