<?xml version="1.0"?>
<osm version="0.6" upload="false" generator="uvmogr2osm">
<node id="-1" lat="45.51914211" lon="-122.327947955" visible="true"><tag k="addr:housenumber" v="32468"/><tag k="addr:postcode" v="97019"/><tag k="addr:city" v="Corbett"/><tag k="addr:street" v="East Bell Road"/></node>
<node id="-2" lat="45.519137278" lon="-122.327950871" visible="true"><tag k="addr:housenumber" v="32500"/><tag k="addr:postcode" v="97019"/><tag k="addr:city" v="Corbett"/><tag k="addr:street" v="East Bell Road"/></node>
<node id="-3" lat="45.519136761" lon="-122.327946269" visible="true"><tag k="addr:housenumber" v="32510"/><tag k="addr:postcode" v="97019"/><tag k="addr:city" v="Corbett"/><tag k="addr:street" v="East Bell Road"/></node>
<node id="-4" lat="45.519134532" lon="-122.327950097" visible="true"><tag k="addr:housenumber" v="32520"/><tag k="addr:postcode" v="97019"/><tag k="addr:city" v="Corbett"/><tag k="addr:street" v="East Bell Road"/></node>
<node id="-5" lat="45.518483255" lon="-122.329789787" visible="true"><tag k="addr:housenumber" v="32336"/><tag k="addr:postcode" v="97019"/><tag k="addr:city" v="Corbett"/><tag k="addr:street" v="East Historic Columbia River Highway"/></node>
<node id="-6" lat="45.518481863" lon="-122.329787574" visible="true"><tag k="addr:housenumber" v="32338"/><tag k="addr:postcode" v="97019"/><tag k="addr:city" v="Corbett"/><tag k="addr:street" v="East Historic Columbia River Highway"/></node>
<node id="-7" lat="45.519041272" lon="-122.31912904" visible="true"><tag k="addr:housenumber" v="33345"/><tag k="addr:postcode" v="97019"/><tag k="addr:city" v="Corbett"/><tag k="addr:street" v="East Historic Columbia River Highway"/></node>
<node id="-8" lat="45.519046648" lon="-122.319134328" visible="true"><tag k="addr:housenumber" v="33347"/><tag k="addr:postcode" v="97019"/><tag k="addr:city" v="Corbett"/><tag k="addr:street" v="East Historic Columbia River Highway"/></node>
<node id="-9" lat="45.531149311" lon="-122.296729088" visible="true"><tag k="addr:housenumber" v="35525"/><tag k="addr:postcode" v="97019"/><tag k="addr:city" v="Corbett"/><tag k="addr:street" v="East Historic Columbia River Highway"/></node>
<node id="-10" lat="45.53115493" lon="-122.29673361" visible="true"><tag k="addr:housenumber" v="35605"/><tag k="addr:postcode" v="97019"/><tag k="addr:city" v="Corbett"/><tag k="addr:street" v="East Historic Columbia River Highway"/></node>
<node id="-11" lat="45.531146777" lon="-122.296734118" visible="true"><tag k="addr:housenumber" v="35615"/><tag k="addr:postcode" v="97019"/><tag k="addr:city" v="Corbett"/><tag k="addr:street" v="East Historic Columbia River Highway"/></node>
<node id="-12" lat="45.531038084" lon="-122.294965332" visible="true"><tag k="addr:housenumber" v="35811"/><tag k="addr:postcode" v="97019"/><tag k="addr:city" v="Corbett"/><tag k="addr:street" v="East Historic Columbia River Highway"/></node>
<node id="-13" lat="45.531030364" lon="-122.294960742" visible="true"><tag k="addr:housenumber" v="35821"/><tag k="addr:postcode" v="97019"/><tag k="addr:city" v="Corbett"/><tag k="addr:street" v="East Historic Columbia River Highway"/></node>
<node id="-14" lat="45.532923539" lon="-122.293973347" visible="true"><tag k="addr:housenumber" v="35943"/><tag k="addr:postcode" v="97019"/><tag k="addr:city" v="Corbett"/><tag k="addr:street" v="East Historic Columbia River Highway"/></node>
<node id="-15" lat="45.532930205" lon="-122.293977695" visible="true"><tag k="addr:housenumber" v="35955"/><tag k="addr:postcode" v="97019"/><tag k="addr:city" v="Corbett"/><tag k="addr:street" v="East Historic Columbia River Highway"/></node>
<node id="-16" lat="45.530076632" lon="-122.323174073" visible="true"><tag k="addr:housenumber" v="32720"/><tag k="addr:postcode" v="97019"/><tag k="addr:city" v="Corbett"/><tag k="addr:street" v="Northeast Chamberlain Road"/></node>
<node id="-17" lat="45.530079359" lon="-122.323178659" visible="true"><tag k="addr:housenumber" v="32724"/><tag k="addr:postcode" v="97019"/><tag k="addr:city" v="Corbett"/><tag k="addr:street" v="Northeast Chamberlain Road"/></node>
<node id="-18" lat="45.534815921" lon="-122.323685033" visible="true"><tag k="addr:housenumber" v="32880"/><tag k="addr:postcode" v="97019"/><tag k="addr:city" v="Corbett"/><tag k="addr:street" v="Northeast Chamberlain Road"/></node>
<node id="-19" lat="45.534810431" lon="-122.323686489" visible="true"><tag k="addr:housenumber" v="33000"/><tag k="addr:postcode" v="97019"/><tag k="addr:city" v="Corbett"/><tag k="addr:street" v="Northeast Chamberlain Road"/></node>
<node id="-20" lat="45.541061137" lon="-122.291780931" visible="true"><tag k="addr:housenumber" v="2890"/><tag k="addr:postcode" v="97019"/><tag k="addr:city" v="Corbett"/><tag k="addr:street" v="Northeast Rasmussen Road"/></node>
<node id="-21" lat="45.541060037" lon="-122.291786339" visible="true"><tag k="addr:housenumber" v="2980"/><tag k="addr:postcode" v="97019"/><tag k="addr:city" v="Corbett"/><tag k="addr:street" v="Northeast Rasmussen Road"/></node>
<node id="-22" lat="45.518988805" lon="-122.302442779" visible="true"><tag k="addr:housenumber" v="311"/><tag k="addr:postcode" v="97019"/><tag k="addr:city" v="Corbett"/><tag k="addr:street" v="Southeast Evans Road"/></node>
<node id="-23" lat="45.518991452" lon="-122.302441685" visible="true"><tag k="addr:housenumber" v="35000"/><tag k="addr:postcode" v="97019"/><tag k="addr:city" v="Corbett"/><tag k="addr:street" v="Southeast Smith Road"/></node>
</osm>