<?xml version="1.0"?>
<osm version="0.6" upload="false" generator="uvmogr2osm">
<node id="-1" lat="45.537789276" lon="-122.377939323" visible="true"><tag k="addr:housenumber" v="1120"/><tag k="addr:postcode" v="97060"/><tag k="addr:city" v="Troutdale"/><tag k="addr:street" v="East Historic Columbia River Highway"/></node>
<node id="-2" lat="45.537784705" lon="-122.377942093" visible="true"><tag k="addr:housenumber" v="1208"/><tag k="addr:postcode" v="97060"/><tag k="addr:city" v="Troutdale"/><tag k="addr:street" v="East Historic Columbia River Highway"/></node>
<node id="-3" lat="45.538153692" lon="-122.381700823" visible="true"><tag k="addr:housenumber" v="729"/><tag k="addr:postcode" v="97060"/><tag k="addr:city" v="Troutdale"/><tag k="addr:street" v="East Historic Columbia River Highway"/></node>
<node id="-4" lat="45.538019307" lon="-122.381560784" visible="true"><tag k="addr:housenumber" v="739"/><tag k="addr:postcode" v="97060"/><tag k="addr:city" v="Troutdale"/><tag k="addr:street" v="East Historic Columbia River Highway"/></node>
<node id="-5" lat="45.537886" lon="-122.381331714" visible="true"><tag k="addr:housenumber" v="741"/><tag k="addr:postcode" v="97060"/><tag k="addr:city" v="Troutdale"/><tag k="addr:street" v="East Historic Columbia River Highway"/></node>
<node id="-6" lat="45.53785682" lon="-122.381306028" visible="true"><tag k="addr:housenumber" v="745"/><tag k="addr:postcode" v="97060"/><tag k="addr:city" v="Troutdale"/><tag k="addr:street" v="East Historic Columbia River Highway"/></node>
<node id="-7" lat="45.507471966" lon="-122.352620945" visible="true"><tag k="addr:housenumber" v="2031"/><tag k="addr:postcode" v="97060"/><tag k="addr:city" v="Troutdale"/><tag k="addr:street" v="Southeast 302nd Avenue"/></node>
<node id="-8" lat="45.507476136" lon="-122.352620051" visible="true"><tag k="addr:housenumber" v="2126"/><tag k="addr:postcode" v="97060"/><tag k="addr:city" v="Troutdale"/><tag k="addr:street" v="Southeast 302nd Avenue"/></node>
<node id="-9" lat="45.52225536" lon="-122.37038227" visible="true"><tag k="addr:housenumber" v="24"/><tag k="addr:postcode" v="97060"/><tag k="addr:city" v="Troutdale"/><tag k="addr:street" v="Southeast Sandy Dell Road"/></node>
<node id="-10" lat="45.522257633" lon="-122.370381688" visible="true"><tag k="addr:housenumber" v="26"/><tag k="addr:postcode" v="97060"/><tag k="addr:city" v="Troutdale"/><tag k="addr:street" v="Southeast Sandy Dell Road"/></node>
</osm>