<?xml version="1.0"?>
<osm version="0.6" upload="false" generator="uvmogr2osm">
<node id="-1" lat="45.462399037" lon="-122.689611876" visible="true"><tag k="addr:housenumber" v="8630"/><tag k="addr:postcode" v="97219"/><tag k="addr:city" v="Portland"/><tag k="addr:street" v="Southwest 11th Avenue"/></node>
<node id="-2" lat="45.462394675" lon="-122.6896123" visible="true"><tag k="addr:housenumber" v="8632"/><tag k="addr:postcode" v="97219"/><tag k="addr:city" v="Portland"/><tag k="addr:street" v="Southwest 11th Avenue"/></node>
<node id="-3" lat="45.462400683" lon="-122.68960882" visible="true"><tag k="addr:housenumber" v="8634"/><tag k="addr:postcode" v="97219"/><tag k="addr:city" v="Portland"/><tag k="addr:street" v="Southwest 11th Avenue"/></node>
<node id="-4" lat="45.463926502" lon="-122.682766552" visible="true"><tag k="addr:housenumber" v="8401"/><tag k="addr:postcode" v="97219"/><tag k="addr:city" v="Portland"/><tag k="addr:street" v="Southwest 4th Avenue"/></node>
<node id="-5" lat="45.463931793" lon="-122.682764744" visible="true"><tag k="addr:housenumber" v="8413"/><tag k="addr:postcode" v="97219"/><tag k="addr:city" v="Portland"/><tag k="addr:street" v="Southwest 4th Avenue"/></node>
<node id="-6" lat="45.463719706" lon="-122.683165101" visible="true"><tag k="addr:housenumber" v="8414"/><tag k="addr:postcode" v="97219"/><tag k="addr:city" v="Portland"/><tag k="addr:street" v="Southwest 5th Avenue"/></node>
<node id="-7" lat="45.463714862" lon="-122.683163108" visible="true"><tag k="addr:housenumber" v="8416"/><tag k="addr:postcode" v="97219"/><tag k="addr:city" v="Portland"/><tag k="addr:street" v="Southwest 5th Avenue"/></node>
<node id="-8" lat="45.463716819" lon="-122.683169545" visible="true"><tag k="addr:housenumber" v="8418"/><tag k="addr:postcode" v="97219"/><tag k="addr:city" v="Portland"/><tag k="addr:street" v="Southwest 5th Avenue"/></node>
<node id="-9" lat="45.463720128" lon="-122.683160644" visible="true"><tag k="addr:housenumber" v="8420"/><tag k="addr:postcode" v="97219"/><tag k="addr:city" v="Portland"/><tag k="addr:street" v="Southwest 5th Avenue"/></node>
<node id="-10" lat="45.46371763" lon="-122.683164863" visible="true"><tag k="addr:housenumber" v="8424"/><tag k="addr:postcode" v="97219"/><tag k="addr:city" v="Portland"/><tag k="addr:street" v="Southwest 5th Avenue"/></node>
<node id="-11" lat="45.46526673" lon="-122.684177495" visible="true"><tag k="addr:housenumber" v="8214"/><tag k="addr:postcode" v="97219"/><tag k="addr:city" v="Portland"/><tag k="addr:street" v="Southwest 6th Avenue"/></node>
<node id="-12" lat="45.4640407" lon="-122.684798881" visible="true"><tag k="addr:housenumber" v="8403"/><tag k="addr:postcode" v="97219"/><tag k="addr:city" v="Portland"/><tag k="addr:street" v="Southwest 6th Avenue"/></node>
<node id="-13" lat="45.46404124" lon="-122.684793418" visible="true"><tag k="addr:housenumber" v="8405"/><tag k="addr:postcode" v="97219"/><tag k="addr:city" v="Portland"/><tag k="addr:street" v="Southwest 6th Avenue"/></node>
<node id="-14" lat="45.463902633" lon="-122.684795949" visible="true"><tag k="addr:housenumber" v="8415"/><tag k="addr:postcode" v="97219"/><tag k="addr:city" v="Portland"/><tag k="addr:street" v="Southwest 6th Avenue"/></node>
<node id="-15" lat="45.463903833" lon="-122.684797088" visible="true"><tag k="addr:housenumber" v="8417"/><tag k="addr:postcode" v="97219"/><tag k="addr:city" v="Portland"/><tag k="addr:street" v="Southwest 6th Avenue"/></node>
<node id="-16" lat="45.463778348" lon="-122.685804109" visible="true"><tag k="addr:housenumber" v="8425"/><tag k="addr:postcode" v="97219"/><tag k="addr:city" v="Portland"/><tag k="addr:street" v="Southwest 7th Avenue"/></node>
<node id="-17" lat="45.463778625" lon="-122.685804752" visible="true"><tag k="addr:housenumber" v="8427"/><tag k="addr:postcode" v="97219"/><tag k="addr:city" v="Portland"/><tag k="addr:street" v="Southwest 7th Avenue"/></node>
<node id="-18" lat="45.463406889" lon="-122.686822671" visible="true"><tag k="addr:housenumber" v="8503"/><tag k="addr:postcode" v="97219"/><tag k="addr:city" v="Portland"/><tag k="addr:street" v="Southwest 8th Avenue"/></node>
<node id="-19" lat="45.46340652" lon="-122.686824636" visible="true"><tag k="addr:housenumber" v="8505"/><tag k="addr:postcode" v="97219"/><tag k="addr:city" v="Portland"/><tag k="addr:street" v="Southwest 8th Avenue"/></node>
<node id="-20" lat="45.461669443" lon="-122.685447721" visible="true"><tag k="addr:housenumber" v="620"/><tag k="addr:postcode" v="97219"/><tag k="addr:city" v="Portland"/><tag k="addr:street" v="Southwest Dolph Street"/></node>
<node id="-21" lat="45.461664802" lon="-122.685452735" visible="true"><tag k="addr:housenumber" v="622"/><tag k="addr:postcode" v="97219"/><tag k="addr:city" v="Portland"/><tag k="addr:street" v="Southwest Dolph Street"/></node>
<node id="-22" lat="45.462677907" lon="-122.690730465" visible="true"><tag k="addr:housenumber" v="1214"/><tag k="addr:postcode" v="97219"/><tag k="addr:city" v="Portland"/><tag k="addr:street" v="Southwest Freeman Street"/></node>
<node id="-23" lat="45.465053843" lon="-122.691834628" visible="true"><tag k="addr:housenumber" v="1301"/><tag k="addr:postcode" v="97219"/><tag k="addr:city" v="Portland"/><tag k="addr:street" v="Southwest Hume Court"/></node>
<node id="-24" lat="45.46505104" lon="-122.691838234" visible="true"><tag k="addr:housenumber" v="1303"/><tag k="addr:postcode" v="97219"/><tag k="addr:city" v="Portland"/><tag k="addr:street" v="Southwest Hume Court"/></node>
<node id="-25" lat="45.46526843" lon="-122.684179408" visible="true"><tag k="addr:housenumber" v="530"/><tag k="addr:postcode" v="97219"/><tag k="addr:city" v="Portland"/><tag k="addr:street" v="Southwest Hume Street"/></node>
<node id="-26" lat="45.462680048" lon="-122.690730119" visible="true"><tag k="addr:housenumber" v="1115"/><tag k="addr:postcode" v="97219"/><tag k="addr:city" v="Portland"/><tag k="addr:street" v="Southwest Taylors Ferry Road"/></node>
<node id="-27" lat="45.461644736" lon="-122.68517827" visible="true"><tag k="addr:housenumber" v="8707"/><tag k="addr:postcode" v="97219"/><tag k="addr:city" v="Portland"/><tag k="addr:street" v="Southwest Terwilliger Boulevard"/></node>
<node id="-28" lat="45.461645649" lon="-122.685184262" visible="true"><tag k="addr:housenumber" v="8717"/><tag k="addr:postcode" v="97219"/><tag k="addr:city" v="Portland"/><tag k="addr:street" v="Southwest Terwilliger Boulevard"/></node>
<node id="-29" lat="45.461642912" lon="-122.685175708" visible="true"><tag k="addr:housenumber" v="8727"/><tag k="addr:postcode" v="97219"/><tag k="addr:city" v="Portland"/><tag k="addr:street" v="Southwest Terwilliger Boulevard"/></node>
</osm>