<?xml version="1.0"?>
<osm version="0.6" upload="false" generator="uvmogr2osm">
<node id="-1" lat="45.475272155" lon="-122.627958877" visible="true"><tag k="addr:housenumber" v="6536"/><tag k="addr:postcode" v="97202"/><tag k="addr:city" v="Portland"/><tag k="addr:street" v="Southeast 34th Avenue"/></node>
<node id="-2" lat="45.469051881" lon="-122.62755205" visible="true"><tag k="addr:housenumber" v="7531"/><tag k="addr:postcode" v="97202"/><tag k="addr:city" v="Portland"/><tag k="addr:street" v="Southeast 35th Avenue"/></node>
<node id="-3" lat="45.470229359" lon="-122.622283574" visible="true"><tag k="addr:housenumber" v="7314"/><tag k="addr:postcode" v="97202"/><tag k="addr:city" v="Portland"/><tag k="addr:street" v="Southeast 39th Avenue"/></node>
<node id="-4" lat="45.4726359" lon="-122.625323973" visible="true"><tag k="addr:housenumber" v="1645"/><tag k="addr:postcode" v="97202"/><tag k="addr:city" v="Portland"/><tag k="addr:street" v="Southeast Bybee Boulevard"/></node>
<node id="-5" lat="45.472637236" lon="-122.625331397" visible="true"><tag k="addr:housenumber" v="3645"/><tag k="addr:postcode" v="97202"/><tag k="addr:city" v="Portland"/><tag k="addr:street" v="Southeast Bybee Boulevard"/></node>
<node id="-6" lat="45.472610395" lon="-122.622169838" visible="true"><tag k="addr:housenumber" v="3917"/><tag k="addr:postcode" v="97202"/><tag k="addr:city" v="Portland"/><tag k="addr:street" v="Southeast Bybee Boulevard"/></node>
<node id="-7" lat="45.472608268" lon="-122.622174945" visible="true"><tag k="addr:housenumber" v="3919"/><tag k="addr:postcode" v="97202"/><tag k="addr:city" v="Portland"/><tag k="addr:street" v="Southeast Bybee Boulevard"/></node>
<node id="-8" lat="45.474867923" lon="-122.627628652" visible="true"><tag k="addr:housenumber" v="3424"/><tag k="addr:postcode" v="97202"/><tag k="addr:city" v="Portland"/><tag k="addr:street" v="Southeast Claybourne Street"/></node>
<node id="-9" lat="45.475274634" lon="-122.627962961" visible="true"><tag k="addr:housenumber" v="3425"/><tag k="addr:postcode" v="97202"/><tag k="addr:city" v="Portland"/><tag k="addr:street" v="Southeast Claybourne Street"/></node>
<node id="-10" lat="45.470844341" lon="-122.62228855" visible="true"><tag k="addr:housenumber" v="7220"/><tag k="addr:postcode" v="97202"/><tag k="addr:city" v="Portland"/><tag k="addr:street" v="Southeast C&#233;sar E. Ch&#225;vez Boulevard"/></node>
<node id="-11" lat="45.470227657" lon="-122.622280717" visible="true"><tag k="addr:housenumber" v="7310"/><tag k="addr:postcode" v="97202"/><tag k="addr:city" v="Portland"/><tag k="addr:street" v="Southeast C&#233;sar E. Ch&#225;vez Boulevard"/></node>
<node id="-12" lat="45.46933571" lon="-122.622370564" visible="true"><tag k="addr:housenumber" v="7423"/><tag k="addr:postcode" v="97202"/><tag k="addr:city" v="Portland"/><tag k="addr:street" v="Southeast C&#233;sar E. Ch&#225;vez Boulevard"/></node>
<node id="-13" lat="45.469332631" lon="-122.622370954" visible="true"><tag k="addr:housenumber" v="7432"/><tag k="addr:postcode" v="97202"/><tag k="addr:city" v="Portland"/><tag k="addr:street" v="Southeast C&#233;sar E. Ch&#225;vez Boulevard"/></node>
<node id="-14" lat="45.474868566" lon="-122.627620764" visible="true"><tag k="addr:housenumber" v="3425"/><tag k="addr:postcode" v="97202"/><tag k="addr:city" v="Portland"/><tag k="addr:street" v="Southeast Glenwood Street"/></node>
<node id="-15" lat="45.474441722" lon="-122.625336316" visible="true"><tag k="addr:housenumber" v="3652"/><tag k="addr:postcode" v="97202"/><tag k="addr:city" v="Portland"/><tag k="addr:street" v="Southeast Glenwood Street"/></node>
<node id="-16" lat="45.474447211" lon="-122.625211845" visible="true"><tag k="addr:housenumber" v="3664"/><tag k="addr:postcode" v="97202"/><tag k="addr:city" v="Portland"/><tag k="addr:street" v="Southeast Glenwood Street"/></node>
<node id="-17" lat="45.47030192" lon="-122.623654757" visible="true"><tag k="addr:housenumber" v="3732"/><tag k="addr:postcode" v="97202"/><tag k="addr:city" v="Portland"/><tag k="addr:street" v="Southeast Knapp Street"/></node>
<node id="-18" lat="45.470365759" lon="-122.622286297" visible="true"><tag k="addr:housenumber" v="3916"/><tag k="addr:postcode" v="97202"/><tag k="addr:city" v="Portland"/><tag k="addr:street" v="Southeast Knapp Street"/></node>
<node id="-19" lat="45.470842461" lon="-122.622289711" visible="true"><tag k="addr:housenumber" v="3917"/><tag k="addr:postcode" v="97202"/><tag k="addr:city" v="Portland"/><tag k="addr:street" v="Southeast Knapp Street"/></node>
<node id="-20" lat="45.4703623" lon="-122.622284379" visible="true"><tag k="addr:housenumber" v="3918"/><tag k="addr:postcode" v="97202"/><tag k="addr:city" v="Portland"/><tag k="addr:street" v="Southeast Knapp Street"/></node>
<node id="-21" lat="45.471404265" lon="-122.622116992" visible="true"><tag k="addr:housenumber" v="3905"/><tag k="addr:postcode" v="97202"/><tag k="addr:city" v="Portland"/><tag k="addr:street" v="Southeast Ogden Street"/></node>
<node id="-22" lat="45.47139324" lon="-122.622143055" visible="true"><tag k="addr:housenumber" v="3911"/><tag k="addr:postcode" v="97202"/><tag k="addr:city" v="Portland"/><tag k="addr:street" v="Southeast Ogden Street"/></node>
<node id="-23" lat="45.469045263" lon="-122.627548821" visible="true"><tag k="addr:housenumber" v="3431"/><tag k="addr:postcode" v="97202"/><tag k="addr:city" v="Portland"/><tag k="addr:street" v="Southeast Rex Street"/></node>
<node id="-24" lat="45.470292525" lon="-122.623657879" visible="true"><tag k="addr:housenumber" v="7171"/><tag k="addr:postcode" v="97219"/><tag k="addr:city" v="Portland"/><tag k="addr:street" v="Southwest 46th Avenue"/></node>
</osm>