<?xml version="1.0"?>
<osm version="0.6" upload="false" generator="uvmogr2osm">
<node id="-1" lat="45.440785238" lon="-122.713811563" visible="true"><tag k="addr:housenumber" v="11601"/><tag k="addr:postcode" v="97219"/><tag k="addr:city" v="Portland"/><tag k="addr:street" v="Southwest 35th Avenue"/></node>
<node id="-2" lat="45.445651941" lon="-122.715360578" visible="true"><tag k="addr:housenumber" v="11025"/><tag k="addr:postcode" v="97219"/><tag k="addr:city" v="Portland"/><tag k="addr:street" v="Southwest 37th Avenue"/></node>
<node id="-3" lat="45.440768198" lon="-122.716835353" visible="true"><tag k="addr:housenumber" v="11724"/><tag k="addr:postcode" v="97219"/><tag k="addr:city" v="Portland"/><tag k="addr:street" v="Southwest 39th Avenue"/></node>
<node id="-4" lat="45.451259989" lon="-122.718200116" visible="true"><tag k="addr:housenumber" v="10231"/><tag k="addr:postcode" v="97219"/><tag k="addr:city" v="Portland"/><tag k="addr:street" v="Southwest 40th Avenue"/></node>
<node id="-5" lat="45.44867761" lon="-122.722063382" visible="true"><tag k="addr:housenumber" v="10639"/><tag k="addr:postcode" v="97219"/><tag k="addr:city" v="Portland"/><tag k="addr:street" v="Southwest 43rd Avenue"/></node>
<node id="-6" lat="45.447892175" lon="-122.721531027" visible="true"><tag k="addr:housenumber" v="10736"/><tag k="addr:postcode" v="97219"/><tag k="addr:city" v="Portland"/><tag k="addr:street" v="Southwest 43rd Avenue"/></node>
<node id="-7" lat="45.44519704" lon="-122.720742225" visible="true"><tag k="addr:housenumber" v="11106"/><tag k="addr:postcode" v="97219"/><tag k="addr:city" v="Portland"/><tag k="addr:street" v="Southwest 43rd Avenue"/></node>
<node id="-8" lat="45.451261463" lon="-122.718202123" visible="true"><tag k="addr:housenumber" v="4013"/><tag k="addr:postcode" v="97219"/><tag k="addr:city" v="Portland"/><tag k="addr:street" v="Southwest Alfred Street"/></node>
<node id="-9" lat="45.454190792" lon="-122.721293125" visible="true"><tag k="addr:housenumber" v="9815"/><tag k="addr:postcode" v="97219"/><tag k="addr:city" v="Portland"/><tag k="addr:street" v="Southwest Capitol Highway"/></node>
<node id="-10" lat="45.454183929" lon="-122.721289319" visible="true"><tag k="addr:housenumber" v="9817"/><tag k="addr:postcode" v="97219"/><tag k="addr:city" v="Portland"/><tag k="addr:street" v="Southwest Capitol Highway"/></node>
<node id="-11" lat="45.454186687" lon="-122.721288544" visible="true"><tag k="addr:housenumber" v="9819"/><tag k="addr:postcode" v="97219"/><tag k="addr:city" v="Portland"/><tag k="addr:street" v="Southwest Capitol Highway"/></node>
<node id="-12" lat="45.454187885" lon="-122.721294316" visible="true"><tag k="addr:housenumber" v="9821"/><tag k="addr:postcode" v="97219"/><tag k="addr:city" v="Portland"/><tag k="addr:street" v="Southwest Capitol Highway"/></node>
<node id="-13" lat="45.454187388" lon="-122.721295184" visible="true"><tag k="addr:housenumber" v="9823"/><tag k="addr:postcode" v="97219"/><tag k="addr:city" v="Portland"/><tag k="addr:street" v="Southwest Capitol Highway"/></node>
<node id="-14" lat="45.454181486" lon="-122.721291335" visible="true"><tag k="addr:housenumber" v="9825"/><tag k="addr:postcode" v="97219"/><tag k="addr:city" v="Portland"/><tag k="addr:street" v="Southwest Capitol Highway"/></node>
<node id="-15" lat="45.454190475" lon="-122.721292166" visible="true"><tag k="addr:housenumber" v="9855"/><tag k="addr:postcode" v="97219"/><tag k="addr:city" v="Portland"/><tag k="addr:street" v="Southwest Capitol Highway"/></node>
<node id="-16" lat="45.447894631" lon="-122.721531909" visible="true"><tag k="addr:housenumber" v="4343"/><tag k="addr:postcode" v="97219"/><tag k="addr:city" v="Portland"/><tag k="addr:street" v="Southwest Dickinson Street"/></node>
<node id="-17" lat="45.447895787" lon="-122.721533184" visible="true"><tag k="addr:housenumber" v="4310"/><tag k="addr:postcode" v="97219"/><tag k="addr:city" v="Portland"/><tag k="addr:street" v="Southwest Galeburn Street"/></node>
<node id="-18" lat="45.448678167" lon="-122.722060881" visible="true"><tag k="addr:housenumber" v="4334"/><tag k="addr:postcode" v="97219"/><tag k="addr:city" v="Portland"/><tag k="addr:street" v="Southwest Galeburn Street"/></node>
<node id="-19" lat="45.44564337" lon="-122.715365619" visible="true"><tag k="addr:housenumber" v="3705"/><tag k="addr:postcode" v="97219"/><tag k="addr:city" v="Portland"/><tag k="addr:street" v="Southwest Pomona Street"/></node>
<node id="-20" lat="45.445644919" lon="-122.715357694" visible="true"><tag k="addr:housenumber" v="3711"/><tag k="addr:postcode" v="97219"/><tag k="addr:city" v="Portland"/><tag k="addr:street" v="Southwest Pomona Street"/></node>
<node id="-21" lat="45.445193189" lon="-122.720738748" visible="true"><tag k="addr:housenumber" v="4240"/><tag k="addr:postcode" v="97219"/><tag k="addr:city" v="Portland"/><tag k="addr:street" v="Southwest Pomona Street"/></node>
<node id="-22" lat="45.440766838" lon="-122.716830254" visible="true"><tag k="addr:housenumber" v="3705"/><tag k="addr:postcode" v="97219"/><tag k="addr:city" v="Portland"/><tag k="addr:street" v="Southwest Stephenson Street"/></node>
<node id="-23" lat="45.440782459" lon="-122.713809492" visible="true"><tag k="addr:housenumber" v="3542"/><tag k="addr:postcode" v="97219"/><tag k="addr:city" v="Portland"/><tag k="addr:street" v="Southwest Vesta Street"/></node>
</osm>