<?xml version="1.0"?>
<osm version="0.6" upload="false" generator="uvmogr2osm">
<node id="-1" lat="45.468579985" lon="-122.64732466" visible="true"><tag k="addr:housenumber" v="7749"/><tag k="addr:postcode" v="97202"/><tag k="addr:city" v="Portland"/><tag k="addr:street" v="Southeast 17th Avenue"/></node>
<node id="-2" lat="45.46858078" lon="-122.647321925" visible="true"><tag k="addr:housenumber" v="7755"/><tag k="addr:postcode" v="97202"/><tag k="addr:city" v="Portland"/><tag k="addr:street" v="Southeast 17th Avenue"/></node>
<node id="-3" lat="45.468114239" lon="-122.647532746" visible="true"><tag k="addr:housenumber" v="7805"/><tag k="addr:postcode" v="97202"/><tag k="addr:city" v="Portland"/><tag k="addr:street" v="Southeast 17th Avenue"/></node>
<node id="-4" lat="45.467229985" lon="-122.646768974" visible="true"><tag k="addr:housenumber" v="7878"/><tag k="addr:postcode" v="97202"/><tag k="addr:city" v="Portland"/><tag k="addr:street" v="Southeast 17th Avenue"/></node>
<node id="-5" lat="45.466895351" lon="-122.647262824" visible="true"><tag k="addr:housenumber" v="7903"/><tag k="addr:postcode" v="97202"/><tag k="addr:city" v="Portland"/><tag k="addr:street" v="Southeast 17th Avenue"/></node>
<node id="-6" lat="45.466889932" lon="-122.647261126" visible="true"><tag k="addr:housenumber" v="7905"/><tag k="addr:postcode" v="97202"/><tag k="addr:city" v="Portland"/><tag k="addr:street" v="Southeast 17th Avenue"/></node>
<node id="-7" lat="45.466898939" lon="-122.647261452" visible="true"><tag k="addr:housenumber" v="7907"/><tag k="addr:postcode" v="97202"/><tag k="addr:city" v="Portland"/><tag k="addr:street" v="Southeast 17th Avenue"/></node>
<node id="-8" lat="45.466894264" lon="-122.647259806" visible="true"><tag k="addr:housenumber" v="7909"/><tag k="addr:postcode" v="97202"/><tag k="addr:city" v="Portland"/><tag k="addr:street" v="Southeast 17th Avenue"/></node>
<node id="-9" lat="45.466617307" lon="-122.646720145" visible="true"><tag k="addr:housenumber" v="7924"/><tag k="addr:postcode" v="97202"/><tag k="addr:city" v="Portland"/><tag k="addr:street" v="Southeast 17th Avenue"/></node>
<node id="-10" lat="45.465385304" lon="-122.647298232" visible="true"><tag k="addr:housenumber" v="8021"/><tag k="addr:postcode" v="97202"/><tag k="addr:city" v="Portland"/><tag k="addr:street" v="Southeast 17th Avenue"/></node>
<node id="-11" lat="45.465383103" lon="-122.647298676" visible="true"><tag k="addr:housenumber" v="8023"/><tag k="addr:postcode" v="97202"/><tag k="addr:city" v="Portland"/><tag k="addr:street" v="Southeast 17th Avenue"/></node>
<node id="-12" lat="45.465382788" lon="-122.647300488" visible="true"><tag k="addr:housenumber" v="8029"/><tag k="addr:postcode" v="97202"/><tag k="addr:city" v="Portland"/><tag k="addr:street" v="Southeast 17th Avenue"/></node>
<node id="-13" lat="45.46538636" lon="-122.647300037" visible="true"><tag k="addr:housenumber" v="8031"/><tag k="addr:postcode" v="97202"/><tag k="addr:city" v="Portland"/><tag k="addr:street" v="Southeast 17th Avenue"/></node>
<node id="-14" lat="45.46537861" lon="-122.647304706" visible="true"><tag k="addr:housenumber" v="8039"/><tag k="addr:postcode" v="97202"/><tag k="addr:city" v="Portland"/><tag k="addr:street" v="Southeast 17th Avenue"/></node>
<node id="-15" lat="45.464888163" lon="-122.647340004" visible="true"><tag k="addr:housenumber" v="8051"/><tag k="addr:postcode" v="97202"/><tag k="addr:city" v="Portland"/><tag k="addr:street" v="Southeast 17th Avenue"/></node>
<node id="-16" lat="45.464883085" lon="-122.647336184" visible="true"><tag k="addr:housenumber" v="8055"/><tag k="addr:postcode" v="97202"/><tag k="addr:city" v="Portland"/><tag k="addr:street" v="Southeast 17th Avenue"/></node>
<node id="-17" lat="45.463418703" lon="-122.64644881" visible="true"><tag k="addr:housenumber" v="8220"/><tag k="addr:postcode" v="97202"/><tag k="addr:city" v="Portland"/><tag k="addr:street" v="Southeast 17th Avenue"/></node>
<node id="-18" lat="45.463051811" lon="-122.646726213" visible="true"><tag k="addr:housenumber" v="8234"/><tag k="addr:postcode" v="97202"/><tag k="addr:city" v="Portland"/><tag k="addr:street" v="Southeast 17th Avenue"/></node>
<node id="-19" lat="45.463113482" lon="-122.647439351" visible="true"><tag k="addr:housenumber" v="8235"/><tag k="addr:postcode" v="97202"/><tag k="addr:city" v="Portland"/><tag k="addr:street" v="Southeast 17th Avenue"/></node>
<node id="-20" lat="45.463050305" lon="-122.646729915" visible="true"><tag k="addr:housenumber" v="8236"/><tag k="addr:postcode" v="97202"/><tag k="addr:city" v="Portland"/><tag k="addr:street" v="Southeast 17th Avenue"/></node>
<node id="-21" lat="45.463118605" lon="-122.647444403" visible="true"><tag k="addr:housenumber" v="8237"/><tag k="addr:postcode" v="97202"/><tag k="addr:city" v="Portland"/><tag k="addr:street" v="Southeast 17th Avenue"/></node>
<node id="-22" lat="45.462681033" lon="-122.646726011" visible="true"><tag k="addr:housenumber" v="8306"/><tag k="addr:postcode" v="97202"/><tag k="addr:city" v="Portland"/><tag k="addr:street" v="Southeast 17th Avenue"/></node>
<node id="-23" lat="45.462673951" lon="-122.646727735" visible="true"><tag k="addr:housenumber" v="8310"/><tag k="addr:postcode" v="97202"/><tag k="addr:city" v="Portland"/><tag k="addr:street" v="Southeast 17th Avenue"/></node>
<node id="-24" lat="45.462405438" lon="-122.64734369" visible="true"><tag k="addr:housenumber" v="8325"/><tag k="addr:postcode" v="97202"/><tag k="addr:city" v="Portland"/><tag k="addr:street" v="Southeast 17th Avenue"/></node>
<node id="-25" lat="45.46240194" lon="-122.646725909" visible="true"><tag k="addr:housenumber" v="8326"/><tag k="addr:postcode" v="97202"/><tag k="addr:city" v="Portland"/><tag k="addr:street" v="Southeast 17th Avenue"/></node>
<node id="-26" lat="45.46239949" lon="-122.647346183" visible="true"><tag k="addr:housenumber" v="8331"/><tag k="addr:postcode" v="97202"/><tag k="addr:city" v="Portland"/><tag k="addr:street" v="Southeast 17th Avenue"/></node>
<node id="-27" lat="45.462407254" lon="-122.647340477" visible="true"><tag k="addr:housenumber" v="8333"/><tag k="addr:postcode" v="97202"/><tag k="addr:city" v="Portland"/><tag k="addr:street" v="Southeast 17th Avenue"/></node>
<node id="-28" lat="45.462408367" lon="-122.646724876" visible="true"><tag k="addr:housenumber" v="8334"/><tag k="addr:postcode" v="97202"/><tag k="addr:city" v="Portland"/><tag k="addr:street" v="Southeast 17th Avenue"/></node>
<node id="-29" lat="45.462407807" lon="-122.647339795" visible="true"><tag k="addr:housenumber" v="8335"/><tag k="addr:postcode" v="97202"/><tag k="addr:city" v="Portland"/><tag k="addr:street" v="Southeast 17th Avenue"/></node>
<node id="-30" lat="45.46240179" lon="-122.647339068" visible="true"><tag k="addr:housenumber" v="8337"/><tag k="addr:postcode" v="97202"/><tag k="addr:city" v="Portland"/><tag k="addr:street" v="Southeast 17th Avenue"/></node>
<node id="-31" lat="45.462038009" lon="-122.647340536" visible="true"><tag k="addr:housenumber" v="8401"/><tag k="addr:postcode" v="97202"/><tag k="addr:city" v="Portland"/><tag k="addr:street" v="Southeast 17th Avenue"/></node>
<node id="-32" lat="45.462034061" lon="-122.647344753" visible="true"><tag k="addr:housenumber" v="8405"/><tag k="addr:postcode" v="97202"/><tag k="addr:city" v="Portland"/><tag k="addr:street" v="Southeast 17th Avenue"/></node>
<node id="-33" lat="45.461691169" lon="-122.647346009" visible="true"><tag k="addr:housenumber" v="8433"/><tag k="addr:postcode" v="97202"/><tag k="addr:city" v="Portland"/><tag k="addr:street" v="Southeast 17th Avenue"/></node>
<node id="-34" lat="45.461687896" lon="-122.647346255" visible="true"><tag k="addr:housenumber" v="8435"/><tag k="addr:postcode" v="97202"/><tag k="addr:city" v="Portland"/><tag k="addr:street" v="Southeast 17th Avenue"/></node>
<node id="-35" lat="45.464596475" lon="-122.644834283" visible="true"><tag k="addr:housenumber" v="8064"/><tag k="addr:postcode" v="97202"/><tag k="addr:city" v="Portland"/><tag k="addr:street" v="Southeast 19th Avenue"/></node>
<node id="-36" lat="45.464592684" lon="-122.644836031" visible="true"><tag k="addr:housenumber" v="8070"/><tag k="addr:postcode" v="97202"/><tag k="addr:city" v="Portland"/><tag k="addr:street" v="Southeast 19th Avenue"/></node>
<node id="-37" lat="45.464032478" lon="-122.645365219" visible="true"><tag k="addr:housenumber" v="8115"/><tag k="addr:postcode" v="97202"/><tag k="addr:city" v="Portland"/><tag k="addr:street" v="Southeast 19th Avenue"/></node>
<node id="-38" lat="45.464035039" lon="-122.645360662" visible="true"><tag k="addr:housenumber" v="8117"/><tag k="addr:postcode" v="97202"/><tag k="addr:city" v="Portland"/><tag k="addr:street" v="Southeast 19th Avenue"/></node>
<node id="-39" lat="45.463901494" lon="-122.645357226" visible="true"><tag k="addr:housenumber" v="8123"/><tag k="addr:postcode" v="97202"/><tag k="addr:city" v="Portland"/><tag k="addr:street" v="Southeast 19th Avenue"/></node>
<node id="-40" lat="45.463901222" lon="-122.645364209" visible="true"><tag k="addr:housenumber" v="8125"/><tag k="addr:postcode" v="97202"/><tag k="addr:city" v="Portland"/><tag k="addr:street" v="Southeast 19th Avenue"/></node>
<node id="-41" lat="45.463827169" lon="-122.644836719" visible="true"><tag k="addr:housenumber" v="8132"/><tag k="addr:postcode" v="97202"/><tag k="addr:city" v="Portland"/><tag k="addr:street" v="Southeast 19th Avenue"/></node>
<node id="-42" lat="45.463833375" lon="-122.644836667" visible="true"><tag k="addr:housenumber" v="8134"/><tag k="addr:postcode" v="97202"/><tag k="addr:city" v="Portland"/><tag k="addr:street" v="Southeast 19th Avenue"/></node>
<node id="-43" lat="45.463185582" lon="-122.644812353" visible="true"><tag k="addr:housenumber" v="8218"/><tag k="addr:postcode" v="97202"/><tag k="addr:city" v="Portland"/><tag k="addr:street" v="Southeast 19th Avenue"/></node>
<node id="-44" lat="45.463190949" lon="-122.644802522" visible="true"><tag k="addr:housenumber" v="8226"/><tag k="addr:postcode" v="97202"/><tag k="addr:city" v="Portland"/><tag k="addr:street" v="Southeast 19th Avenue"/></node>
<node id="-45" lat="45.462611472" lon="-122.644738499" visible="true"><tag k="addr:housenumber" v="8312"/><tag k="addr:postcode" v="97202"/><tag k="addr:city" v="Portland"/><tag k="addr:street" v="Southeast 19th Avenue"/></node>
<node id="-46" lat="45.462610619" lon="-122.644738431" visible="true"><tag k="addr:housenumber" v="8318"/><tag k="addr:postcode" v="97202"/><tag k="addr:city" v="Portland"/><tag k="addr:street" v="Southeast 19th Avenue"/></node>
<node id="-47" lat="45.461759528" lon="-122.645362713" visible="true"><tag k="addr:housenumber" v="8423"/><tag k="addr:postcode" v="97202"/><tag k="addr:city" v="Portland"/><tag k="addr:street" v="Southeast 19th Avenue"/></node>
<node id="-48" lat="45.461759248" lon="-122.645368191" visible="true"><tag k="addr:housenumber" v="8425"/><tag k="addr:postcode" v="97202"/><tag k="addr:city" v="Portland"/><tag k="addr:street" v="Southeast 19th Avenue"/></node>
<node id="-49" lat="45.466774585" lon="-122.6427374" visible="true"><tag k="addr:housenumber" v="7920"/><tag k="addr:postcode" v="97202"/><tag k="addr:city" v="Portland"/><tag k="addr:street" v="Southeast 21st Avenue"/></node>
<node id="-50" lat="45.466777224" lon="-122.642736841" visible="true"><tag k="addr:housenumber" v="7922"/><tag k="addr:postcode" v="97202"/><tag k="addr:city" v="Portland"/><tag k="addr:street" v="Southeast 21st Avenue"/></node>
<node id="-51" lat="45.464170001" lon="-122.643374573" visible="true"><tag k="addr:housenumber" v="8105"/><tag k="addr:postcode" v="97202"/><tag k="addr:city" v="Portland"/><tag k="addr:street" v="Southeast 21st Avenue"/></node>
<node id="-52" lat="45.464033786" lon="-122.643370768" visible="true"><tag k="addr:housenumber" v="8115"/><tag k="addr:postcode" v="97202"/><tag k="addr:city" v="Portland"/><tag k="addr:street" v="Southeast 21st Avenue"/></node>
<node id="-53" lat="45.464029076" lon="-122.643377104" visible="true"><tag k="addr:housenumber" v="8127"/><tag k="addr:postcode" v="97202"/><tag k="addr:city" v="Portland"/><tag k="addr:street" v="Southeast 21st Avenue"/></node>
<node id="-54" lat="45.462675292" lon="-122.642814471" visible="true"><tag k="addr:housenumber" v="8308"/><tag k="addr:postcode" v="97202"/><tag k="addr:city" v="Portland"/><tag k="addr:street" v="Southeast 21st Avenue"/></node>
<node id="-55" lat="45.462681052" lon="-122.642823652" visible="true"><tag k="addr:housenumber" v="8312"/><tag k="addr:postcode" v="97202"/><tag k="addr:city" v="Portland"/><tag k="addr:street" v="Southeast 21st Avenue"/></node>
<node id="-56" lat="45.462465351" lon="-122.642747439" visible="true"><tag k="addr:housenumber" v="8324"/><tag k="addr:postcode" v="97202"/><tag k="addr:city" v="Portland"/><tag k="addr:street" v="Southeast 21st Avenue"/></node>
<node id="-57" lat="45.462468637" lon="-122.642750475" visible="true"><tag k="addr:housenumber" v="8326"/><tag k="addr:postcode" v="97202"/><tag k="addr:city" v="Portland"/><tag k="addr:street" v="Southeast 21st Avenue"/></node>
<node id="-58" lat="45.462471154" lon="-122.642747468" visible="true"><tag k="addr:housenumber" v="8328"/><tag k="addr:postcode" v="97202"/><tag k="addr:city" v="Portland"/><tag k="addr:street" v="Southeast 21st Avenue"/></node>
<node id="-59" lat="45.461894466" lon="-122.64337162" visible="true"><tag k="addr:housenumber" v="8415"/><tag k="addr:postcode" v="97202"/><tag k="addr:city" v="Portland"/><tag k="addr:street" v="Southeast 21st Avenue"/></node>
<node id="-60" lat="45.461892611" lon="-122.643380037" visible="true"><tag k="addr:housenumber" v="8417"/><tag k="addr:postcode" v="97202"/><tag k="addr:city" v="Portland"/><tag k="addr:street" v="Southeast 21st Avenue"/></node>
<node id="-61" lat="45.461753645" lon="-122.643373647" visible="true"><tag k="addr:housenumber" v="8421"/><tag k="addr:postcode" v="97202"/><tag k="addr:city" v="Portland"/><tag k="addr:street" v="Southeast 21st Avenue"/></node>
<node id="-62" lat="45.461760112" lon="-122.643376211" visible="true"><tag k="addr:housenumber" v="8423"/><tag k="addr:postcode" v="97202"/><tag k="addr:city" v="Portland"/><tag k="addr:street" v="Southeast 21st Avenue"/></node>
<node id="-63" lat="45.461757076" lon="-122.643372016" visible="true"><tag k="addr:housenumber" v="8429"/><tag k="addr:postcode" v="97202"/><tag k="addr:city" v="Portland"/><tag k="addr:street" v="Southeast 21st Avenue"/></node>
<node id="-64" lat="45.463389277" lon="-122.641680844" visible="true"><tag k="addr:housenumber" v="8205"/><tag k="addr:postcode" v="97202"/><tag k="addr:city" v="Portland"/><tag k="addr:street" v="Southeast 23rd Avenue"/></node>
<node id="-65" lat="45.463385151" lon="-122.641674782" visible="true"><tag k="addr:housenumber" v="8207"/><tag k="addr:postcode" v="97202"/><tag k="addr:city" v="Portland"/><tag k="addr:street" v="Southeast 23rd Avenue"/></node>
<node id="-66" lat="45.461668567" lon="-122.641748896" visible="true"><tag k="addr:housenumber" v="8427"/><tag k="addr:postcode" v="97202"/><tag k="addr:city" v="Portland"/><tag k="addr:street" v="Southeast 23rd Avenue"/></node>
<node id="-67" lat="45.461669817" lon="-122.64174796" visible="true"><tag k="addr:housenumber" v="8431"/><tag k="addr:postcode" v="97202"/><tag k="addr:city" v="Portland"/><tag k="addr:street" v="Southeast 23rd Avenue"/></node>
<node id="-68" lat="45.461668265" lon="-122.641744715" visible="true"><tag k="addr:housenumber" v="8433"/><tag k="addr:postcode" v="97202"/><tag k="addr:city" v="Portland"/><tag k="addr:street" v="Southeast 23rd Avenue"/></node>
<node id="-69" lat="45.468091971" lon="-122.649828669" visible="true"><tag k="addr:housenumber" v="1553 A"/><tag k="addr:postcode" v="97202"/><tag k="addr:city" v="Portland"/><tag k="addr:street" v="Southeast Bidwell Street"/></node>
<node id="-70" lat="45.468091072" lon="-122.649824867" visible="true"><tag k="addr:housenumber" v="1553 B"/><tag k="addr:postcode" v="97202"/><tag k="addr:city" v="Portland"/><tag k="addr:street" v="Southeast Bidwell Street"/></node>
<node id="-71" lat="45.462399844" lon="-122.646730304" visible="true"><tag k="addr:housenumber" v="1706"/><tag k="addr:postcode" v="97202"/><tag k="addr:city" v="Portland"/><tag k="addr:street" v="Southeast Harney Street"/></node>
<node id="-72" lat="45.461689766" lon="-122.646048996" visible="true"><tag k="addr:housenumber" v="1717"/><tag k="addr:postcode" v="97202"/><tag k="addr:city" v="Portland"/><tag k="addr:street" v="Southeast Harney Street"/></node>
<node id="-73" lat="45.46196153" lon="-122.646237297" visible="true"><tag k="addr:housenumber" v="1734"/><tag k="addr:postcode" v="97202"/><tag k="addr:city" v="Portland"/><tag k="addr:street" v="Southeast Harney Street"/></node>
<node id="-74" lat="45.461966204" lon="-122.646244652" visible="true"><tag k="addr:housenumber" v="1738"/><tag k="addr:postcode" v="97202"/><tag k="addr:city" v="Portland"/><tag k="addr:street" v="Southeast Harney Street"/></node>
<node id="-75" lat="45.462674945" lon="-122.645847379" visible="true"><tag k="addr:housenumber" v="1809"/><tag k="addr:postcode" v="97202"/><tag k="addr:city" v="Portland"/><tag k="addr:street" v="Southeast Harney Street"/></node>
<node id="-76" lat="45.462678015" lon="-122.645850042" visible="true"><tag k="addr:housenumber" v="1811"/><tag k="addr:postcode" v="97202"/><tag k="addr:city" v="Portland"/><tag k="addr:street" v="Southeast Harney Street"/></node>
<node id="-77" lat="45.462561974" lon="-122.645636319" visible="true"><tag k="addr:housenumber" v="1817"/><tag k="addr:postcode" v="97202"/><tag k="addr:city" v="Portland"/><tag k="addr:street" v="Southeast Harney Street"/></node>
<node id="-78" lat="45.46256631" lon="-122.645635784" visible="true"><tag k="addr:housenumber" v="1819"/><tag k="addr:postcode" v="97202"/><tag k="addr:city" v="Portland"/><tag k="addr:street" v="Southeast Harney Street"/></node>
<node id="-79" lat="45.462400843" lon="-122.644445184" visible="true"><tag k="addr:housenumber" v="1923"/><tag k="addr:postcode" v="97202"/><tag k="addr:city" v="Portland"/><tag k="addr:street" v="Southeast Harney Street"/></node>
<node id="-80" lat="45.462401985" lon="-122.644443341" visible="true"><tag k="addr:housenumber" v="1925"/><tag k="addr:postcode" v="97202"/><tag k="addr:city" v="Portland"/><tag k="addr:street" v="Southeast Harney Street"/></node>
<node id="-81" lat="45.462404476" lon="-122.644253828" visible="true"><tag k="addr:housenumber" v="1935"/><tag k="addr:postcode" v="97202"/><tag k="addr:city" v="Portland"/><tag k="addr:street" v="Southeast Harney Street"/></node>
<node id="-82" lat="45.462406918" lon="-122.644254226" visible="true"><tag k="addr:housenumber" v="1937"/><tag k="addr:postcode" v="97202"/><tag k="addr:city" v="Portland"/><tag k="addr:street" v="Southeast Harney Street"/></node>
<node id="-83" lat="45.462399713" lon="-122.644055249" visible="true"><tag k="addr:housenumber" v="1943"/><tag k="addr:postcode" v="97202"/><tag k="addr:city" v="Portland"/><tag k="addr:street" v="Southeast Harney Street"/></node>
<node id="-84" lat="45.462397246" lon="-122.64405977" visible="true"><tag k="addr:housenumber" v="1945"/><tag k="addr:postcode" v="97202"/><tag k="addr:city" v="Portland"/><tag k="addr:street" v="Southeast Harney Street"/></node>
<node id="-85" lat="45.461965657" lon="-122.643860802" visible="true"><tag k="addr:housenumber" v="2004"/><tag k="addr:postcode" v="97202"/><tag k="addr:city" v="Portland"/><tag k="addr:street" v="Southeast Harney Street"/></node>
<node id="-86" lat="45.461963884" lon="-122.643867576" visible="true"><tag k="addr:housenumber" v="2006"/><tag k="addr:postcode" v="97202"/><tag k="addr:city" v="Portland"/><tag k="addr:street" v="Southeast Harney Street"/></node>
<node id="-87" lat="45.468116321" lon="-122.647539291" visible="true"><tag k="addr:housenumber" v="1666"/><tag k="addr:postcode" v="97202"/><tag k="addr:city" v="Portland"/><tag k="addr:street" v="Southeast Lambert Street"/></node>
<node id="-88" lat="45.468112325" lon="-122.644381327" visible="true"><tag k="addr:housenumber" v="1922"/><tag k="addr:postcode" v="97202"/><tag k="addr:city" v="Portland"/><tag k="addr:street" v="Southeast Lambert Street"/></node>
<node id="-89" lat="45.46810914" lon="-122.644379949" visible="true"><tag k="addr:housenumber" v="1924"/><tag k="addr:postcode" v="97202"/><tag k="addr:city" v="Portland"/><tag k="addr:street" v="Southeast Lambert Street"/></node>
<node id="-90" lat="45.467027853" lon="-122.648727332" visible="true"><tag k="addr:housenumber" v="1600"/><tag k="addr:postcode" v="97202"/><tag k="addr:city" v="Portland"/><tag k="addr:street" v="Southeast Lexington Street"/></node>
<node id="-91" lat="45.467024039" lon="-122.648728221" visible="true"><tag k="addr:housenumber" v="1606"/><tag k="addr:postcode" v="97202"/><tag k="addr:city" v="Portland"/><tag k="addr:street" v="Southeast Lexington Street"/></node>
<node id="-92" lat="45.467398077" lon="-122.64859893" visible="true"><tag k="addr:housenumber" v="1615"/><tag k="addr:postcode" v="97202"/><tag k="addr:city" v="Portland"/><tag k="addr:street" v="Southeast Lexington Street"/></node>
<node id="-93" lat="45.467392556" lon="-122.648606974" visible="true"><tag k="addr:housenumber" v="1617"/><tag k="addr:postcode" v="97202"/><tag k="addr:city" v="Portland"/><tag k="addr:street" v="Southeast Lexington Street"/></node>
<node id="-94" lat="45.466929109" lon="-122.646725309" visible="true"><tag k="addr:housenumber" v="1704"/><tag k="addr:postcode" v="97202"/><tag k="addr:city" v="Portland"/><tag k="addr:street" v="Southeast Lexington Street"/></node>
<node id="-95" lat="45.467226268" lon="-122.64677595" visible="true"><tag k="addr:housenumber" v="1707"/><tag k="addr:postcode" v="97202"/><tag k="addr:city" v="Portland"/><tag k="addr:street" v="Southeast Lexington Street"/></node>
<node id="-96" lat="45.466932224" lon="-122.646720597" visible="true"><tag k="addr:housenumber" v="1708"/><tag k="addr:postcode" v="97202"/><tag k="addr:city" v="Portland"/><tag k="addr:street" v="Southeast Lexington Street"/></node>
<node id="-97" lat="45.466925849" lon="-122.646724456" visible="true"><tag k="addr:housenumber" v="1712"/><tag k="addr:postcode" v="97202"/><tag k="addr:city" v="Portland"/><tag k="addr:street" v="Southeast Lexington Street"/></node>
<node id="-98" lat="45.46692864" lon="-122.64672122" visible="true"><tag k="addr:housenumber" v="1716"/><tag k="addr:postcode" v="97202"/><tag k="addr:city" v="Portland"/><tag k="addr:street" v="Southeast Lexington Street"/></node>
<node id="-99" lat="45.466929117" lon="-122.646721937" visible="true"><tag k="addr:housenumber" v="1720"/><tag k="addr:postcode" v="97202"/><tag k="addr:city" v="Portland"/><tag k="addr:street" v="Southeast Lexington Street"/></node>
<node id="-100" lat="45.466627818" lon="-122.647555674" visible="true"><tag k="addr:housenumber" v="1670"/><tag k="addr:postcode" v="97202"/><tag k="addr:city" v="Portland"/><tag k="addr:street" v="Southeast Miller Street"/></node>
<node id="-101" lat="45.466613643" lon="-122.646725261" visible="true"><tag k="addr:housenumber" v="1719"/><tag k="addr:postcode" v="97202"/><tag k="addr:city" v="Portland"/><tag k="addr:street" v="Southeast Miller Street"/></node>
<node id="-102" lat="45.4683832" lon="-122.648345594" visible="true"><tag k="addr:housenumber" v="7805"/><tag k="addr:postcode" v="97202"/><tag k="addr:city" v="Portland"/><tag k="addr:street" v="Southeast Milwaukie Avenue"/></node>
<node id="-103" lat="45.46838209" lon="-122.648349413" visible="true"><tag k="addr:housenumber" v="7813"/><tag k="addr:postcode" v="97202"/><tag k="addr:city" v="Portland"/><tag k="addr:street" v="Southeast Milwaukie Avenue"/></node>
<node id="-104" lat="45.467597892" lon="-122.648294455" visible="true"><tag k="addr:housenumber" v="7861"/><tag k="addr:postcode" v="97202"/><tag k="addr:city" v="Portland"/><tag k="addr:street" v="Southeast Milwaukie Avenue"/></node>
<node id="-105" lat="45.467597503" lon="-122.648300119" visible="true"><tag k="addr:housenumber" v="7863"/><tag k="addr:postcode" v="97202"/><tag k="addr:city" v="Portland"/><tag k="addr:street" v="Southeast Milwaukie Avenue"/></node>
<node id="-106" lat="45.467603995" lon="-122.648296156" visible="true"><tag k="addr:housenumber" v="7865"/><tag k="addr:postcode" v="97202"/><tag k="addr:city" v="Portland"/><tag k="addr:street" v="Southeast Milwaukie Avenue"/></node>
<node id="-107" lat="45.467394261" lon="-122.648184887" visible="true"><tag k="addr:housenumber" v="7869"/><tag k="addr:postcode" v="97202"/><tag k="addr:city" v="Portland"/><tag k="addr:street" v="Southeast Milwaukie Avenue"/></node>
<node id="-108" lat="45.467391001" lon="-122.648186658" visible="true"><tag k="addr:housenumber" v="7873"/><tag k="addr:postcode" v="97202"/><tag k="addr:city" v="Portland"/><tag k="addr:street" v="Southeast Milwaukie Avenue"/></node>
<node id="-109" lat="45.467393769" lon="-122.648190911" visible="true"><tag k="addr:housenumber" v="7877"/><tag k="addr:postcode" v="97202"/><tag k="addr:city" v="Portland"/><tag k="addr:street" v="Southeast Milwaukie Avenue"/></node>
<node id="-110" lat="45.467391672" lon="-122.648182817" visible="true"><tag k="addr:housenumber" v="7879"/><tag k="addr:postcode" v="97202"/><tag k="addr:city" v="Portland"/><tag k="addr:street" v="Southeast Milwaukie Avenue"/></node>
<node id="-111" lat="45.466624684" lon="-122.647554902" visible="true"><tag k="addr:housenumber" v="7936"/><tag k="addr:postcode" v="97202"/><tag k="addr:city" v="Portland"/><tag k="addr:street" v="Southeast Milwaukie Avenue"/></node>
<node id="-112" lat="45.46617127" lon="-122.647376639" visible="true"><tag k="addr:housenumber" v="7950"/><tag k="addr:postcode" v="97202"/><tag k="addr:city" v="Portland"/><tag k="addr:street" v="Southeast Milwaukie Avenue"/></node>
<node id="-113" lat="45.466172494" lon="-122.647369798" visible="true"><tag k="addr:housenumber" v="7980"/><tag k="addr:postcode" v="97202"/><tag k="addr:city" v="Portland"/><tag k="addr:street" v="Southeast Milwaukie Avenue"/></node>
<node id="-114" lat="45.46551633" lon="-122.641908456" visible="true"><tag k="addr:housenumber" v="2210"/><tag k="addr:postcode" v="97202"/><tag k="addr:city" v="Portland"/><tag k="addr:street" v="Southeast Nehalem Street"/></node>
<node id="-115" lat="45.46552115" lon="-122.641911259" visible="true"><tag k="addr:housenumber" v="2214"/><tag k="addr:postcode" v="97202"/><tag k="addr:city" v="Portland"/><tag k="addr:street" v="Southeast Nehalem Street"/></node>
<node id="-116" lat="45.465521371" lon="-122.6419168" visible="true"><tag k="addr:housenumber" v="2216"/><tag k="addr:postcode" v="97202"/><tag k="addr:city" v="Portland"/><tag k="addr:street" v="Southeast Nehalem Street"/></node>
<node id="-117" lat="45.46552286" lon="-122.641908128" visible="true"><tag k="addr:housenumber" v="2222"/><tag k="addr:postcode" v="97202"/><tag k="addr:city" v="Portland"/><tag k="addr:street" v="Southeast Nehalem Street"/></node>
<node id="-118" lat="45.465515035" lon="-122.641914055" visible="true"><tag k="addr:housenumber" v="2224"/><tag k="addr:postcode" v="97202"/><tag k="addr:city" v="Portland"/><tag k="addr:street" v="Southeast Nehalem Street"/></node>
<node id="-119" lat="45.465515951" lon="-122.64191289" visible="true"><tag k="addr:housenumber" v="2226"/><tag k="addr:postcode" v="97202"/><tag k="addr:city" v="Portland"/><tag k="addr:street" v="Southeast Nehalem Street"/></node>
<node id="-120" lat="45.465514208" lon="-122.641916001" visible="true"><tag k="addr:housenumber" v="2228"/><tag k="addr:postcode" v="97202"/><tag k="addr:city" v="Portland"/><tag k="addr:street" v="Southeast Nehalem Street"/></node>
<node id="-121" lat="45.465518945" lon="-122.641914356" visible="true"><tag k="addr:housenumber" v="2230"/><tag k="addr:postcode" v="97202"/><tag k="addr:city" v="Portland"/><tag k="addr:street" v="Southeast Nehalem Street"/></node>
<node id="-122" lat="45.462679379" lon="-122.646729058" visible="true"><tag k="addr:housenumber" v="3963"/><tag k="addr:postcode" v="97202"/><tag k="addr:city" v="Portland"/><tag k="addr:street" v="Southeast Powell Boulevard"/></node>
<node id="-123" lat="45.461688985" lon="-122.646045016" visible="true"><tag k="addr:housenumber" v="1745"/><tag k="addr:postcode" v="97202"/><tag k="addr:city" v="Portland"/><tag k="addr:street" v="Southeast Sherrett Street"/></node>
<node id="-124" lat="45.461684569" lon="-122.644254222" visible="true"><tag k="addr:housenumber" v="1937"/><tag k="addr:postcode" v="97202"/><tag k="addr:city" v="Portland"/><tag k="addr:street" v="Southeast Sherrett Street"/></node>
<node id="-125" lat="45.461689771" lon="-122.644252057" visible="true"><tag k="addr:housenumber" v="1939"/><tag k="addr:postcode" v="97202"/><tag k="addr:city" v="Portland"/><tag k="addr:street" v="Southeast Sherrett Street"/></node>
<node id="-126" lat="45.461690737" lon="-122.64246483" visible="true"><tag k="addr:housenumber" v="2123"/><tag k="addr:postcode" v="97202"/><tag k="addr:city" v="Portland"/><tag k="addr:street" v="Southeast Sherrett Street"/></node>
<node id="-127" lat="45.461688755" lon="-122.642465158" visible="true"><tag k="addr:housenumber" v="2125"/><tag k="addr:postcode" v="97202"/><tag k="addr:city" v="Portland"/><tag k="addr:street" v="Southeast Sherrett Street"/></node>
<node id="-128" lat="45.461670841" lon="-122.641743645" visible="true"><tag k="addr:housenumber" v="2223"/><tag k="addr:postcode" v="97202"/><tag k="addr:city" v="Portland"/><tag k="addr:street" v="Southeast Sherrett Street"/></node>
<node id="-129" lat="45.465277784" lon="-122.649365572" visible="true"><tag k="addr:housenumber" v="1577"/><tag k="addr:postcode" v="97202"/><tag k="addr:city" v="Portland"/><tag k="addr:street" v="Southeast Spokane Street"/></node>
<node id="-130" lat="45.46527003" lon="-122.649365351" visible="true"><tag k="addr:housenumber" v="1579"/><tag k="addr:postcode" v="97202"/><tag k="addr:city" v="Portland"/><tag k="addr:street" v="Southeast Spokane Street"/></node>
<node id="-131" lat="45.465276904" lon="-122.64937373" visible="true"><tag k="addr:housenumber" v="1581"/><tag k="addr:postcode" v="97202"/><tag k="addr:city" v="Portland"/><tag k="addr:street" v="Southeast Spokane Street"/></node>
<node id="-132" lat="45.465277702" lon="-122.649367588" visible="true"><tag k="addr:housenumber" v="1583"/><tag k="addr:postcode" v="97202"/><tag k="addr:city" v="Portland"/><tag k="addr:street" v="Southeast Spokane Street"/></node>
<node id="-133" lat="45.465261432" lon="-122.648024009" visible="true"><tag k="addr:housenumber" v="1645"/><tag k="addr:postcode" v="97202"/><tag k="addr:city" v="Portland"/><tag k="addr:street" v="Southeast Spokane Street"/></node>
<node id="-134" lat="45.465256137" lon="-122.64802148" visible="true"><tag k="addr:housenumber" v="1647"/><tag k="addr:postcode" v="97202"/><tag k="addr:city" v="Portland"/><tag k="addr:street" v="Southeast Spokane Street"/></node>
<node id="-135" lat="45.464812895" lon="-122.646038837" visible="true"><tag k="addr:housenumber" v="1746"/><tag k="addr:postcode" v="97202"/><tag k="addr:city" v="Portland"/><tag k="addr:street" v="Southeast Spokane Street"/></node>
<node id="-136" lat="45.464812657" lon="-122.646038328" visible="true"><tag k="addr:housenumber" v="1748"/><tag k="addr:postcode" v="97202"/><tag k="addr:city" v="Portland"/><tag k="addr:street" v="Southeast Spokane Street"/></node>
<node id="-137" lat="45.464814324" lon="-122.643277888" visible="true"><tag k="addr:housenumber" v="2036"/><tag k="addr:postcode" v="97202"/><tag k="addr:city" v="Portland"/><tag k="addr:street" v="Southeast Spokane Street"/></node>
<node id="-138" lat="45.464813435" lon="-122.643273021" visible="true"><tag k="addr:housenumber" v="2038"/><tag k="addr:postcode" v="97202"/><tag k="addr:city" v="Portland"/><tag k="addr:street" v="Southeast Spokane Street"/></node>
<node id="-139" lat="45.464107372" lon="-122.65000869" visible="true"><tag k="addr:housenumber" v="1540"/><tag k="addr:postcode" v="97202"/><tag k="addr:city" v="Portland"/><tag k="addr:street" v="Southeast Tacoma Street"/></node>
<node id="-140" lat="45.464106308" lon="-122.65001083" visible="true"><tag k="addr:housenumber" v="1542"/><tag k="addr:postcode" v="97202"/><tag k="addr:city" v="Portland"/><tag k="addr:street" v="Southeast Tacoma Street"/></node>
<node id="-141" lat="45.464547651" lon="-122.648609992" visible="true"><tag k="addr:housenumber" v="1611"/><tag k="addr:postcode" v="97202"/><tag k="addr:city" v="Portland"/><tag k="addr:street" v="Southeast Tacoma Street"/></node>
<node id="-142" lat="45.464544301" lon="-122.648604353" visible="true"><tag k="addr:housenumber" v="1615"/><tag k="addr:postcode" v="97202"/><tag k="addr:city" v="Portland"/><tag k="addr:street" v="Southeast Tacoma Street"/></node>
<node id="-143" lat="45.464100742" lon="-122.648603014" visible="true"><tag k="addr:housenumber" v="1616"/><tag k="addr:postcode" v="97202"/><tag k="addr:city" v="Portland"/><tag k="addr:street" v="Southeast Tacoma Street"/></node>
<node id="-144" lat="45.464109283" lon="-122.648604625" visible="true"><tag k="addr:housenumber" v="1618"/><tag k="addr:postcode" v="97202"/><tag k="addr:city" v="Portland"/><tag k="addr:street" v="Southeast Tacoma Street"/></node>
<node id="-145" lat="45.464108012" lon="-122.648215781" visible="true"><tag k="addr:housenumber" v="1636"/><tag k="addr:postcode" v="97202"/><tag k="addr:city" v="Portland"/><tag k="addr:street" v="Southeast Tacoma Street"/></node>
<node id="-146" lat="45.464107083" lon="-122.648222874" visible="true"><tag k="addr:housenumber" v="1638"/><tag k="addr:postcode" v="97202"/><tag k="addr:city" v="Portland"/><tag k="addr:street" v="Southeast Tacoma Street"/></node>
<node id="-147" lat="45.464100993" lon="-122.644636669" visible="true"><tag k="addr:housenumber" v="1912"/><tag k="addr:postcode" v="97202"/><tag k="addr:city" v="Portland"/><tag k="addr:street" v="Southeast Tacoma Street"/></node>
<node id="-148" lat="45.464099434" lon="-122.644644286" visible="true"><tag k="addr:housenumber" v="1914"/><tag k="addr:postcode" v="97202"/><tag k="addr:city" v="Portland"/><tag k="addr:street" v="Southeast Tacoma Street"/></node>
<node id="-149" lat="45.464171392" lon="-122.643372217" visible="true"><tag k="addr:housenumber" v="2036"/><tag k="addr:postcode" v="97202"/><tag k="addr:city" v="Portland"/><tag k="addr:street" v="Southeast Tacoma Street"/></node>
<node id="-150" lat="45.464098119" lon="-122.642262375" visible="true"><tag k="addr:housenumber" v="2132"/><tag k="addr:postcode" v="97202"/><tag k="addr:city" v="Portland"/><tag k="addr:street" v="Southeast Tacoma Street"/></node>
<node id="-151" lat="45.464106031" lon="-122.642261368" visible="true"><tag k="addr:housenumber" v="2134"/><tag k="addr:postcode" v="97202"/><tag k="addr:city" v="Portland"/><tag k="addr:street" v="Southeast Tacoma Street"/></node>
<node id="-152" lat="45.464098477" lon="-122.642065129" visible="true"><tag k="addr:housenumber" v="2204"/><tag k="addr:postcode" v="97202"/><tag k="addr:city" v="Portland"/><tag k="addr:street" v="Southeast Tacoma Street"/></node>
<node id="-153" lat="45.464100248" lon="-122.64206547" visible="true"><tag k="addr:housenumber" v="2206"/><tag k="addr:postcode" v="97202"/><tag k="addr:city" v="Portland"/><tag k="addr:street" v="Southeast Tacoma Street"/></node>
<node id="-154" lat="45.46410086" lon="-122.641871164" visible="true"><tag k="addr:housenumber" v="2216"/><tag k="addr:postcode" v="97202"/><tag k="addr:city" v="Portland"/><tag k="addr:street" v="Southeast Tacoma Street"/></node>
<node id="-155" lat="45.464099046" lon="-122.641877037" visible="true"><tag k="addr:housenumber" v="2218"/><tag k="addr:postcode" v="97202"/><tag k="addr:city" v="Portland"/><tag k="addr:street" v="Southeast Tacoma Street"/></node>
<node id="-156" lat="45.463462864" lon="-122.64933257" visible="true"><tag k="addr:housenumber" v="1574"/><tag k="addr:postcode" v="97202"/><tag k="addr:city" v="Portland"/><tag k="addr:street" v="Southeast Tenino Street"/></node>
<node id="-157" lat="45.463458871" lon="-122.649332403" visible="true"><tag k="addr:housenumber" v="1576"/><tag k="addr:postcode" v="97202"/><tag k="addr:city" v="Portland"/><tag k="addr:street" v="Southeast Tenino Street"/></node>
<node id="-158" lat="45.463466515" lon="-122.649329657" visible="true"><tag k="addr:housenumber" v="1578"/><tag k="addr:postcode" v="97202"/><tag k="addr:city" v="Portland"/><tag k="addr:street" v="Southeast Tenino Street"/></node>
<node id="-159" lat="45.463826864" lon="-122.648802655" visible="true"><tag k="addr:housenumber" v="1605"/><tag k="addr:postcode" v="97202"/><tag k="addr:city" v="Portland"/><tag k="addr:street" v="Southeast Tenino Street"/></node>
<node id="-160" lat="45.463826789" lon="-122.648802514" visible="true"><tag k="addr:housenumber" v="1607"/><tag k="addr:postcode" v="97202"/><tag k="addr:city" v="Portland"/><tag k="addr:street" v="Southeast Tenino Street"/></node>
<node id="-161" lat="45.463835955" lon="-122.648801479" visible="true"><tag k="addr:housenumber" v="1609"/><tag k="addr:postcode" v="97202"/><tag k="addr:city" v="Portland"/><tag k="addr:street" v="Southeast Tenino Street"/></node>
<node id="-162" lat="45.463826557" lon="-122.648605872" visible="true"><tag k="addr:housenumber" v="1615"/><tag k="addr:postcode" v="97202"/><tag k="addr:city" v="Portland"/><tag k="addr:street" v="Southeast Tenino Street"/></node>
<node id="-163" lat="45.463832662" lon="-122.648611167" visible="true"><tag k="addr:housenumber" v="1617"/><tag k="addr:postcode" v="97202"/><tag k="addr:city" v="Portland"/><tag k="addr:street" v="Southeast Tenino Street"/></node>
<node id="-164" lat="45.463396437" lon="-122.648025498" visible="true"><tag k="addr:housenumber" v="1646"/><tag k="addr:postcode" v="97202"/><tag k="addr:city" v="Portland"/><tag k="addr:street" v="Southeast Tenino Street"/></node>
<node id="-165" lat="45.463389415" lon="-122.648026256" visible="true"><tag k="addr:housenumber" v="1648"/><tag k="addr:postcode" v="97202"/><tag k="addr:city" v="Portland"/><tag k="addr:street" v="Southeast Tenino Street"/></node>
<node id="-166" lat="45.463414033" lon="-122.64644649" visible="true"><tag k="addr:housenumber" v="1724"/><tag k="addr:postcode" v="97202"/><tag k="addr:city" v="Portland"/><tag k="addr:street" v="Southeast Tenino Street"/></node>
<node id="-167" lat="45.463834269" lon="-122.646234654" visible="true"><tag k="addr:housenumber" v="1735"/><tag k="addr:postcode" v="97202"/><tag k="addr:city" v="Portland"/><tag k="addr:street" v="Southeast Tenino Street"/></node>
<node id="-168" lat="45.463834658" lon="-122.646237759" visible="true"><tag k="addr:housenumber" v="1737"/><tag k="addr:postcode" v="97202"/><tag k="addr:city" v="Portland"/><tag k="addr:street" v="Southeast Tenino Street"/></node>
<node id="-169" lat="45.463900213" lon="-122.646044124" visible="true"><tag k="addr:housenumber" v="1743"/><tag k="addr:postcode" v="97202"/><tag k="addr:city" v="Portland"/><tag k="addr:street" v="Southeast Tenino Street"/></node>
<node id="-170" lat="45.463903987" lon="-122.646038685" visible="true"><tag k="addr:housenumber" v="1745"/><tag k="addr:postcode" v="97202"/><tag k="addr:city" v="Portland"/><tag k="addr:street" v="Southeast Tenino Street"/></node>
<node id="-171" lat="45.463826664" lon="-122.644637422" visible="true"><tag k="addr:housenumber" v="1915"/><tag k="addr:postcode" v="97202"/><tag k="addr:city" v="Portland"/><tag k="addr:street" v="Southeast Tenino Street"/></node>
<node id="-172" lat="45.46382774" lon="-122.644642251" visible="true"><tag k="addr:housenumber" v="1917"/><tag k="addr:postcode" v="97202"/><tag k="addr:city" v="Portland"/><tag k="addr:street" v="Southeast Tenino Street"/></node>
<node id="-173" lat="45.463392811" lon="-122.64444238" visible="true"><tag k="addr:housenumber" v="1922"/><tag k="addr:postcode" v="97202"/><tag k="addr:city" v="Portland"/><tag k="addr:street" v="Southeast Tenino Street"/></node>
<node id="-174" lat="45.463385134" lon="-122.644443815" visible="true"><tag k="addr:housenumber" v="1924"/><tag k="addr:postcode" v="97202"/><tag k="addr:city" v="Portland"/><tag k="addr:street" v="Southeast Tenino Street"/></node>
<node id="-175" lat="45.463392914" lon="-122.644246601" visible="true"><tag k="addr:housenumber" v="1934"/><tag k="addr:postcode" v="97202"/><tag k="addr:city" v="Portland"/><tag k="addr:street" v="Southeast Tenino Street"/></node>
<node id="-176" lat="45.463385477" lon="-122.644255743" visible="true"><tag k="addr:housenumber" v="1936"/><tag k="addr:postcode" v="97202"/><tag k="addr:city" v="Portland"/><tag k="addr:street" v="Southeast Tenino Street"/></node>
<node id="-177" lat="45.463393503" lon="-122.643682082" visible="true"><tag k="addr:housenumber" v="2012"/><tag k="addr:postcode" v="97202"/><tag k="addr:city" v="Portland"/><tag k="addr:street" v="Southeast Tenino Street"/></node>
<node id="-178" lat="45.463398698" lon="-122.643674389" visible="true"><tag k="addr:housenumber" v="2014"/><tag k="addr:postcode" v="97202"/><tag k="addr:city" v="Portland"/><tag k="addr:street" v="Southeast Tenino Street"/></node>
<node id="-179" lat="45.463898848" lon="-122.643666265" visible="true"><tag k="addr:housenumber" v="2017"/><tag k="addr:postcode" v="97202"/><tag k="addr:city" v="Portland"/><tag k="addr:street" v="Southeast Tenino Street"/></node>
<node id="-180" lat="45.463892878" lon="-122.64366578" visible="true"><tag k="addr:housenumber" v="2019"/><tag k="addr:postcode" v="97202"/><tag k="addr:city" v="Portland"/><tag k="addr:street" v="Southeast Tenino Street"/></node>
<node id="-181" lat="45.463389424" lon="-122.642070836" visible="true"><tag k="addr:housenumber" v="2202"/><tag k="addr:postcode" v="97202"/><tag k="addr:city" v="Portland"/><tag k="addr:street" v="Southeast Tenino Street"/></node>
<node id="-182" lat="45.46338736" lon="-122.642064887" visible="true"><tag k="addr:housenumber" v="2204"/><tag k="addr:postcode" v="97202"/><tag k="addr:city" v="Portland"/><tag k="addr:street" v="Southeast Tenino Street"/></node>
<node id="-183" lat="45.463386589" lon="-122.641871223" visible="true"><tag k="addr:housenumber" v="2216"/><tag k="addr:postcode" v="97202"/><tag k="addr:city" v="Portland"/><tag k="addr:street" v="Southeast Tenino Street"/></node>
<node id="-184" lat="45.463387209" lon="-122.641876304" visible="true"><tag k="addr:housenumber" v="2218"/><tag k="addr:postcode" v="97202"/><tag k="addr:city" v="Portland"/><tag k="addr:street" v="Southeast Tenino Street"/></node>
<node id="-185" lat="45.463116447" lon="-122.648606287" visible="true"><tag k="addr:housenumber" v="1615"/><tag k="addr:postcode" v="97202"/><tag k="addr:city" v="Portland"/><tag k="addr:street" v="Southeast Umatilla Street"/></node>
<node id="-186" lat="45.463122472" lon="-122.648604502" visible="true"><tag k="addr:housenumber" v="1617"/><tag k="addr:postcode" v="97202"/><tag k="addr:city" v="Portland"/><tag k="addr:street" v="Southeast Umatilla Street"/></node>
<node id="-187" lat="45.463048648" lon="-122.646431753" visible="true"><tag k="addr:housenumber" v="1717"/><tag k="addr:postcode" v="97202"/><tag k="addr:city" v="Portland"/><tag k="addr:street" v="Southeast Umatilla Street"/></node>
<node id="-188" lat="45.463053081" lon="-122.646433485" visible="true"><tag k="addr:housenumber" v="1719"/><tag k="addr:postcode" v="97202"/><tag k="addr:city" v="Portland"/><tag k="addr:street" v="Southeast Umatilla Street"/></node>
<node id="-189" lat="45.462673251" lon="-122.644449909" visible="true"><tag k="addr:housenumber" v="1924"/><tag k="addr:postcode" v="97202"/><tag k="addr:city" v="Portland"/><tag k="addr:street" v="Southeast Umatilla Street"/></node>
<node id="-190" lat="45.462677514" lon="-122.64445025" visible="true"><tag k="addr:housenumber" v="1926"/><tag k="addr:postcode" v="97202"/><tag k="addr:city" v="Portland"/><tag k="addr:street" v="Southeast Umatilla Street"/></node>
<node id="-191" lat="45.463116771" lon="-122.644054096" visible="true"><tag k="addr:housenumber" v="1943"/><tag k="addr:postcode" v="97202"/><tag k="addr:city" v="Portland"/><tag k="addr:street" v="Southeast Umatilla Street"/></node>
<node id="-192" lat="45.463115756" lon="-122.644059151" visible="true"><tag k="addr:housenumber" v="1945"/><tag k="addr:postcode" v="97202"/><tag k="addr:city" v="Portland"/><tag k="addr:street" v="Southeast Umatilla Street"/></node>
<node id="-193" lat="45.462655658" lon="-122.643795406" visible="true"><tag k="addr:housenumber" v="2004"/><tag k="addr:postcode" v="97202"/><tag k="addr:city" v="Portland"/><tag k="addr:street" v="Southeast Umatilla Street"/></node>
<node id="-194" lat="45.462657531" lon="-122.643795746" visible="true"><tag k="addr:housenumber" v="2008"/><tag k="addr:postcode" v="97202"/><tag k="addr:city" v="Portland"/><tag k="addr:street" v="Southeast Umatilla Street"/></node>
<node id="-195" lat="45.462656428" lon="-122.643791584" visible="true"><tag k="addr:housenumber" v="2012"/><tag k="addr:postcode" v="97202"/><tag k="addr:city" v="Portland"/><tag k="addr:street" v="Southeast Umatilla Street"/></node>
<node id="-196" lat="45.462656532" lon="-122.643794997" visible="true"><tag k="addr:housenumber" v="2016"/><tag k="addr:postcode" v="97202"/><tag k="addr:city" v="Portland"/><tag k="addr:street" v="Southeast Umatilla Street"/></node>
<node id="-197" lat="45.46311654" lon="-122.643280779" visible="true"><tag k="addr:housenumber" v="2033"/><tag k="addr:postcode" v="97202"/><tag k="addr:city" v="Portland"/><tag k="addr:street" v="Southeast Umatilla Street"/></node>
<node id="-198" lat="45.463118365" lon="-122.643277895" visible="true"><tag k="addr:housenumber" v="2035"/><tag k="addr:postcode" v="97202"/><tag k="addr:city" v="Portland"/><tag k="addr:street" v="Southeast Umatilla Street"/></node>
</osm>