<?xml version="1.0"?>
<osm version="0.6" upload="false" generator="uvmogr2osm">
<node id="-1" lat="45.496372552" lon="-122.715895147" visible="true"><tag k="addr:housenumber" v="3702"/><tag k="addr:postcode" v="97221"/><tag k="addr:city" v="Portland"/><tag k="addr:street" v="Southwest 38th Avenue"/></node>
<node id="-2" lat="45.498263469" lon="-122.718673744" visible="true"><tag k="addr:housenumber" v="4017"/><tag k="addr:postcode" v="97221"/><tag k="addr:city" v="Portland"/><tag k="addr:street" v="Southwest Downs View Court"/></node>
<node id="-3" lat="45.498269512" lon="-122.718675829" visible="true"><tag k="addr:housenumber" v="4023 B"/><tag k="addr:postcode" v="97221"/><tag k="addr:city" v="Portland"/><tag k="addr:street" v="Southwest Downs View Court"/></node>
<node id="-4" lat="45.4999227" lon="-122.715900513" visible="true"><tag k="addr:housenumber" v="3804"/><tag k="addr:postcode" v="97221"/><tag k="addr:city" v="Portland"/><tag k="addr:street" v="Southwest Grover Street"/></node>
<node id="-5" lat="45.499919994" lon="-122.715903407" visible="true"><tag k="addr:housenumber" v="3808"/><tag k="addr:postcode" v="97221"/><tag k="addr:city" v="Portland"/><tag k="addr:street" v="Southwest Grover Street"/></node>
<node id="-6" lat="45.4997316" lon="-122.714755117" visible="true"><tag k="addr:housenumber" v="3620"/><tag k="addr:postcode" v="97221"/><tag k="addr:city" v="Portland"/><tag k="addr:street" v="Southwest Hillside Drive"/></node>
<node id="-7" lat="45.499724263" lon="-122.714753174" visible="true"><tag k="addr:housenumber" v="3621"/><tag k="addr:postcode" v="97221"/><tag k="addr:city" v="Portland"/><tag k="addr:street" v="Southwest Hillside Drive"/></node>
<node id="-8" lat="45.496377869" lon="-122.715896727" visible="true"><tag k="addr:housenumber" v="3735"/><tag k="addr:postcode" v="97221"/><tag k="addr:city" v="Portland"/><tag k="addr:street" v="Southwest Tunnelwood Street"/></node>
</osm>