<?xml version="1.0"?>
<osm version="0.6" upload="false" generator="uvmogr2osm">
<node id="-1" lat="45.523866733" lon="-122.662548601" visible="true"><tag k="addr:housenumber" v="124"/><tag k="addr:postcode" v="97232"/><tag k="addr:city" v="Portland"/><tag k="addr:street" v="Northeast 3rd Avenue"/></node>
<node id="-2" lat="45.523781697" lon="-122.662228224" visible="true"><tag k="addr:housenumber" v="321"/><tag k="addr:postcode" v="97232"/><tag k="addr:city" v="Portland"/><tag k="addr:street" v="Northeast Couch Street"/></node>
<node id="-3" lat="45.524680004" lon="-122.689596485" visible="true"><tag k="addr:housenumber" v="221"/><tag k="addr:postcode" v="97209"/><tag k="addr:city" v="Portland"/><tag k="addr:street" v="Northwest 18th Avenue"/></node>
<node id="-4" lat="45.524682789" lon="-122.689594835" visible="true"><tag k="addr:housenumber" v="223"/><tag k="addr:postcode" v="97209"/><tag k="addr:city" v="Portland"/><tag k="addr:street" v="Northwest 18th Avenue"/></node>
<node id="-5" lat="45.524683075" lon="-122.68959364" visible="true"><tag k="addr:housenumber" v="225"/><tag k="addr:postcode" v="97209"/><tag k="addr:city" v="Portland"/><tag k="addr:street" v="Northwest 18th Avenue"/></node>
<node id="-6" lat="45.524676493" lon="-122.689587812" visible="true"><tag k="addr:housenumber" v="227"/><tag k="addr:postcode" v="97209"/><tag k="addr:city" v="Portland"/><tag k="addr:street" v="Northwest 18th Avenue"/></node>
<node id="-7" lat="45.525850005" lon="-122.689575517" visible="true"><tag k="addr:housenumber" v="331"/><tag k="addr:postcode" v="97209"/><tag k="addr:city" v="Portland"/><tag k="addr:street" v="Northwest 18th Avenue"/></node>
<node id="-8" lat="45.525850887" lon="-122.689579034" visible="true"><tag k="addr:housenumber" v="405"/><tag k="addr:postcode" v="97209"/><tag k="addr:city" v="Portland"/><tag k="addr:street" v="Northwest 18th Avenue"/></node>
<node id="-9" lat="45.526550359" lon="-122.689138732" visible="true"><tag k="addr:housenumber" v="504"/><tag k="addr:postcode" v="97209"/><tag k="addr:city" v="Portland"/><tag k="addr:street" v="Northwest 18th Avenue"/></node>
<node id="-10" lat="45.526676501" lon="-122.689667938" visible="true"><tag k="addr:housenumber" v="513"/><tag k="addr:postcode" v="97209"/><tag k="addr:city" v="Portland"/><tag k="addr:street" v="Northwest 18th Avenue"/></node>
<node id="-11" lat="45.526677528" lon="-122.689662001" visible="true"><tag k="addr:housenumber" v="515"/><tag k="addr:postcode" v="97209"/><tag k="addr:city" v="Portland"/><tag k="addr:street" v="Northwest 18th Avenue"/></node>
<node id="-12" lat="45.526555501" lon="-122.689134891" visible="true"><tag k="addr:housenumber" v="535"/><tag k="addr:postcode" v="97209"/><tag k="addr:city" v="Portland"/><tag k="addr:street" v="Northwest 18th Avenue"/></node>
<node id="-13" lat="45.52667171" lon="-122.688911852" visible="true"><tag k="addr:housenumber" v="1721"/><tag k="addr:postcode" v="97209"/><tag k="addr:city" v="Portland"/><tag k="addr:street" v="Northwest Glisan Street"/></node>
<node id="-14" lat="45.526671677" lon="-122.688916855" visible="true"><tag k="addr:housenumber" v="1723"/><tag k="addr:postcode" v="97209"/><tag k="addr:city" v="Portland"/><tag k="addr:street" v="Northwest Glisan Street"/></node>
<node id="-15" lat="45.520312266" lon="-122.662967526" visible="true"><tag k="addr:housenumber" v="333"/><tag k="addr:postcode" v="97214"/><tag k="addr:city" v="Portland"/><tag k="addr:street" v="Southeast 3rd Avenue"/></node>
<node id="-16" lat="45.519933308" lon="-122.663540439" visible="true"><tag k="addr:housenumber" v="204"/><tag k="addr:postcode" v="97214"/><tag k="addr:city" v="Portland"/><tag k="addr:street" v="Southeast Oak Street"/></node>
<node id="-17" lat="45.519931962" lon="-122.663539203" visible="true"><tag k="addr:housenumber" v="208"/><tag k="addr:postcode" v="97214"/><tag k="addr:city" v="Portland"/><tag k="addr:street" v="Southeast Oak Street"/></node>
<node id="-18" lat="45.520309591" lon="-122.662963814" visible="true"><tag k="addr:housenumber" v="239"/><tag k="addr:postcode" v="97214"/><tag k="addr:city" v="Portland"/><tag k="addr:street" v="Southeast Oak Street"/></node>
<node id="-19" lat="45.519574295" lon="-122.682632515" visible="true"><tag k="addr:housenumber" v="711"/><tag k="addr:postcode" v="97205"/><tag k="addr:city" v="Portland"/><tag k="addr:street" v="Southwest 10th Avenue"/></node>
<node id="-20" lat="45.519581491" lon="-122.682633513" visible="true"><tag k="addr:housenumber" v="717"/><tag k="addr:postcode" v="97205"/><tag k="addr:city" v="Portland"/><tag k="addr:street" v="Southwest 10th Avenue"/></node>
<node id="-21" lat="45.519580085" lon="-122.682635291" visible="true"><tag k="addr:housenumber" v="721"/><tag k="addr:postcode" v="97205"/><tag k="addr:city" v="Portland"/><tag k="addr:street" v="Southwest 10th Avenue"/></node>
<node id="-22" lat="45.519575024" lon="-122.682632725" visible="true"><tag k="addr:housenumber" v="725"/><tag k="addr:postcode" v="97205"/><tag k="addr:city" v="Portland"/><tag k="addr:street" v="Southwest 10th Avenue"/></node>
<node id="-23" lat="45.51957481" lon="-122.682635001" visible="true"><tag k="addr:housenumber" v="733"/><tag k="addr:postcode" v="97205"/><tag k="addr:city" v="Portland"/><tag k="addr:street" v="Southwest 10th Avenue"/></node>
<node id="-24" lat="45.519579027" lon="-122.682634928" visible="true"><tag k="addr:housenumber" v="739"/><tag k="addr:postcode" v="97205"/><tag k="addr:city" v="Portland"/><tag k="addr:street" v="Southwest 10th Avenue"/></node>
<node id="-25" lat="45.514582783" lon="-122.686586969" visible="true"><tag k="addr:housenumber" v="1525"/><tag k="addr:postcode" v="97201"/><tag k="addr:city" v="Portland"/><tag k="addr:street" v="Southwest 11th Avenue"/></node>
<node id="-26" lat="45.519931784" lon="-122.682929584" visible="true"><tag k="addr:housenumber" v="712"/><tag k="addr:postcode" v="97205"/><tag k="addr:city" v="Portland"/><tag k="addr:street" v="Southwest 11th Avenue"/></node>
<node id="-27" lat="45.519927684" lon="-122.682938882" visible="true"><tag k="addr:housenumber" v="714"/><tag k="addr:postcode" v="97205"/><tag k="addr:city" v="Portland"/><tag k="addr:street" v="Southwest 11th Avenue"/></node>
<node id="-28" lat="45.515708852" lon="-122.686505406" visible="true"><tag k="addr:housenumber" v="1402"/><tag k="addr:postcode" v="97201"/><tag k="addr:city" v="Portland"/><tag k="addr:street" v="Southwest 12th Avenue"/></node>
<node id="-29" lat="45.515707319" lon="-122.686507145" visible="true"><tag k="addr:housenumber" v="1406"/><tag k="addr:postcode" v="97201"/><tag k="addr:city" v="Portland"/><tag k="addr:street" v="Southwest 12th Avenue"/></node>
<node id="-30" lat="45.519554358" lon="-122.687393084" visible="true"><tag k="addr:housenumber" v="417"/><tag k="addr:postcode" v="97205"/><tag k="addr:city" v="Portland"/><tag k="addr:street" v="Southwest 14th Avenue"/></node>
<node id="-31" lat="45.520327079" lon="-122.686972288" visible="true"><tag k="addr:housenumber" v="711"/><tag k="addr:postcode" v="97205"/><tag k="addr:city" v="Portland"/><tag k="addr:street" v="Southwest 14th Avenue"/></node>
<node id="-32" lat="45.520324524" lon="-122.686972982" visible="true"><tag k="addr:housenumber" v="807"/><tag k="addr:postcode" v="97205"/><tag k="addr:city" v="Portland"/><tag k="addr:street" v="Southwest 14th Avenue"/></node>
<node id="-33" lat="45.519556007" lon="-122.6873956" visible="true"><tag k="addr:housenumber" v="919"/><tag k="addr:postcode" v="97205"/><tag k="addr:city" v="Portland"/><tag k="addr:street" v="Southwest 14th Avenue"/></node>
<node id="-34" lat="45.521095899" lon="-122.686979863" visible="true"><tag k="addr:housenumber" v="714"/><tag k="addr:postcode" v="97205"/><tag k="addr:city" v="Portland"/><tag k="addr:street" v="Southwest 15th Avenue"/></node>
<node id="-35" lat="45.522638524" lon="-122.687879914" visible="true"><tag k="addr:housenumber" v="921"/><tag k="addr:postcode" v="97205"/><tag k="addr:city" v="Portland"/><tag k="addr:street" v="Southwest 16th Avenue"/></node>
<node id="-36" lat="45.519811033" lon="-122.688760374" visible="true"><tag k="addr:housenumber" v="924"/><tag k="addr:postcode" v="97205"/><tag k="addr:city" v="Portland"/><tag k="addr:street" v="Southwest 16th Avenue"/></node>
<node id="-37" lat="45.519815854" lon="-122.688757021" visible="true"><tag k="addr:housenumber" v="931"/><tag k="addr:postcode" v="97205"/><tag k="addr:city" v="Portland"/><tag k="addr:street" v="Southwest 16th Avenue"/></node>
<node id="-38" lat="45.517162255" lon="-122.691933358" visible="true"><tag k="addr:housenumber" v="1405"/><tag k="addr:postcode" v="97201"/><tag k="addr:city" v="Portland"/><tag k="addr:street" v="Southwest 17th Avenue"/></node>
<node id="-39" lat="45.516409462" lon="-122.692847284" visible="true"><tag k="addr:housenumber" v="1518"/><tag k="addr:postcode" v="97201"/><tag k="addr:city" v="Portland"/><tag k="addr:street" v="Southwest 18th Avenue"/></node>
<node id="-40" lat="45.516404618" lon="-122.692850848" visible="true"><tag k="addr:housenumber" v="1520"/><tag k="addr:postcode" v="97201"/><tag k="addr:city" v="Portland"/><tag k="addr:street" v="Southwest 18th Avenue"/></node>
<node id="-41" lat="45.516503489" lon="-122.693468342" visible="true"><tag k="addr:housenumber" v="1525"/><tag k="addr:postcode" v="97201"/><tag k="addr:city" v="Portland"/><tag k="addr:street" v="Southwest 18th Avenue"/></node>
<node id="-42" lat="45.516326077" lon="-122.692969394" visible="true"><tag k="addr:housenumber" v="1526"/><tag k="addr:postcode" v="97201"/><tag k="addr:city" v="Portland"/><tag k="addr:street" v="Southwest 18th Avenue"/></node>
<node id="-43" lat="45.516504435" lon="-122.693466423" visible="true"><tag k="addr:housenumber" v="1527"/><tag k="addr:postcode" v="97201"/><tag k="addr:city" v="Portland"/><tag k="addr:street" v="Southwest 18th Avenue"/></node>
<node id="-44" lat="45.516321278" lon="-122.692965781" visible="true"><tag k="addr:housenumber" v="1528"/><tag k="addr:postcode" v="97201"/><tag k="addr:city" v="Portland"/><tag k="addr:street" v="Southwest 18th Avenue"/></node>
<node id="-45" lat="45.51632073" lon="-122.692961588" visible="true"><tag k="addr:housenumber" v="1530"/><tag k="addr:postcode" v="97201"/><tag k="addr:city" v="Portland"/><tag k="addr:street" v="Southwest 18th Avenue"/></node>
<node id="-46" lat="45.518752805" lon="-122.693228493" visible="true"><tag k="addr:housenumber" v="1202"/><tag k="addr:postcode" v="97205"/><tag k="addr:city" v="Portland"/><tag k="addr:street" v="Southwest 19th Avenue"/></node>
<node id="-47" lat="45.518850341" lon="-122.693643452" visible="true"><tag k="addr:housenumber" v="1205"/><tag k="addr:postcode" v="97205"/><tag k="addr:city" v="Portland"/><tag k="addr:street" v="Southwest 19th Avenue"/></node>
<node id="-48" lat="45.518751979" lon="-122.693227292" visible="true"><tag k="addr:housenumber" v="1206"/><tag k="addr:postcode" v="97205"/><tag k="addr:city" v="Portland"/><tag k="addr:street" v="Southwest 19th Avenue"/></node>
<node id="-49" lat="45.518720123" lon="-122.693716061" visible="true"><tag k="addr:housenumber" v="1217"/><tag k="addr:postcode" v="97205"/><tag k="addr:city" v="Portland"/><tag k="addr:street" v="Southwest 19th Avenue"/></node>
<node id="-50" lat="45.518712833" lon="-122.693719776" visible="true"><tag k="addr:housenumber" v="1219"/><tag k="addr:postcode" v="97205"/><tag k="addr:city" v="Portland"/><tag k="addr:street" v="Southwest 19th Avenue"/></node>
<node id="-51" lat="45.518900369" lon="-122.694269765" visible="true"><tag k="addr:housenumber" v="1210"/><tag k="addr:postcode" v="97205"/><tag k="addr:city" v="Portland"/><tag k="addr:street" v="Southwest 20th Avenue"/></node>
<node id="-52" lat="45.518897016" lon="-122.694272392" visible="true"><tag k="addr:housenumber" v="1212"/><tag k="addr:postcode" v="97205"/><tag k="addr:city" v="Portland"/><tag k="addr:street" v="Southwest 20th Avenue"/></node>
<node id="-53" lat="45.518897251" lon="-122.69426584" visible="true"><tag k="addr:housenumber" v="1214"/><tag k="addr:postcode" v="97205"/><tag k="addr:city" v="Portland"/><tag k="addr:street" v="Southwest 20th Avenue"/></node>
<node id="-54" lat="45.512537483" lon="-122.699029931" visible="true"><tag k="addr:housenumber" v="2045"/><tag k="addr:postcode" v="97201"/><tag k="addr:city" v="Portland"/><tag k="addr:street" v="Southwest 21st Avenue"/></node>
<node id="-55" lat="45.519106676" lon="-122.674694503" visible="true"><tag k="addr:housenumber" v="522"/><tag k="addr:postcode" v="97204"/><tag k="addr:city" v="Portland"/><tag k="addr:street" v="Southwest 3rd Avenue"/></node>
<node id="-56" lat="45.519102866" lon="-122.674698035" visible="true"><tag k="addr:housenumber" v="526"/><tag k="addr:postcode" v="97204"/><tag k="addr:city" v="Portland"/><tag k="addr:street" v="Southwest 3rd Avenue"/></node>
<node id="-57" lat="45.519102422" lon="-122.674699103" visible="true"><tag k="addr:housenumber" v="528"/><tag k="addr:postcode" v="97204"/><tag k="addr:city" v="Portland"/><tag k="addr:street" v="Southwest 3rd Avenue"/></node>
<node id="-58" lat="45.51626912" lon="-122.677195469" visible="true"><tag k="addr:housenumber" v="1024"/><tag k="addr:postcode" v="97204"/><tag k="addr:city" v="Portland"/><tag k="addr:street" v="Southwest 4th Avenue"/></node>
<node id="-59" lat="45.519435396" lon="-122.681093257" visible="true"><tag k="addr:housenumber" v="710"/><tag k="addr:postcode" v="97205"/><tag k="addr:city" v="Portland"/><tag k="addr:street" v="Southwest 9th Avenue"/></node>
<node id="-60" lat="45.519354483" lon="-122.681035832" visible="true"><tag k="addr:housenumber" v="720"/><tag k="addr:postcode" v="97205"/><tag k="addr:city" v="Portland"/><tag k="addr:street" v="Southwest 9th Avenue"/></node>
<node id="-61" lat="45.519441531" lon="-122.681094933" visible="true"><tag k="addr:housenumber" v="722"/><tag k="addr:postcode" v="97205"/><tag k="addr:city" v="Portland"/><tag k="addr:street" v="Southwest 9th Avenue"/></node>
<node id="-62" lat="45.519349668" lon="-122.681034755" visible="true"><tag k="addr:housenumber" v="728"/><tag k="addr:postcode" v="97205"/><tag k="addr:city" v="Portland"/><tag k="addr:street" v="Southwest 9th Avenue"/></node>
<node id="-63" lat="45.519180175" lon="-122.681235547" visible="true"><tag k="addr:housenumber" v="732"/><tag k="addr:postcode" v="97205"/><tag k="addr:city" v="Portland"/><tag k="addr:street" v="Southwest 9th Avenue"/></node>
<node id="-64" lat="45.519353384" lon="-122.681037054" visible="true"><tag k="addr:housenumber" v="750"/><tag k="addr:postcode" v="97205"/><tag k="addr:city" v="Portland"/><tag k="addr:street" v="Southwest 9th Avenue"/></node>
<node id="-65" lat="45.519346126" lon="-122.681039984" visible="true"><tag k="addr:housenumber" v="760"/><tag k="addr:postcode" v="97205"/><tag k="addr:city" v="Portland"/><tag k="addr:street" v="Southwest 9th Avenue"/></node>
<node id="-66" lat="45.519353713" lon="-122.681034578" visible="true"><tag k="addr:housenumber" v="780"/><tag k="addr:postcode" v="97205"/><tag k="addr:city" v="Portland"/><tag k="addr:street" v="Southwest 9th Avenue"/></node>
<node id="-67" lat="45.522717423" lon="-122.68845173" visible="true"><tag k="addr:housenumber" v="1633"/><tag k="addr:postcode" v="97205"/><tag k="addr:city" v="Portland"/><tag k="addr:street" v="Southwest Alder Street"/></node>
<node id="-68" lat="45.522721763" lon="-122.688449991" visible="true"><tag k="addr:housenumber" v="1635"/><tag k="addr:postcode" v="97205"/><tag k="addr:city" v="Portland"/><tag k="addr:street" v="Southwest Alder Street"/></node>
<node id="-69" lat="45.522717688" lon="-122.688453859" visible="true"><tag k="addr:housenumber" v="1637"/><tag k="addr:postcode" v="97205"/><tag k="addr:city" v="Portland"/><tag k="addr:street" v="Southwest Alder Street"/></node>
<node id="-70" lat="45.51471819" lon="-122.69477941" visible="true"><tag k="addr:housenumber" v="1827"/><tag k="addr:postcode" v="97201"/><tag k="addr:city" v="Portland"/><tag k="addr:street" v="Southwest Cable Avenue"/></node>
<node id="-71" lat="45.514717352" lon="-122.694776416" visible="true"><tag k="addr:housenumber" v="1829"/><tag k="addr:postcode" v="97201"/><tag k="addr:city" v="Portland"/><tag k="addr:street" v="Southwest Cable Avenue"/></node>
<node id="-72" lat="45.519427578" lon="-122.697523992" visible="true"><tag k="addr:housenumber" v="2245"/><tag k="addr:postcode" v="97201"/><tag k="addr:city" v="Portland"/><tag k="addr:street" v="Southwest Canyon Road"/></node>
<node id="-73" lat="45.51943322" lon="-122.697524237" visible="true"><tag k="addr:housenumber" v="2255"/><tag k="addr:postcode" v="97201"/><tag k="addr:city" v="Portland"/><tag k="addr:street" v="Southwest Canyon Road"/></node>
<node id="-74" lat="45.519111952" lon="-122.698717453" visible="true"><tag k="addr:housenumber" v="2340"/><tag k="addr:postcode" v="97201"/><tag k="addr:city" v="Portland"/><tag k="addr:street" v="Southwest Canyon Road"/></node>
<node id="-75" lat="45.514627362" lon="-122.685394635" visible="true"><tag k="addr:housenumber" v="1016"/><tag k="addr:postcode" v="97201"/><tag k="addr:city" v="Portland"/><tag k="addr:street" v="Southwest Clay Street"/></node>
<node id="-76" lat="45.514636776" lon="-122.685390604" visible="true"><tag k="addr:housenumber" v="1020"/><tag k="addr:postcode" v="97201"/><tag k="addr:city" v="Portland"/><tag k="addr:street" v="Southwest Clay Street"/></node>
<node id="-77" lat="45.516756893" lon="-122.692130067" visible="true"><tag k="addr:housenumber" v="1703"/><tag k="addr:postcode" v="97201"/><tag k="addr:city" v="Portland"/><tag k="addr:street" v="Southwest Clay Street"/></node>
<node id="-78" lat="45.516761884" lon="-122.69212643" visible="true"><tag k="addr:housenumber" v="1705"/><tag k="addr:postcode" v="97201"/><tag k="addr:city" v="Portland"/><tag k="addr:street" v="Southwest Clay Street"/></node>
<node id="-79" lat="45.512532641" lon="-122.69903356" visible="true"><tag k="addr:housenumber" v="2105"/><tag k="addr:postcode" v="97201"/><tag k="addr:city" v="Portland"/><tag k="addr:street" v="Southwest Clifton Street"/></node>
<node id="-80" lat="45.516983405" lon="-122.689432663" visible="true"><tag k="addr:housenumber" v="1437"/><tag k="addr:postcode" v="97201"/><tag k="addr:city" v="Portland"/><tag k="addr:street" v="Southwest Columbia Street"/></node>
<node id="-81" lat="45.516981743" lon="-122.689429294" visible="true"><tag k="addr:housenumber" v="1439"/><tag k="addr:postcode" v="97201"/><tag k="addr:city" v="Portland"/><tag k="addr:street" v="Southwest Columbia Street"/></node>
<node id="-82" lat="45.51698536" lon="-122.689435596" visible="true"><tag k="addr:housenumber" v="1441"/><tag k="addr:postcode" v="97201"/><tag k="addr:city" v="Portland"/><tag k="addr:street" v="Southwest Columbia Street"/></node>
<node id="-83" lat="45.51701316" lon="-122.689963043" visible="true"><tag k="addr:housenumber" v="1513"/><tag k="addr:postcode" v="97201"/><tag k="addr:city" v="Portland"/><tag k="addr:street" v="Southwest Columbia Street"/></node>
<node id="-84" lat="45.517014952" lon="-122.689970472" visible="true"><tag k="addr:housenumber" v="1515"/><tag k="addr:postcode" v="97201"/><tag k="addr:city" v="Portland"/><tag k="addr:street" v="Southwest Columbia Street"/></node>
<node id="-85" lat="45.517043261" lon="-122.690077527" visible="true"><tag k="addr:housenumber" v="1517"/><tag k="addr:postcode" v="97201"/><tag k="addr:city" v="Portland"/><tag k="addr:street" v="Southwest Columbia Street"/></node>
<node id="-86" lat="45.517050823" lon="-122.69008298" visible="true"><tag k="addr:housenumber" v="1518"/><tag k="addr:postcode" v="97201"/><tag k="addr:city" v="Portland"/><tag k="addr:street" v="Southwest Columbia Street"/></node>
<node id="-87" lat="45.517045887" lon="-122.690079042" visible="true"><tag k="addr:housenumber" v="1519"/><tag k="addr:postcode" v="97201"/><tag k="addr:city" v="Portland"/><tag k="addr:street" v="Southwest Columbia Street"/></node>
<node id="-88" lat="45.517158376" lon="-122.691930272" visible="true"><tag k="addr:housenumber" v="1700"/><tag k="addr:postcode" v="97201"/><tag k="addr:city" v="Portland"/><tag k="addr:street" v="Southwest Columbia Street"/></node>
<node id="-89" lat="45.517167331" lon="-122.691931955" visible="true"><tag k="addr:housenumber" v="1708"/><tag k="addr:postcode" v="97201"/><tag k="addr:city" v="Portland"/><tag k="addr:street" v="Southwest Columbia Street"/></node>
<node id="-90" lat="45.512696659" lon="-122.691222632" visible="true"><tag k="addr:housenumber" v="1409"/><tag k="addr:postcode" v="97201"/><tag k="addr:city" v="Portland"/><tag k="addr:street" v="Southwest Hall Street"/></node>
<node id="-91" lat="45.512699502" lon="-122.691217971" visible="true"><tag k="addr:housenumber" v="1411"/><tag k="addr:postcode" v="97201"/><tag k="addr:city" v="Portland"/><tag k="addr:street" v="Southwest Hall Street"/></node>
<node id="-92" lat="45.512704627" lon="-122.691216502" visible="true"><tag k="addr:housenumber" v="1415"/><tag k="addr:postcode" v="97201"/><tag k="addr:city" v="Portland"/><tag k="addr:street" v="Southwest Hall Street"/></node>
<node id="-93" lat="45.512811355" lon="-122.691356929" visible="true"><tag k="addr:housenumber" v="1421"/><tag k="addr:postcode" v="97201"/><tag k="addr:city" v="Portland"/><tag k="addr:street" v="Southwest Hall Street"/></node>
<node id="-94" lat="45.51281126" lon="-122.691362347" visible="true"><tag k="addr:housenumber" v="1422"/><tag k="addr:postcode" v="97201"/><tag k="addr:city" v="Portland"/><tag k="addr:street" v="Southwest Hall Street"/></node>
<node id="-95" lat="45.512806489" lon="-122.691357394" visible="true"><tag k="addr:housenumber" v="1423"/><tag k="addr:postcode" v="97201"/><tag k="addr:city" v="Portland"/><tag k="addr:street" v="Southwest Hall Street"/></node>
<node id="-96" lat="45.512808479" lon="-122.691360837" visible="true"><tag k="addr:housenumber" v="1424"/><tag k="addr:postcode" v="97201"/><tag k="addr:city" v="Portland"/><tag k="addr:street" v="Southwest Hall Street"/></node>
<node id="-97" lat="45.512812818" lon="-122.691362072" visible="true"><tag k="addr:housenumber" v="1425"/><tag k="addr:postcode" v="97201"/><tag k="addr:city" v="Portland"/><tag k="addr:street" v="Southwest Hall Street"/></node>
<node id="-98" lat="45.512864018" lon="-122.691555599" visible="true"><tag k="addr:housenumber" v="1433"/><tag k="addr:postcode" v="97201"/><tag k="addr:city" v="Portland"/><tag k="addr:street" v="Southwest Hall Street"/></node>
<node id="-99" lat="45.512867882" lon="-122.691562289" visible="true"><tag k="addr:housenumber" v="1435"/><tag k="addr:postcode" v="97201"/><tag k="addr:city" v="Portland"/><tag k="addr:street" v="Southwest Hall Street"/></node>
<node id="-100" lat="45.512864297" lon="-122.691558498" visible="true"><tag k="addr:housenumber" v="1437"/><tag k="addr:postcode" v="97201"/><tag k="addr:city" v="Portland"/><tag k="addr:street" v="Southwest Hall Street"/></node>
<node id="-101" lat="45.51312412" lon="-122.692266416" visible="true"><tag k="addr:housenumber" v="1511"/><tag k="addr:postcode" v="97201"/><tag k="addr:city" v="Portland"/><tag k="addr:street" v="Southwest Hall Street"/></node>
<node id="-102" lat="45.513127381" lon="-122.692274899" visible="true"><tag k="addr:housenumber" v="1513"/><tag k="addr:postcode" v="97201"/><tag k="addr:city" v="Portland"/><tag k="addr:street" v="Southwest Hall Street"/></node>
<node id="-103" lat="45.513064319" lon="-122.691226172" visible="true"><tag k="addr:housenumber" v="1422"/><tag k="addr:postcode" v="97201"/><tag k="addr:city" v="Portland"/><tag k="addr:street" v="Southwest Harrison Street"/></node>
<node id="-104" lat="45.513071093" lon="-122.691218463" visible="true"><tag k="addr:housenumber" v="1426"/><tag k="addr:postcode" v="97201"/><tag k="addr:city" v="Portland"/><tag k="addr:street" v="Southwest Harrison Street"/></node>
<node id="-105" lat="45.513565873" lon="-122.691329081" visible="true"><tag k="addr:housenumber" v="1441"/><tag k="addr:postcode" v="97201"/><tag k="addr:city" v="Portland"/><tag k="addr:street" v="Southwest Harrison Street"/></node>
<node id="-106" lat="45.513560921" lon="-122.691331672" visible="true"><tag k="addr:housenumber" v="1445"/><tag k="addr:postcode" v="97201"/><tag k="addr:city" v="Portland"/><tag k="addr:street" v="Southwest Harrison Street"/></node>
<node id="-107" lat="45.513554005" lon="-122.69152659" visible="true"><tag k="addr:housenumber" v="1501"/><tag k="addr:postcode" v="97201"/><tag k="addr:city" v="Portland"/><tag k="addr:street" v="Southwest Harrison Street"/></node>
<node id="-108" lat="45.513263385" lon="-122.691929099" visible="true"><tag k="addr:housenumber" v="1518"/><tag k="addr:postcode" v="97201"/><tag k="addr:city" v="Portland"/><tag k="addr:street" v="Southwest Harrison Street"/></node>
<node id="-109" lat="45.513263781" lon="-122.691924924" visible="true"><tag k="addr:housenumber" v="1520"/><tag k="addr:postcode" v="97201"/><tag k="addr:city" v="Portland"/><tag k="addr:street" v="Southwest Harrison Street"/></node>
<node id="-110" lat="45.513262406" lon="-122.691929465" visible="true"><tag k="addr:housenumber" v="1522"/><tag k="addr:postcode" v="97201"/><tag k="addr:city" v="Portland"/><tag k="addr:street" v="Southwest Harrison Street"/></node>
<node id="-111" lat="45.517545879" lon="-122.691130952" visible="true"><tag k="addr:housenumber" v="1610"/><tag k="addr:postcode" v="97201"/><tag k="addr:city" v="Portland"/><tag k="addr:street" v="Southwest Jefferson Street"/></node>
<node id="-112" lat="45.517544799" lon="-122.691129547" visible="true"><tag k="addr:housenumber" v="1612"/><tag k="addr:postcode" v="97201"/><tag k="addr:city" v="Portland"/><tag k="addr:street" v="Southwest Jefferson Street"/></node>
<node id="-113" lat="45.517545373" lon="-122.69113282" visible="true"><tag k="addr:housenumber" v="1636"/><tag k="addr:postcode" v="97201"/><tag k="addr:city" v="Portland"/><tag k="addr:street" v="Southwest Jefferson Street"/></node>
<node id="-114" lat="45.518058441" lon="-122.691543678" visible="true"><tag k="addr:housenumber" v="1701"/><tag k="addr:postcode" v="97201"/><tag k="addr:city" v="Portland"/><tag k="addr:street" v="Southwest Jefferson Street"/></node>
<node id="-115" lat="45.518062778" lon="-122.691544312" visible="true"><tag k="addr:housenumber" v="1707"/><tag k="addr:postcode" v="97201"/><tag k="addr:city" v="Portland"/><tag k="addr:street" v="Southwest Jefferson Street"/></node>
<node id="-116" lat="45.518059159" lon="-122.691547085" visible="true"><tag k="addr:housenumber" v="1711"/><tag k="addr:postcode" v="97201"/><tag k="addr:city" v="Portland"/><tag k="addr:street" v="Southwest Jefferson Street"/></node>
<node id="-117" lat="45.519432934" lon="-122.697522406" visible="true"><tag k="addr:housenumber" v="2245"/><tag k="addr:postcode" v="97201"/><tag k="addr:city" v="Portland"/><tag k="addr:street" v="Southwest Jefferson Street"/></node>
<node id="-118" lat="45.519426735" lon="-122.697529427" visible="true"><tag k="addr:housenumber" v="2251"/><tag k="addr:postcode" v="97201"/><tag k="addr:city" v="Portland"/><tag k="addr:street" v="Southwest Jefferson Street"/></node>
<node id="-119" lat="45.519432596" lon="-122.697526611" visible="true"><tag k="addr:housenumber" v="2255"/><tag k="addr:postcode" v="97201"/><tag k="addr:city" v="Portland"/><tag k="addr:street" v="Southwest Jefferson Street"/></node>
<node id="-120" lat="45.519110282" lon="-122.698720754" visible="true"><tag k="addr:housenumber" v="2321"/><tag k="addr:postcode" v="97201"/><tag k="addr:city" v="Portland"/><tag k="addr:street" v="Southwest Jefferson Street"/></node>
<node id="-121" lat="45.519108696" lon="-122.698724824" visible="true"><tag k="addr:housenumber" v="2329"/><tag k="addr:postcode" v="97201"/><tag k="addr:city" v="Portland"/><tag k="addr:street" v="Southwest Jefferson Street"/></node>
<node id="-122" lat="45.518752685" lon="-122.693225882" visible="true"><tag k="addr:housenumber" v="1888"/><tag k="addr:postcode" v="97205"/><tag k="addr:city" v="Portland"/><tag k="addr:street" v="Southwest Madison Street"/></node>
<node id="-123" lat="45.518851847" lon="-122.693639507" visible="true"><tag k="addr:housenumber" v="1906"/><tag k="addr:postcode" v="97205"/><tag k="addr:city" v="Portland"/><tag k="addr:street" v="Southwest Madison Street"/></node>
<node id="-124" lat="45.51895934" lon="-122.694032894" visible="true"><tag k="addr:housenumber" v="1924"/><tag k="addr:postcode" v="97205"/><tag k="addr:city" v="Portland"/><tag k="addr:street" v="Southwest Madison Street"/></node>
<node id="-125" lat="45.518963854" lon="-122.694034448" visible="true"><tag k="addr:housenumber" v="1926"/><tag k="addr:postcode" v="97205"/><tag k="addr:city" v="Portland"/><tag k="addr:street" v="Southwest Madison Street"/></node>
<node id="-126" lat="45.51938405" lon="-122.692637416" visible="true"><tag k="addr:housenumber" v="1824"/><tag k="addr:postcode" v="97205"/><tag k="addr:city" v="Portland"/><tag k="addr:street" v="Southwest Main Street"/></node>
<node id="-127" lat="45.519382566" lon="-122.692643389" visible="true"><tag k="addr:housenumber" v="1826"/><tag k="addr:postcode" v="97205"/><tag k="addr:city" v="Portland"/><tag k="addr:street" v="Southwest Main Street"/></node>
<node id="-128" lat="45.514582517" lon="-122.686587323" visible="true"><tag k="addr:housenumber" v="1101"/><tag k="addr:postcode" v="97201"/><tag k="addr:city" v="Portland"/><tag k="addr:street" v="Southwest Market Street"/></node>
<node id="-129" lat="45.514587003" lon="-122.686587052" visible="true"><tag k="addr:housenumber" v="1115"/><tag k="addr:postcode" v="97201"/><tag k="addr:city" v="Portland"/><tag k="addr:street" v="Southwest Market Street"/></node>
<node id="-130" lat="45.515670385" lon="-122.690637449" visible="true"><tag k="addr:housenumber" v="1511"/><tag k="addr:postcode" v="97201"/><tag k="addr:city" v="Portland"/><tag k="addr:street" v="Southwest Market Street"/></node>
<node id="-131" lat="45.515663452" lon="-122.69063476" visible="true"><tag k="addr:housenumber" v="1513"/><tag k="addr:postcode" v="97201"/><tag k="addr:city" v="Portland"/><tag k="addr:street" v="Southwest Market Street"/></node>
<node id="-132" lat="45.515672392" lon="-122.690633507" visible="true"><tag k="addr:housenumber" v="1531"/><tag k="addr:postcode" v="97201"/><tag k="addr:city" v="Portland"/><tag k="addr:street" v="Southwest Market Street"/></node>
<node id="-133" lat="45.516151568" lon="-122.692686501" visible="true"><tag k="addr:housenumber" v="1713"/><tag k="addr:postcode" v="97201"/><tag k="addr:city" v="Portland"/><tag k="addr:street" v="Southwest Market Street"/></node>
<node id="-134" lat="45.516151494" lon="-122.692689099" visible="true"><tag k="addr:housenumber" v="1715"/><tag k="addr:postcode" v="97201"/><tag k="addr:city" v="Portland"/><tag k="addr:street" v="Southwest Market Street"/></node>
<node id="-135" lat="45.516146122" lon="-122.692682984" visible="true"><tag k="addr:housenumber" v="1717"/><tag k="addr:postcode" v="97201"/><tag k="addr:city" v="Portland"/><tag k="addr:street" v="Southwest Market Street"/></node>
<node id="-136" lat="45.516217075" lon="-122.692813257" visible="true"><tag k="addr:housenumber" v="1723"/><tag k="addr:postcode" v="97201"/><tag k="addr:city" v="Portland"/><tag k="addr:street" v="Southwest Market Street"/></node>
<node id="-137" lat="45.516218071" lon="-122.692821602" visible="true"><tag k="addr:housenumber" v="1725"/><tag k="addr:postcode" v="97201"/><tag k="addr:city" v="Portland"/><tag k="addr:street" v="Southwest Market Street"/></node>
<node id="-138" lat="45.515910668" lon="-122.693127902" visible="true"><tag k="addr:housenumber" v="1726"/><tag k="addr:postcode" v="97201"/><tag k="addr:city" v="Portland"/><tag k="addr:street" v="Southwest Market Street"/></node>
<node id="-139" lat="45.515913445" lon="-122.693125046" visible="true"><tag k="addr:housenumber" v="1730"/><tag k="addr:postcode" v="97201"/><tag k="addr:city" v="Portland"/><tag k="addr:street" v="Southwest Market Street"/></node>
<node id="-140" lat="45.516248837" lon="-122.693084582" visible="true"><tag k="addr:housenumber" v="1737"/><tag k="addr:postcode" v="97201"/><tag k="addr:city" v="Portland"/><tag k="addr:street" v="Southwest Market Street"/></node>
<node id="-141" lat="45.516245886" lon="-122.693080959" visible="true"><tag k="addr:housenumber" v="1739"/><tag k="addr:postcode" v="97201"/><tag k="addr:city" v="Portland"/><tag k="addr:street" v="Southwest Market Street"/></node>
<node id="-142" lat="45.518362297" lon="-122.699770446" visible="true"><tag k="addr:housenumber" v="2364"/><tag k="addr:postcode" v="97201"/><tag k="addr:city" v="Portland"/><tag k="addr:street" v="Southwest Market Street Drive"/></node>
<node id="-143" lat="45.518369895" lon="-122.699770842" visible="true"><tag k="addr:housenumber" v="2366"/><tag k="addr:postcode" v="97201"/><tag k="addr:city" v="Portland"/><tag k="addr:street" v="Southwest Market Street Drive"/></node>
<node id="-144" lat="45.515154764" lon="-122.694781667" visible="true"><tag k="addr:housenumber" v="1838"/><tag k="addr:postcode" v="97201"/><tag k="addr:city" v="Portland"/><tag k="addr:street" v="Southwest Mill Street Terrace"/></node>
<node id="-145" lat="45.515149688" lon="-122.69478369" visible="true"><tag k="addr:housenumber" v="1840"/><tag k="addr:postcode" v="97201"/><tag k="addr:city" v="Portland"/><tag k="addr:street" v="Southwest Mill Street Terrace"/></node>
<node id="-146" lat="45.51636394" lon="-122.697636956" visible="true"><tag k="addr:housenumber" v="1777"/><tag k="addr:postcode" v="97201"/><tag k="addr:city" v="Portland"/><tag k="addr:street" v="Southwest Montgomery Drive"/></node>
<node id="-147" lat="45.513559037" lon="-122.691527193" visible="true"><tag k="addr:housenumber" v="1502"/><tag k="addr:postcode" v="97201"/><tag k="addr:city" v="Portland"/><tag k="addr:street" v="Southwest Montgomery Street"/></node>
<node id="-148" lat="45.520059718" lon="-122.682869261" visible="true"><tag k="addr:housenumber" v="1022"/><tag k="addr:postcode" v="97205"/><tag k="addr:city" v="Portland"/><tag k="addr:street" v="Southwest Morrison Street"/></node>
<node id="-149" lat="45.520062159" lon="-122.682869383" visible="true"><tag k="addr:housenumber" v="1026"/><tag k="addr:postcode" v="97205"/><tag k="addr:city" v="Portland"/><tag k="addr:street" v="Southwest Morrison Street"/></node>
<node id="-150" lat="45.520058532" lon="-122.682862634" visible="true"><tag k="addr:housenumber" v="1030"/><tag k="addr:postcode" v="97205"/><tag k="addr:city" v="Portland"/><tag k="addr:street" v="Southwest Morrison Street"/></node>
<node id="-151" lat="45.520056838" lon="-122.682869793" visible="true"><tag k="addr:housenumber" v="1032"/><tag k="addr:postcode" v="97205"/><tag k="addr:city" v="Portland"/><tag k="addr:street" v="Southwest Morrison Street"/></node>
<node id="-152" lat="45.520056363" lon="-122.682864799" visible="true"><tag k="addr:housenumber" v="1038"/><tag k="addr:postcode" v="97205"/><tag k="addr:city" v="Portland"/><tag k="addr:street" v="Southwest Morrison Street"/></node>
<node id="-153" lat="45.521096963" lon="-122.68698054" visible="true"><tag k="addr:housenumber" v="1424"/><tag k="addr:postcode" v="97205"/><tag k="addr:city" v="Portland"/><tag k="addr:street" v="Southwest Morrison Street"/></node>
<node id="-154" lat="45.521102934" lon="-122.686985962" visible="true"><tag k="addr:housenumber" v="1434"/><tag k="addr:postcode" v="97205"/><tag k="addr:city" v="Portland"/><tag k="addr:street" v="Southwest Morrison Street"/></node>
<node id="-155" lat="45.519349541" lon="-122.681035342" visible="true"><tag k="addr:housenumber" v="800"/><tag k="addr:postcode" v="97205"/><tag k="addr:city" v="Portland"/><tag k="addr:street" v="Southwest Morrison Street"/></node>
<node id="-156" lat="45.51935243" lon="-122.681037404" visible="true"><tag k="addr:housenumber" v="816"/><tag k="addr:postcode" v="97205"/><tag k="addr:city" v="Portland"/><tag k="addr:street" v="Southwest Morrison Street"/></node>
<node id="-157" lat="45.519348736" lon="-122.681037069" visible="true"><tag k="addr:housenumber" v="820"/><tag k="addr:postcode" v="97205"/><tag k="addr:city" v="Portland"/><tag k="addr:street" v="Southwest Morrison Street"/></node>
<node id="-158" lat="45.519352355" lon="-122.681039919" visible="true"><tag k="addr:housenumber" v="850"/><tag k="addr:postcode" v="97205"/><tag k="addr:city" v="Portland"/><tag k="addr:street" v="Southwest Morrison Street"/></node>
<node id="-159" lat="45.519199312" lon="-122.681013983" visible="true"><tag k="addr:housenumber" v="723"/><tag k="addr:postcode" v="97205"/><tag k="addr:city" v="Portland"/><tag k="addr:street" v="Southwest Park Avenue"/></node>
<node id="-160" lat="45.519196698" lon="-122.68101633" visible="true"><tag k="addr:housenumber" v="725"/><tag k="addr:postcode" v="97205"/><tag k="addr:city" v="Portland"/><tag k="addr:street" v="Southwest Park Avenue"/></node>
<node id="-161" lat="45.51919904" lon="-122.681017838" visible="true"><tag k="addr:housenumber" v="735"/><tag k="addr:postcode" v="97205"/><tag k="addr:city" v="Portland"/><tag k="addr:street" v="Southwest Park Avenue"/></node>
<node id="-162" lat="45.519193328" lon="-122.681017936" visible="true"><tag k="addr:housenumber" v="739"/><tag k="addr:postcode" v="97205"/><tag k="addr:city" v="Portland"/><tag k="addr:street" v="Southwest Park Avenue"/></node>
<node id="-163" lat="45.516366821" lon="-122.69763871" visible="true"><tag k="addr:housenumber" v="1775"/><tag k="addr:postcode" v="97201"/><tag k="addr:city" v="Portland"/><tag k="addr:street" v="Southwest Prospect Drive"/></node>
<node id="-164" lat="45.516274028" lon="-122.677198102" visible="true"><tag k="addr:housenumber" v="350"/><tag k="addr:postcode" v="97204"/><tag k="addr:city" v="Portland"/><tag k="addr:street" v="Southwest Salmon Street"/></node>
<node id="-165" lat="45.520866502" lon="-122.690324297" visible="true"><tag k="addr:housenumber" v="1710"/><tag k="addr:postcode" v="97205"/><tag k="addr:city" v="Portland"/><tag k="addr:street" v="Southwest Taylor Street"/></node>
<node id="-166" lat="45.520862968" lon="-122.69032152" visible="true"><tag k="addr:housenumber" v="1723"/><tag k="addr:postcode" v="97205"/><tag k="addr:city" v="Portland"/><tag k="addr:street" v="Southwest Taylor Street"/></node>
<node id="-167" lat="45.520859657" lon="-122.690321697" visible="true"><tag k="addr:housenumber" v="1730"/><tag k="addr:postcode" v="97205"/><tag k="addr:city" v="Portland"/><tag k="addr:street" v="Southwest Taylor Street"/></node>
<node id="-168" lat="45.513128031" lon="-122.692269384" visible="true"><tag k="addr:housenumber" v="1511"/><tag k="addr:postcode" v="97201"/><tag k="addr:city" v="Portland"/><tag k="addr:street" v="Southwest Upper Hall Street"/></node>
<node id="-169" lat="45.513121139" lon="-122.692274672" visible="true"><tag k="addr:housenumber" v="1513"/><tag k="addr:postcode" v="97201"/><tag k="addr:city" v="Portland"/><tag k="addr:street" v="Southwest Upper Hall Street"/></node>
<node id="-170" lat="45.515735604" lon="-122.696431725" visible="true"><tag k="addr:housenumber" v="1720"/><tag k="addr:postcode" v="97201"/><tag k="addr:city" v="Portland"/><tag k="addr:street" v="Southwest Vista Avenue"/></node>
<node id="-171" lat="45.515733041" lon="-122.696430257" visible="true"><tag k="addr:housenumber" v="1722"/><tag k="addr:postcode" v="97201"/><tag k="addr:city" v="Portland"/><tag k="addr:street" v="Southwest Vista Avenue"/></node>
<node id="-172" lat="45.519764054" lon="-122.683070426" visible="true"><tag k="addr:housenumber" v="1033"/><tag k="addr:postcode" v="97205"/><tag k="addr:city" v="Portland"/><tag k="addr:street" v="Southwest Yamhill Street"/></node>
<node id="-173" lat="45.519770546" lon="-122.683071833" visible="true"><tag k="addr:housenumber" v="1035"/><tag k="addr:postcode" v="97205"/><tag k="addr:city" v="Portland"/><tag k="addr:street" v="Southwest Yamhill Street"/></node>
<node id="-174" lat="45.51934598" lon="-122.681034691" visible="true"><tag k="addr:housenumber" v="825"/><tag k="addr:postcode" v="97205"/><tag k="addr:city" v="Portland"/><tag k="addr:street" v="Southwest Yamhill Street"/></node>
<node id="-175" lat="45.519345743" lon="-122.681034937" visible="true"><tag k="addr:housenumber" v="855"/><tag k="addr:postcode" v="97205"/><tag k="addr:city" v="Portland"/><tag k="addr:street" v="Southwest Yamhill Street"/></node>
<node id="-176" lat="45.519347829" lon="-122.681032815" visible="true"><tag k="addr:housenumber" v="875"/><tag k="addr:postcode" v="97205"/><tag k="addr:city" v="Portland"/><tag k="addr:street" v="Southwest Yamhill Street"/></node>
<node id="-177" lat="45.522637545" lon="-122.687880683" visible="true"><tag k="addr:housenumber" v="1638"/><tag k="addr:postcode" v="97209"/><tag k="addr:city" v="Portland"/><tag k="addr:street" v="West Burnside Street"/></node>
</osm>