<?xml version="1.0"?>
<osm version="0.6" upload="false" generator="uvmogr2osm">
<node id="-1" lat="45.458314135" lon="-122.656273466" visible="true"><tag k="addr:housenumber" v="8867"/><tag k="addr:postcode" v="97202"/><tag k="addr:city" v="Portland"/><tag k="addr:street" v="Southeast 10th Avenue"/></node>
<node id="-2" lat="45.461048695" lon="-122.654669163" visible="true"><tag k="addr:housenumber" v="8524"/><tag k="addr:postcode" v="97202"/><tag k="addr:city" v="Portland"/><tag k="addr:street" v="Southeast 11th Avenue"/></node>
<node id="-3" lat="45.461051804" lon="-122.654668845" visible="true"><tag k="addr:housenumber" v="8526"/><tag k="addr:postcode" v="97202"/><tag k="addr:city" v="Portland"/><tag k="addr:street" v="Southeast 11th Avenue"/></node>
<node id="-4" lat="45.460339759" lon="-122.654715503" visible="true"><tag k="addr:housenumber" v="8622"/><tag k="addr:postcode" v="97202"/><tag k="addr:city" v="Portland"/><tag k="addr:street" v="Southeast 11th Avenue"/></node>
<node id="-5" lat="45.46033792" lon="-122.65471623" visible="true"><tag k="addr:housenumber" v="8624"/><tag k="addr:postcode" v="97202"/><tag k="addr:city" v="Portland"/><tag k="addr:street" v="Southeast 11th Avenue"/></node>
<node id="-6" lat="45.459763899" lon="-122.654672273" visible="true"><tag k="addr:housenumber" v="8714"/><tag k="addr:postcode" v="97202"/><tag k="addr:city" v="Portland"/><tag k="addr:street" v="Southeast 11th Avenue"/></node>
<node id="-7" lat="45.459757728" lon="-122.654679063" visible="true"><tag k="addr:housenumber" v="8716"/><tag k="addr:postcode" v="97202"/><tag k="addr:city" v="Portland"/><tag k="addr:street" v="Southeast 11th Avenue"/></node>
<node id="-8" lat="45.459552149" lon="-122.655234014" visible="true"><tag k="addr:housenumber" v="8725"/><tag k="addr:postcode" v="97202"/><tag k="addr:city" v="Portland"/><tag k="addr:street" v="Southeast 11th Avenue"/></node>
<node id="-9" lat="45.459559736" lon="-122.655237563" visible="true"><tag k="addr:housenumber" v="8731"/><tag k="addr:postcode" v="97202"/><tag k="addr:city" v="Portland"/><tag k="addr:street" v="Southeast 11th Avenue"/></node>
<node id="-10" lat="45.45955978" lon="-122.655231231" visible="true"><tag k="addr:housenumber" v="8735"/><tag k="addr:postcode" v="97202"/><tag k="addr:city" v="Portland"/><tag k="addr:street" v="Southeast 11th Avenue"/></node>
<node id="-11" lat="45.459903857" lon="-122.652766207" visible="true"><tag k="addr:housenumber" v="8704"/><tag k="addr:postcode" v="97202"/><tag k="addr:city" v="Portland"/><tag k="addr:street" v="Southeast 13th Avenue"/></node>
<node id="-12" lat="45.460557068" lon="-122.658238326" visible="true"><tag k="addr:housenumber" v="8611"/><tag k="addr:postcode" v="97202"/><tag k="addr:city" v="Portland"/><tag k="addr:street" v="Southeast 8th Avenue"/></node>
<node id="-13" lat="45.46056493" lon="-122.65823852" visible="true"><tag k="addr:housenumber" v="8613"/><tag k="addr:postcode" v="97202"/><tag k="addr:city" v="Portland"/><tag k="addr:street" v="Southeast 8th Avenue"/></node>
<node id="-14" lat="45.460342648" lon="-122.657601076" visible="true"><tag k="addr:housenumber" v="8622"/><tag k="addr:postcode" v="97202"/><tag k="addr:city" v="Portland"/><tag k="addr:street" v="Southeast 8th Avenue"/></node>
<node id="-15" lat="45.460346296" lon="-122.65760293" visible="true"><tag k="addr:housenumber" v="8624"/><tag k="addr:postcode" v="97202"/><tag k="addr:city" v="Portland"/><tag k="addr:street" v="Southeast 8th Avenue"/></node>
<node id="-16" lat="45.459628281" lon="-122.656658594" visible="true"><tag k="addr:housenumber" v="8722"/><tag k="addr:postcode" v="97202"/><tag k="addr:city" v="Portland"/><tag k="addr:street" v="Southeast 9th Avenue"/></node>
<node id="-17" lat="45.459622764" lon="-122.656663099" visible="true"><tag k="addr:housenumber" v="8724"/><tag k="addr:postcode" v="97202"/><tag k="addr:city" v="Portland"/><tag k="addr:street" v="Southeast 9th Avenue"/></node>
<node id="-18" lat="45.459623487" lon="-122.656664632" visible="true"><tag k="addr:housenumber" v="8726"/><tag k="addr:postcode" v="97202"/><tag k="addr:city" v="Portland"/><tag k="addr:street" v="Southeast 9th Avenue"/></node>
<node id="-19" lat="45.458780418" lon="-122.656665526" visible="true"><tag k="addr:housenumber" v="8834"/><tag k="addr:postcode" v="97202"/><tag k="addr:city" v="Portland"/><tag k="addr:street" v="Southeast 9th Avenue"/></node>
<node id="-20" lat="45.458778672" lon="-122.65666778" visible="true"><tag k="addr:housenumber" v="8836"/><tag k="addr:postcode" v="97202"/><tag k="addr:city" v="Portland"/><tag k="addr:street" v="Southeast 9th Avenue"/></node>
<node id="-21" lat="45.460910493" lon="-122.654674405" visible="true"><tag k="addr:housenumber" v="1105"/><tag k="addr:postcode" v="97202"/><tag k="addr:city" v="Portland"/><tag k="addr:street" v="Southeast Clatsop Street"/></node>
<node id="-22" lat="45.460911346" lon="-122.654673351" visible="true"><tag k="addr:housenumber" v="1115"/><tag k="addr:postcode" v="97202"/><tag k="addr:city" v="Portland"/><tag k="addr:street" v="Southeast Clatsop Street"/></node>
<node id="-23" lat="45.460544536" lon="-122.652395272" visible="true"><tag k="addr:housenumber" v="1320"/><tag k="addr:postcode" v="97202"/><tag k="addr:city" v="Portland"/><tag k="addr:street" v="Southeast Clatsop Street"/></node>
<node id="-24" lat="45.460543611" lon="-122.652392014" visible="true"><tag k="addr:housenumber" v="1322"/><tag k="addr:postcode" v="97202"/><tag k="addr:city" v="Portland"/><tag k="addr:street" v="Southeast Clatsop Street"/></node>
<node id="-25" lat="45.460546258" lon="-122.65181092" visible="true"><tag k="addr:housenumber" v="1406"/><tag k="addr:postcode" v="97202"/><tag k="addr:city" v="Portland"/><tag k="addr:street" v="Southeast Clatsop Street"/></node>
<node id="-26" lat="45.460541857" lon="-122.651804802" visible="true"><tag k="addr:housenumber" v="1408"/><tag k="addr:postcode" v="97202"/><tag k="addr:city" v="Portland"/><tag k="addr:street" v="Southeast Clatsop Street"/></node>
<node id="-27" lat="45.460985958" lon="-122.656371609" visible="true"><tag k="addr:housenumber" v="925"/><tag k="addr:postcode" v="97202"/><tag k="addr:city" v="Portland"/><tag k="addr:street" v="Southeast Clatsop Street"/></node>
<node id="-28" lat="45.460984854" lon="-122.65636609" visible="true"><tag k="addr:housenumber" v="927"/><tag k="addr:postcode" v="97202"/><tag k="addr:city" v="Portland"/><tag k="addr:street" v="Southeast Clatsop Street"/></node>
<node id="-29" lat="45.46054195" lon="-122.656177538" visible="true"><tag k="addr:housenumber" v="930"/><tag k="addr:postcode" v="97202"/><tag k="addr:city" v="Portland"/><tag k="addr:street" v="Southeast Clatsop Street"/></node>
<node id="-30" lat="45.460543742" lon="-122.656173428" visible="true"><tag k="addr:housenumber" v="932"/><tag k="addr:postcode" v="97202"/><tag k="addr:city" v="Portland"/><tag k="addr:street" v="Southeast Clatsop Street"/></node>
<node id="-31" lat="45.460544532" lon="-122.655977197" visible="true"><tag k="addr:housenumber" v="940"/><tag k="addr:postcode" v="97202"/><tag k="addr:city" v="Portland"/><tag k="addr:street" v="Southeast Clatsop Street"/></node>
<node id="-32" lat="45.460549534" lon="-122.655979942" visible="true"><tag k="addr:housenumber" v="942"/><tag k="addr:postcode" v="97202"/><tag k="addr:city" v="Portland"/><tag k="addr:street" v="Southeast Clatsop Street"/></node>
<node id="-33" lat="45.459555251" lon="-122.655594178" visible="true"><tag k="addr:housenumber" v="1011"/><tag k="addr:postcode" v="97202"/><tag k="addr:city" v="Portland"/><tag k="addr:street" v="Southeast Linn Street"/></node>
<node id="-34" lat="45.459559847" lon="-122.655586853" visible="true"><tag k="addr:housenumber" v="1013"/><tag k="addr:postcode" v="97202"/><tag k="addr:city" v="Portland"/><tag k="addr:street" v="Southeast Linn Street"/></node>
<node id="-35" lat="45.459553918" lon="-122.653798685" visible="true"><tag k="addr:housenumber" v="1205"/><tag k="addr:postcode" v="97202"/><tag k="addr:city" v="Portland"/><tag k="addr:street" v="Southeast Linn Street"/></node>
<node id="-36" lat="45.459559837" lon="-122.65380082" visible="true"><tag k="addr:housenumber" v="1207"/><tag k="addr:postcode" v="97202"/><tag k="addr:city" v="Portland"/><tag k="addr:street" v="Southeast Linn Street"/></node>
<node id="-37" lat="45.459557949" lon="-122.65360443" visible="true"><tag k="addr:housenumber" v="1217"/><tag k="addr:postcode" v="97202"/><tag k="addr:city" v="Portland"/><tag k="addr:street" v="Southeast Linn Street"/></node>
<node id="-38" lat="45.459551933" lon="-122.653603859" visible="true"><tag k="addr:housenumber" v="1219"/><tag k="addr:postcode" v="97202"/><tag k="addr:city" v="Portland"/><tag k="addr:street" v="Southeast Linn Street"/></node>
<node id="-39" lat="45.459553428" lon="-122.652395564" visible="true"><tag k="addr:housenumber" v="1323"/><tag k="addr:postcode" v="97202"/><tag k="addr:city" v="Portland"/><tag k="addr:street" v="Southeast Linn Street"/></node>
<node id="-40" lat="45.459551206" lon="-122.652398672" visible="true"><tag k="addr:housenumber" v="1325"/><tag k="addr:postcode" v="97202"/><tag k="addr:city" v="Portland"/><tag k="addr:street" v="Southeast Linn Street"/></node>
<node id="-41" lat="45.459553205" lon="-122.652398373" visible="true"><tag k="addr:housenumber" v="1327"/><tag k="addr:postcode" v="97202"/><tag k="addr:city" v="Portland"/><tag k="addr:street" v="Southeast Linn Street"/></node>
<node id="-42" lat="45.459556313" lon="-122.652398787" visible="true"><tag k="addr:housenumber" v="1329"/><tag k="addr:postcode" v="97202"/><tag k="addr:city" v="Portland"/><tag k="addr:street" v="Southeast Linn Street"/></node>
<node id="-43" lat="45.459577099" lon="-122.651998658" visible="true"><tag k="addr:housenumber" v="1347"/><tag k="addr:postcode" v="97202"/><tag k="addr:city" v="Portland"/><tag k="addr:street" v="Southeast Linn Street"/></node>
<node id="-44" lat="45.459583371" lon="-122.65199946" visible="true"><tag k="addr:housenumber" v="1349"/><tag k="addr:postcode" v="97202"/><tag k="addr:city" v="Portland"/><tag k="addr:street" v="Southeast Linn Street"/></node>
<node id="-45" lat="45.459524105" lon="-122.658372891" visible="true"><tag k="addr:housenumber" v="725 A"/><tag k="addr:postcode" v="97202"/><tag k="addr:city" v="Portland"/><tag k="addr:street" v="Southeast Linn Street"/></node>
<node id="-46" lat="45.459545924" lon="-122.658413337" visible="true"><tag k="addr:housenumber" v="725 B"/><tag k="addr:postcode" v="97202"/><tag k="addr:city" v="Portland"/><tag k="addr:street" v="Southeast Linn Street"/></node>
<node id="-47" lat="45.459566673" lon="-122.658145349" visible="true"><tag k="addr:housenumber" v="731"/><tag k="addr:postcode" v="97202"/><tag k="addr:city" v="Portland"/><tag k="addr:street" v="Southeast Linn Street"/></node>
<node id="-48" lat="45.459565153" lon="-122.658150562" visible="true"><tag k="addr:housenumber" v="733"/><tag k="addr:postcode" v="97202"/><tag k="addr:city" v="Portland"/><tag k="addr:street" v="Southeast Linn Street"/></node>
<node id="-49" lat="45.459176319" lon="-122.656259169" visible="true"><tag k="addr:housenumber" v="926"/><tag k="addr:postcode" v="97202"/><tag k="addr:city" v="Portland"/><tag k="addr:street" v="Southeast Linn Street"/></node>
<node id="-50" lat="45.459181044" lon="-122.656259721" visible="true"><tag k="addr:housenumber" v="938"/><tag k="addr:postcode" v="97202"/><tag k="addr:city" v="Portland"/><tag k="addr:street" v="Southeast Linn Street"/></node>
<node id="-51" lat="45.45983322" lon="-122.655783926" visible="true"><tag k="addr:housenumber" v="1002"/><tag k="addr:postcode" v="97202"/><tag k="addr:city" v="Portland"/><tag k="addr:street" v="Southeast Marion Street"/></node>
<node id="-52" lat="45.459833683" lon="-122.655784642" visible="true"><tag k="addr:housenumber" v="1004"/><tag k="addr:postcode" v="97202"/><tag k="addr:city" v="Portland"/><tag k="addr:street" v="Southeast Marion Street"/></node>
<node id="-53" lat="45.460273557" lon="-122.655587613" visible="true"><tag k="addr:housenumber" v="1007"/><tag k="addr:postcode" v="97202"/><tag k="addr:city" v="Portland"/><tag k="addr:street" v="Southeast Marion Street"/></node>
<node id="-54" lat="45.460274477" lon="-122.65559419" visible="true"><tag k="addr:housenumber" v="1009"/><tag k="addr:postcode" v="97202"/><tag k="addr:city" v="Portland"/><tag k="addr:street" v="Southeast Marion Street"/></node>
<node id="-55" lat="45.459835947" lon="-122.655593509" visible="true"><tag k="addr:housenumber" v="1012"/><tag k="addr:postcode" v="97202"/><tag k="addr:city" v="Portland"/><tag k="addr:street" v="Southeast Marion Street"/></node>
<node id="-56" lat="45.459833341" lon="-122.655586058" visible="true"><tag k="addr:housenumber" v="1014"/><tag k="addr:postcode" v="97202"/><tag k="addr:city" v="Portland"/><tag k="addr:street" v="Southeast Marion Street"/></node>
<node id="-57" lat="45.460251318" lon="-122.654537664" visible="true"><tag k="addr:housenumber" v="1115"/><tag k="addr:postcode" v="97202"/><tag k="addr:city" v="Portland"/><tag k="addr:street" v="Southeast Marion Street"/></node>
<node id="-58" lat="45.460247887" lon="-122.654541446" visible="true"><tag k="addr:housenumber" v="1117"/><tag k="addr:postcode" v="97202"/><tag k="addr:city" v="Portland"/><tag k="addr:street" v="Southeast Marion Street"/></node>
<node id="-59" lat="45.459903399" lon="-122.652771781" visible="true"><tag k="addr:housenumber" v="1302"/><tag k="addr:postcode" v="97202"/><tag k="addr:city" v="Portland"/><tag k="addr:street" v="Southeast Marion Street"/></node>
<node id="-60" lat="45.460198478" lon="-122.652685399" visible="true"><tag k="addr:housenumber" v="1303"/><tag k="addr:postcode" v="97202"/><tag k="addr:city" v="Portland"/><tag k="addr:street" v="Southeast Marion Street"/></node>
<node id="-61" lat="45.460203008" lon="-122.652690448" visible="true"><tag k="addr:housenumber" v="1305"/><tag k="addr:postcode" v="97202"/><tag k="addr:city" v="Portland"/><tag k="addr:street" v="Southeast Marion Street"/></node>
<node id="-62" lat="45.46019984" lon="-122.652686161" visible="true"><tag k="addr:housenumber" v="1307"/><tag k="addr:postcode" v="97202"/><tag k="addr:city" v="Portland"/><tag k="addr:street" v="Southeast Marion Street"/></node>
<node id="-63" lat="45.460201795" lon="-122.652688865" visible="true"><tag k="addr:housenumber" v="1309"/><tag k="addr:postcode" v="97202"/><tag k="addr:city" v="Portland"/><tag k="addr:street" v="Southeast Marion Street"/></node>
<node id="-64" lat="45.459832416" lon="-122.656369675" visible="true"><tag k="addr:housenumber" v="924"/><tag k="addr:postcode" v="97202"/><tag k="addr:city" v="Portland"/><tag k="addr:street" v="Southeast Marion Street"/></node>
<node id="-65" lat="45.459833418" lon="-122.656365975" visible="true"><tag k="addr:housenumber" v="926"/><tag k="addr:postcode" v="97202"/><tag k="addr:city" v="Portland"/><tag k="addr:street" v="Southeast Marion Street"/></node>
<node id="-66" lat="45.45983355" lon="-122.655976348" visible="true"><tag k="addr:housenumber" v="944"/><tag k="addr:postcode" v="97202"/><tag k="addr:city" v="Portland"/><tag k="addr:street" v="Southeast Marion Street"/></node>
<node id="-67" lat="45.459835552" lon="-122.655975751" visible="true"><tag k="addr:housenumber" v="946"/><tag k="addr:postcode" v="97202"/><tag k="addr:city" v="Portland"/><tag k="addr:street" v="Southeast Marion Street"/></node>
<node id="-68" lat="45.45831566" lon="-122.656273571" visible="true"><tag k="addr:housenumber" v="935"/><tag k="addr:postcode" v="97202"/><tag k="addr:city" v="Portland"/><tag k="addr:street" v="Southeast Ochoco Street"/></node>
<node id="-69" lat="45.461259803" lon="-122.655779114" visible="true"><tag k="addr:housenumber" v="1002"/><tag k="addr:postcode" v="97202"/><tag k="addr:city" v="Portland"/><tag k="addr:street" v="Southeast Sherrett Street"/></node>
<node id="-70" lat="45.461253733" lon="-122.655785286" visible="true"><tag k="addr:housenumber" v="1006"/><tag k="addr:postcode" v="97202"/><tag k="addr:city" v="Portland"/><tag k="addr:street" v="Southeast Sherrett Street"/></node>
<node id="-71" lat="45.461262478" lon="-122.655780621" visible="true"><tag k="addr:housenumber" v="1008"/><tag k="addr:postcode" v="97202"/><tag k="addr:city" v="Portland"/><tag k="addr:street" v="Southeast Sherrett Street"/></node>
<node id="-72" lat="45.461259503" lon="-122.656369951" visible="true"><tag k="addr:housenumber" v="922"/><tag k="addr:postcode" v="97202"/><tag k="addr:city" v="Portland"/><tag k="addr:street" v="Southeast Sherrett Street"/></node>
<node id="-73" lat="45.461262789" lon="-122.656363333" visible="true"><tag k="addr:housenumber" v="924"/><tag k="addr:postcode" v="97202"/><tag k="addr:city" v="Portland"/><tag k="addr:street" v="Southeast Sherrett Street"/></node>
<node id="-74" lat="45.458422323" lon="-122.678568327" visible="true"><tag k="addr:housenumber" v="9236"/><tag k="addr:postcode" v="97219"/><tag k="addr:city" v="Portland"/><tag k="addr:street" v="Southwest Brier Place"/></node>
<node id="-75" lat="45.458421477" lon="-122.678561685" visible="true"><tag k="addr:housenumber" v="9238"/><tag k="addr:postcode" v="97219"/><tag k="addr:city" v="Portland"/><tag k="addr:street" v="Southwest Brier Place"/></node>
<node id="-76" lat="45.458418244" lon="-122.678564669" visible="true"><tag k="addr:housenumber" v="9240"/><tag k="addr:postcode" v="97219"/><tag k="addr:city" v="Portland"/><tag k="addr:street" v="Southwest Brier Place"/></node>
<node id="-77" lat="45.455872977" lon="-122.678768572" visible="true"><tag k="addr:housenumber" v="03"/><tag k="addr:postcode" v="97219"/><tag k="addr:city" v="Portland"/><tag k="addr:street" v="Southwest Brugger Street"/></node>
<node id="-78" lat="45.455879668" lon="-122.678765291" visible="true"><tag k="addr:housenumber" v="13"/><tag k="addr:postcode" v="97219"/><tag k="addr:city" v="Portland"/><tag k="addr:street" v="Southwest Brugger Street"/></node>
<node id="-79" lat="45.455964816" lon="-122.679726308" visible="true"><tag k="addr:housenumber" v="39"/><tag k="addr:postcode" v="97219"/><tag k="addr:city" v="Portland"/><tag k="addr:street" v="Southwest Brugger Street"/></node>
<node id="-80" lat="45.455968268" lon="-122.679730975" visible="true"><tag k="addr:housenumber" v="41"/><tag k="addr:postcode" v="97219"/><tag k="addr:city" v="Portland"/><tag k="addr:street" v="Southwest Brugger Street"/></node>
<node id="-81" lat="45.45851503" lon="-122.676086993" visible="true"><tag k="addr:housenumber" v="0223"/><tag k="addr:postcode" v="97219"/><tag k="addr:city" v="Portland"/><tag k="addr:street" v="Southwest Palatine Hill Road"/></node>
<node id="-82" lat="45.458523889" lon="-122.676087994" visible="true"><tag k="addr:housenumber" v="0227"/><tag k="addr:postcode" v="97219"/><tag k="addr:city" v="Portland"/><tag k="addr:street" v="Southwest Palatine Hill Road"/></node>
<node id="-83" lat="45.458301244" lon="-122.676186231" visible="true"><tag k="addr:housenumber" v="0229"/><tag k="addr:postcode" v="97219"/><tag k="addr:city" v="Portland"/><tag k="addr:street" v="Southwest Palatine Hill Road"/></node>
<node id="-84" lat="45.458298858" lon="-122.676184823" visible="true"><tag k="addr:housenumber" v="0231"/><tag k="addr:postcode" v="97219"/><tag k="addr:city" v="Portland"/><tag k="addr:street" v="Southwest Palatine Hill Road"/></node>
<node id="-85" lat="45.45259095" lon="-122.661185921" visible="true"><tag k="addr:housenumber" v="01731"/><tag k="addr:postcode" v="97219"/><tag k="addr:city" v="Portland"/><tag k="addr:street" v="Southwest Radcliffe Road"/></node>
<node id="-86" lat="45.45259234" lon="-122.661029155" visible="true"><tag k="addr:housenumber" v="10101"/><tag k="addr:postcode" v="97219"/><tag k="addr:city" v="Portland"/><tag k="addr:street" v="Southwest Riverside Drive"/></node>
<node id="-87" lat="45.457743109" lon="-122.677602284" visible="true"><tag k="addr:housenumber" v="9286"/><tag k="addr:postcode" v="97219"/><tag k="addr:city" v="Portland"/><tag k="addr:street" v="Southwest View Point Terrace"/></node>
<node id="-88" lat="45.457737948" lon="-122.677596568" visible="true"><tag k="addr:housenumber" v="9288"/><tag k="addr:postcode" v="97219"/><tag k="addr:city" v="Portland"/><tag k="addr:street" v="Southwest View Point Terrace"/></node>
</osm>