<?xml version="1.0"?>
<osm version="0.6" upload="false" generator="uvmogr2osm">
<node id="-1" lat="45.51171661" lon="-122.644818219" visible="true"><tag k="addr:housenumber" v="1524"/><tag k="addr:postcode" v="97214"/><tag k="addr:city" v="Portland"/><tag k="addr:street" v="Southeast 20th Avenue"/></node>
<node id="-2" lat="45.511713904" lon="-122.644810876" visible="true"><tag k="addr:housenumber" v="1550"/><tag k="addr:postcode" v="97214"/><tag k="addr:city" v="Portland"/><tag k="addr:street" v="Southeast 20th Avenue"/></node>
<node id="-3" lat="45.511718418" lon="-122.644817169" visible="true"><tag k="addr:housenumber" v="1562"/><tag k="addr:postcode" v="97214"/><tag k="addr:city" v="Portland"/><tag k="addr:street" v="Southeast 20th Avenue"/></node>
<node id="-4" lat="45.511709211" lon="-122.644810471" visible="true"><tag k="addr:housenumber" v="1570"/><tag k="addr:postcode" v="97214"/><tag k="addr:city" v="Portland"/><tag k="addr:street" v="Southeast 20th Avenue"/></node>
<node id="-5" lat="45.511711799" lon="-122.644813583" visible="true"><tag k="addr:housenumber" v="1578"/><tag k="addr:postcode" v="97214"/><tag k="addr:city" v="Portland"/><tag k="addr:street" v="Southeast 20th Avenue"/></node>
<node id="-6" lat="45.511396132" lon="-122.644823714" visible="true"><tag k="addr:housenumber" v="1608"/><tag k="addr:postcode" v="97214"/><tag k="addr:city" v="Portland"/><tag k="addr:street" v="Southeast 20th Avenue"/></node>
<node id="-7" lat="45.511389072" lon="-122.644817424" visible="true"><tag k="addr:housenumber" v="2010"/><tag k="addr:postcode" v="97214"/><tag k="addr:city" v="Portland"/><tag k="addr:street" v="Southeast 20th Avenue"/></node>
<node id="-8" lat="45.511645149" lon="-122.644429962" visible="true"><tag k="addr:housenumber" v="1502"/><tag k="addr:postcode" v="97214"/><tag k="addr:city" v="Portland"/><tag k="addr:street" v="Southeast 21st Avenue"/></node>
<node id="-9" lat="45.511651774" lon="-122.644431849" visible="true"><tag k="addr:housenumber" v="1521"/><tag k="addr:postcode" v="97214"/><tag k="addr:city" v="Portland"/><tag k="addr:street" v="Southeast 21st Avenue"/></node>
<node id="-10" lat="45.511506117" lon="-122.644431391" visible="true"><tag k="addr:housenumber" v="1533"/><tag k="addr:postcode" v="97214"/><tag k="addr:city" v="Portland"/><tag k="addr:street" v="Southeast 21st Avenue"/></node>
<node id="-11" lat="45.511509294" lon="-122.6444325" visible="true"><tag k="addr:housenumber" v="1535"/><tag k="addr:postcode" v="97214"/><tag k="addr:city" v="Portland"/><tag k="addr:street" v="Southeast 21st Avenue"/></node>
<node id="-12" lat="45.511507698" lon="-122.644433431" visible="true"><tag k="addr:housenumber" v="1537"/><tag k="addr:postcode" v="97214"/><tag k="addr:city" v="Portland"/><tag k="addr:street" v="Southeast 21st Avenue"/></node>
<node id="-13" lat="45.511510356" lon="-122.644434064" visible="true"><tag k="addr:housenumber" v="1539"/><tag k="addr:postcode" v="97214"/><tag k="addr:city" v="Portland"/><tag k="addr:street" v="Southeast 21st Avenue"/></node>
<node id="-14" lat="45.511366587" lon="-122.64435634" visible="true"><tag k="addr:housenumber" v="1605"/><tag k="addr:postcode" v="97214"/><tag k="addr:city" v="Portland"/><tag k="addr:street" v="Southeast 21st Avenue"/></node>
<node id="-15" lat="45.511376149" lon="-122.644363108" visible="true"><tag k="addr:housenumber" v="1607"/><tag k="addr:postcode" v="97214"/><tag k="addr:city" v="Portland"/><tag k="addr:street" v="Southeast 21st Avenue"/></node>
<node id="-16" lat="45.511238239" lon="-122.644384227" visible="true"><tag k="addr:housenumber" v="1611"/><tag k="addr:postcode" v="97214"/><tag k="addr:city" v="Portland"/><tag k="addr:street" v="Southeast 21st Avenue"/></node>
<node id="-17" lat="45.511247825" lon="-122.64379858" visible="true"><tag k="addr:housenumber" v="1612"/><tag k="addr:postcode" v="97214"/><tag k="addr:city" v="Portland"/><tag k="addr:street" v="Southeast 21st Avenue"/></node>
<node id="-18" lat="45.511236309" lon="-122.644386849" visible="true"><tag k="addr:housenumber" v="1613"/><tag k="addr:postcode" v="97214"/><tag k="addr:city" v="Portland"/><tag k="addr:street" v="Southeast 21st Avenue"/></node>
<node id="-19" lat="45.511249241" lon="-122.643802102" visible="true"><tag k="addr:housenumber" v="1614"/><tag k="addr:postcode" v="97214"/><tag k="addr:city" v="Portland"/><tag k="addr:street" v="Southeast 21st Avenue"/></node>
<node id="-20" lat="45.511231484" lon="-122.644386605" visible="true"><tag k="addr:housenumber" v="1615"/><tag k="addr:postcode" v="97214"/><tag k="addr:city" v="Portland"/><tag k="addr:street" v="Southeast 21st Avenue"/></node>
<node id="-21" lat="45.511238077" lon="-122.644386186" visible="true"><tag k="addr:housenumber" v="1617"/><tag k="addr:postcode" v="97214"/><tag k="addr:city" v="Portland"/><tag k="addr:street" v="Southeast 21st Avenue"/></node>
<node id="-22" lat="45.511231054" lon="-122.644381327" visible="true"><tag k="addr:housenumber" v="1619"/><tag k="addr:postcode" v="97214"/><tag k="addr:city" v="Portland"/><tag k="addr:street" v="Southeast 21st Avenue"/></node>
<node id="-23" lat="45.506032758" lon="-122.643332856" visible="true"><tag k="addr:housenumber" v="2307"/><tag k="addr:postcode" v="97214"/><tag k="addr:city" v="Portland"/><tag k="addr:street" v="Southeast 22nd Avenue"/></node>
<node id="-24" lat="45.506030862" lon="-122.643331589" visible="true"><tag k="addr:housenumber" v="2311"/><tag k="addr:postcode" v="97214"/><tag k="addr:city" v="Portland"/><tag k="addr:street" v="Southeast 22nd Avenue"/></node>
<node id="-25" lat="45.511783511" lon="-122.641530426" visible="true"><tag k="addr:housenumber" v="1515"/><tag k="addr:postcode" v="97214"/><tag k="addr:city" v="Portland"/><tag k="addr:street" v="Southeast 24th Avenue"/></node>
<node id="-26" lat="45.511779606" lon="-122.641523268" visible="true"><tag k="addr:housenumber" v="1517"/><tag k="addr:postcode" v="97214"/><tag k="addr:city" v="Portland"/><tag k="addr:street" v="Southeast 24th Avenue"/></node>
<node id="-27" lat="45.511640118" lon="-122.640985208" visible="true"><tag k="addr:housenumber" v="1524"/><tag k="addr:postcode" v="97214"/><tag k="addr:city" v="Portland"/><tag k="addr:street" v="Southeast 24th Avenue"/></node>
<node id="-28" lat="45.511646531" lon="-122.640991758" visible="true"><tag k="addr:housenumber" v="1526"/><tag k="addr:postcode" v="97214"/><tag k="addr:city" v="Portland"/><tag k="addr:street" v="Southeast 24th Avenue"/></node>
<node id="-29" lat="45.504950139" lon="-122.641436014" visible="true"><tag k="addr:housenumber" v="2435"/><tag k="addr:postcode" v="97214"/><tag k="addr:city" v="Portland"/><tag k="addr:street" v="Southeast 24th Avenue"/></node>
<node id="-30" lat="45.506725918" lon="-122.65077374" visible="true"><tag k="addr:housenumber" v="1421"/><tag k="addr:postcode" v="97214"/><tag k="addr:city" v="Portland"/><tag k="addr:street" v="Southeast Birch Street"/></node>
<node id="-31" lat="45.506724473" lon="-122.650777741" visible="true"><tag k="addr:housenumber" v="1437"/><tag k="addr:postcode" v="97214"/><tag k="addr:city" v="Portland"/><tag k="addr:street" v="Southeast Birch Street"/></node>
<node id="-32" lat="45.505311359" lon="-122.642971659" visible="true"><tag k="addr:housenumber" v="2222"/><tag k="addr:postcode" v="97214"/><tag k="addr:city" v="Portland"/><tag k="addr:street" v="Southeast Caruthers Street"/></node>
<node id="-33" lat="45.505312498" lon="-122.642965057" visible="true"><tag k="addr:housenumber" v="2228"/><tag k="addr:postcode" v="97214"/><tag k="addr:city" v="Portland"/><tag k="addr:street" v="Southeast Caruthers Street"/></node>
<node id="-34" lat="45.505316565" lon="-122.642380692" visible="true"><tag k="addr:housenumber" v="2254"/><tag k="addr:postcode" v="97214"/><tag k="addr:city" v="Portland"/><tag k="addr:street" v="Southeast Caruthers Street"/></node>
<node id="-35" lat="45.505307989" lon="-122.642385357" visible="true"><tag k="addr:housenumber" v="2256"/><tag k="addr:postcode" v="97214"/><tag k="addr:city" v="Portland"/><tag k="addr:street" v="Southeast Caruthers Street"/></node>
<node id="-36" lat="45.505111013" lon="-122.651176309" visible="true"><tag k="addr:housenumber" v="1430"/><tag k="addr:postcode" v="97202"/><tag k="addr:city" v="Portland"/><tag k="addr:street" v="Southeast Division Street"/></node>
<node id="-37" lat="45.505106432" lon="-122.65117108" visible="true"><tag k="addr:housenumber" v="1431"/><tag k="addr:postcode" v="97202"/><tag k="addr:city" v="Portland"/><tag k="addr:street" v="Southeast Division Street"/></node>
<node id="-38" lat="45.505037224" lon="-122.641984506" visible="true"><tag k="addr:housenumber" v="2321"/><tag k="addr:postcode" v="97202"/><tag k="addr:city" v="Portland"/><tag k="addr:street" v="Southeast Division Street"/></node>
<node id="-39" lat="45.505036539" lon="-122.641987816" visible="true"><tag k="addr:housenumber" v="2323"/><tag k="addr:postcode" v="97202"/><tag k="addr:city" v="Portland"/><tag k="addr:street" v="Southeast Division Street"/></node>
<node id="-40" lat="45.505029937" lon="-122.641982081" visible="true"><tag k="addr:housenumber" v="2325"/><tag k="addr:postcode" v="97202"/><tag k="addr:city" v="Portland"/><tag k="addr:street" v="Southeast Division Street"/></node>
<node id="-41" lat="45.504946772" lon="-122.64143872" visible="true"><tag k="addr:housenumber" v="2343"/><tag k="addr:postcode" v="97202"/><tag k="addr:city" v="Portland"/><tag k="addr:street" v="Southeast Division Street"/></node>
<node id="-42" lat="45.511534837" lon="-122.6464133" visible="true"><tag k="addr:housenumber" v="1559"/><tag k="addr:postcode" v="97214"/><tag k="addr:city" v="Portland"/><tag k="addr:street" v="Southeast Elliott Avenue"/></node>
<node id="-43" lat="45.511532832" lon="-122.646407784" visible="true"><tag k="addr:housenumber" v="1561"/><tag k="addr:postcode" v="97214"/><tag k="addr:city" v="Portland"/><tag k="addr:street" v="Southeast Elliott Avenue"/></node>
<node id="-44" lat="45.510200085" lon="-122.647045351" visible="true"><tag k="addr:housenumber" v="1742"/><tag k="addr:postcode" v="97214"/><tag k="addr:city" v="Portland"/><tag k="addr:street" v="Southeast Elliott Avenue"/></node>
<node id="-45" lat="45.510192948" lon="-122.647046222" visible="true"><tag k="addr:housenumber" v="1748"/><tag k="addr:postcode" v="97214"/><tag k="addr:city" v="Portland"/><tag k="addr:street" v="Southeast Elliott Avenue"/></node>
<node id="-46" lat="45.511715654" lon="-122.644814035" visible="true"><tag k="addr:housenumber" v="2028"/><tag k="addr:postcode" v="97214"/><tag k="addr:city" v="Portland"/><tag k="addr:street" v="Southeast Hawthorne Boulevard"/></node>
<node id="-47" lat="45.511711398" lon="-122.644813556" visible="true"><tag k="addr:housenumber" v="2036"/><tag k="addr:postcode" v="97214"/><tag k="addr:city" v="Portland"/><tag k="addr:street" v="Southeast Hawthorne Boulevard"/></node>
<node id="-48" lat="45.511709058" lon="-122.644816334" visible="true"><tag k="addr:housenumber" v="2044"/><tag k="addr:postcode" v="97214"/><tag k="addr:city" v="Portland"/><tag k="addr:street" v="Southeast Hawthorne Boulevard"/></node>
<node id="-49" lat="45.506933131" lon="-122.648055467" visible="true"><tag k="addr:housenumber" v="2129"/><tag k="addr:postcode" v="97214"/><tag k="addr:city" v="Portland"/><tag k="addr:street" v="Southeast Ladd Avenue"/></node>
<node id="-50" lat="45.506935651" lon="-122.648062673" visible="true"><tag k="addr:housenumber" v="2131"/><tag k="addr:postcode" v="97214"/><tag k="addr:city" v="Portland"/><tag k="addr:street" v="Southeast Ladd Avenue"/></node>
<node id="-51" lat="45.511089085" lon="-122.644372017" visible="true"><tag k="addr:housenumber" v="2029"/><tag k="addr:postcode" v="97214"/><tag k="addr:city" v="Portland"/><tag k="addr:street" v="Southeast Market Street"/></node>
<node id="-52" lat="45.511091248" lon="-122.644374669" visible="true"><tag k="addr:housenumber" v="2035"/><tag k="addr:postcode" v="97214"/><tag k="addr:city" v="Portland"/><tag k="addr:street" v="Southeast Market Street"/></node>
<node id="-53" lat="45.506684532" lon="-122.650322757" visible="true"><tag k="addr:housenumber" v="2209"/><tag k="addr:postcode" v="97214"/><tag k="addr:city" v="Portland"/><tag k="addr:street" v="Southeast Orange Avenue"/></node>
<node id="-54" lat="45.506684616" lon="-122.650323749" visible="true"><tag k="addr:housenumber" v="2211"/><tag k="addr:postcode" v="97214"/><tag k="addr:city" v="Portland"/><tag k="addr:street" v="Southeast Orange Avenue"/></node>
<node id="-55" lat="45.506600903" lon="-122.650428783" visible="true"><tag k="addr:housenumber" v="2217"/><tag k="addr:postcode" v="97214"/><tag k="addr:city" v="Portland"/><tag k="addr:street" v="Southeast Orange Avenue"/></node>
<node id="-56" lat="45.506603475" lon="-122.650425396" visible="true"><tag k="addr:housenumber" v="2221"/><tag k="addr:postcode" v="97214"/><tag k="addr:city" v="Portland"/><tag k="addr:street" v="Southeast Orange Avenue"/></node>
<node id="-57" lat="45.511625903" lon="-122.647749637" visible="true"><tag k="addr:housenumber" v="1551"/><tag k="addr:postcode" v="97214"/><tag k="addr:city" v="Portland"/><tag k="addr:street" v="Southeast Poplar Avenue"/></node>
<node id="-58" lat="45.511632016" lon="-122.64775101" visible="true"><tag k="addr:housenumber" v="1553"/><tag k="addr:postcode" v="97214"/><tag k="addr:city" v="Portland"/><tag k="addr:street" v="Southeast Poplar Avenue"/></node>
<node id="-59" lat="45.506028531" lon="-122.644498757" visible="true"><tag k="addr:housenumber" v="2024"/><tag k="addr:postcode" v="97214"/><tag k="addr:city" v="Portland"/><tag k="addr:street" v="Southeast Sherman Street"/></node>
<node id="-60" lat="45.506028661" lon="-122.644497753" visible="true"><tag k="addr:housenumber" v="2026"/><tag k="addr:postcode" v="97214"/><tag k="addr:city" v="Portland"/><tag k="addr:street" v="Southeast Sherman Street"/></node>
<node id="-61" lat="45.506421979" lon="-122.64181454" visible="true"><tag k="addr:housenumber" v="2321"/><tag k="addr:postcode" v="97214"/><tag k="addr:city" v="Portland"/><tag k="addr:street" v="Southeast Sherman Street"/></node>
<node id="-62" lat="45.506427209" lon="-122.641814667" visible="true"><tag k="addr:housenumber" v="2325"/><tag k="addr:postcode" v="97214"/><tag k="addr:city" v="Portland"/><tag k="addr:street" v="Southeast Sherman Street"/></node>
<node id="-63" lat="45.505248407" lon="-122.646810211" visible="true"><tag k="addr:housenumber" v="2456"/><tag k="addr:postcode" v="97214"/><tag k="addr:city" v="Portland"/><tag k="addr:street" v="Southeast Tamarack Avenue"/></node>
<node id="-64" lat="45.505251627" lon="-122.646805568" visible="true"><tag k="addr:housenumber" v="2458"/><tag k="addr:postcode" v="97214"/><tag k="addr:city" v="Portland"/><tag k="addr:street" v="Southeast Tamarack Avenue"/></node>
<node id="-65" lat="45.505248678" lon="-122.646806235" visible="true"><tag k="addr:housenumber" v="2460"/><tag k="addr:postcode" v="97214"/><tag k="addr:city" v="Portland"/><tag k="addr:street" v="Southeast Tamarack Avenue"/></node>
</osm>