<?xml version="1.0"?>
<osm version="0.6" upload="false" generator="uvmogr2osm">
<node id="-1" lat="45.525335107" lon="-122.696198002" visible="true"><tag k="addr:housenumber" v="322"/><tag k="addr:postcode" v="97210"/><tag k="addr:city" v="Portland"/><tag k="addr:street" v="Northwest 22nd Avenue"/></node>
<node id="-2" lat="45.525337748" lon="-122.696195675" visible="true"><tag k="addr:housenumber" v="330"/><tag k="addr:postcode" v="97210"/><tag k="addr:city" v="Portland"/><tag k="addr:street" v="Northwest 22nd Avenue"/></node>
<node id="-3" lat="45.525334874" lon="-122.696194085" visible="true"><tag k="addr:housenumber" v="334"/><tag k="addr:postcode" v="97210"/><tag k="addr:city" v="Portland"/><tag k="addr:street" v="Northwest 22nd Avenue"/></node>
<node id="-4" lat="45.52533582" lon="-122.69619112" visible="true"><tag k="addr:housenumber" v="338"/><tag k="addr:postcode" v="97210"/><tag k="addr:city" v="Portland"/><tag k="addr:street" v="Northwest 22nd Avenue"/></node>
<node id="-5" lat="45.525336378" lon="-122.696191111" visible="true"><tag k="addr:housenumber" v="342"/><tag k="addr:postcode" v="97210"/><tag k="addr:city" v="Portland"/><tag k="addr:street" v="Northwest 22nd Avenue"/></node>
<node id="-6" lat="45.526105717" lon="-122.696745275" visible="true"><tag k="addr:housenumber" v="435"/><tag k="addr:postcode" v="97210"/><tag k="addr:city" v="Portland"/><tag k="addr:street" v="Northwest 22nd Avenue"/></node>
<node id="-7" lat="45.526109483" lon="-122.696750317" visible="true"><tag k="addr:housenumber" v="439"/><tag k="addr:postcode" v="97210"/><tag k="addr:city" v="Portland"/><tag k="addr:street" v="Northwest 22nd Avenue"/></node>
<node id="-8" lat="45.523965379" lon="-122.697142278" visible="true"><tag k="addr:housenumber" v="104"/><tag k="addr:postcode" v="97210"/><tag k="addr:city" v="Portland"/><tag k="addr:street" v="Northwest 22nd Place"/></node>
<node id="-9" lat="45.523972272" lon="-122.69713846" visible="true"><tag k="addr:housenumber" v="106"/><tag k="addr:postcode" v="97210"/><tag k="addr:city" v="Portland"/><tag k="addr:street" v="Northwest 22nd Place"/></node>
<node id="-10" lat="45.524667989" lon="-122.693944633" visible="true"><tag k="addr:housenumber" v="2078"/><tag k="addr:postcode" v="97209"/><tag k="addr:city" v="Portland"/><tag k="addr:street" v="Northwest Everett Street"/></node>
<node id="-11" lat="45.524670738" lon="-122.693942299" visible="true"><tag k="addr:housenumber" v="2080"/><tag k="addr:postcode" v="97209"/><tag k="addr:city" v="Portland"/><tag k="addr:street" v="Northwest Everett Street"/></node>
<node id="-12" lat="45.525706394" lon="-122.696203022" visible="true"><tag k="addr:housenumber" v="2185"/><tag k="addr:postcode" v="97210"/><tag k="addr:city" v="Portland"/><tag k="addr:street" v="Northwest Flanders Street"/></node>
<node id="-13" lat="45.525713126" lon="-122.696203028" visible="true"><tag k="addr:housenumber" v="2195"/><tag k="addr:postcode" v="97210"/><tag k="addr:city" v="Portland"/><tag k="addr:street" v="Northwest Flanders Street"/></node>
<node id="-14" lat="45.525719007" lon="-122.699259253" visible="true"><tag k="addr:housenumber" v="2311"/><tag k="addr:postcode" v="97210"/><tag k="addr:city" v="Portland"/><tag k="addr:street" v="Northwest Flanders Street"/></node>
<node id="-15" lat="45.525722396" lon="-122.699255272" visible="true"><tag k="addr:housenumber" v="2335"/><tag k="addr:postcode" v="97210"/><tag k="addr:city" v="Portland"/><tag k="addr:street" v="Northwest Flanders Street"/></node>
<node id="-16" lat="45.525718529" lon="-122.699482621" visible="true"><tag k="addr:housenumber" v="2347"/><tag k="addr:postcode" v="97210"/><tag k="addr:city" v="Portland"/><tag k="addr:street" v="Northwest Flanders Street"/></node>
<node id="-17" lat="45.525721276" lon="-122.699484086" visible="true"><tag k="addr:housenumber" v="2349"/><tag k="addr:postcode" v="97210"/><tag k="addr:city" v="Portland"/><tag k="addr:street" v="Northwest Flanders Street"/></node>
<node id="-18" lat="45.525707627" lon="-122.699770125" visible="true"><tag k="addr:housenumber" v="2363"/><tag k="addr:postcode" v="97210"/><tag k="addr:city" v="Portland"/><tag k="addr:street" v="Northwest Flanders Street"/></node>
<node id="-19" lat="45.525714518" lon="-122.69977131" visible="true"><tag k="addr:housenumber" v="2365"/><tag k="addr:postcode" v="97210"/><tag k="addr:city" v="Portland"/><tag k="addr:street" v="Northwest Flanders Street"/></node>
<node id="-20" lat="45.526106458" lon="-122.693399889" visible="true"><tag k="addr:housenumber" v="2042"/><tag k="addr:postcode" v="97209"/><tag k="addr:city" v="Portland"/><tag k="addr:street" v="Northwest Glisan Street"/></node>
<node id="-21" lat="45.526108107" lon="-122.693400885" visible="true"><tag k="addr:housenumber" v="2044"/><tag k="addr:postcode" v="97209"/><tag k="addr:city" v="Portland"/><tag k="addr:street" v="Northwest Glisan Street"/></node>
<node id="-22" lat="45.526098784" lon="-122.693402118" visible="true"><tag k="addr:housenumber" v="2046"/><tag k="addr:postcode" v="97209"/><tag k="addr:city" v="Portland"/><tag k="addr:street" v="Northwest Glisan Street"/></node>
<node id="-23" lat="45.526099542" lon="-122.693404546" visible="true"><tag k="addr:housenumber" v="2048"/><tag k="addr:postcode" v="97209"/><tag k="addr:city" v="Portland"/><tag k="addr:street" v="Northwest Glisan Street"/></node>
<node id="-24" lat="45.526107448" lon="-122.69340619" visible="true"><tag k="addr:housenumber" v="2050"/><tag k="addr:postcode" v="97209"/><tag k="addr:city" v="Portland"/><tag k="addr:street" v="Northwest Glisan Street"/></node>
<node id="-25" lat="45.526509872" lon="-122.695226153" visible="true"><tag k="addr:housenumber" v="2131"/><tag k="addr:postcode" v="97210"/><tag k="addr:city" v="Portland"/><tag k="addr:street" v="Northwest Glisan Street"/></node>
<node id="-26" lat="45.526507882" lon="-122.695223043" visible="true"><tag k="addr:housenumber" v="2137"/><tag k="addr:postcode" v="97210"/><tag k="addr:city" v="Portland"/><tag k="addr:street" v="Northwest Glisan Street"/></node>
<node id="-27" lat="45.526475211" lon="-122.697250164" visible="true"><tag k="addr:housenumber" v="2231"/><tag k="addr:postcode" v="97210"/><tag k="addr:city" v="Portland"/><tag k="addr:street" v="Northwest Glisan Street"/></node>
<node id="-28" lat="45.526469725" lon="-122.697253027" visible="true"><tag k="addr:housenumber" v="2235"/><tag k="addr:postcode" v="97210"/><tag k="addr:city" v="Portland"/><tag k="addr:street" v="Northwest Glisan Street"/></node>
<node id="-29" lat="45.526027621" lon="-122.697448066" visible="true"><tag k="addr:housenumber" v="2246"/><tag k="addr:postcode" v="97210"/><tag k="addr:city" v="Portland"/><tag k="addr:street" v="Northwest Glisan Street"/></node>
<node id="-30" lat="45.526027292" lon="-122.697450645" visible="true"><tag k="addr:housenumber" v="2248"/><tag k="addr:postcode" v="97210"/><tag k="addr:city" v="Portland"/><tag k="addr:street" v="Northwest Glisan Street"/></node>
<node id="-31" lat="45.520859526" lon="-122.698905245" visible="true"><tag k="addr:housenumber" v="1028"/><tag k="addr:postcode" v="97205"/><tag k="addr:city" v="Portland"/><tag k="addr:street" v="Southwest Ardmore Avenue"/></node>
<node id="-32" lat="45.520858321" lon="-122.698904753" visible="true"><tag k="addr:housenumber" v="1030"/><tag k="addr:postcode" v="97205"/><tag k="addr:city" v="Portland"/><tag k="addr:street" v="Southwest Ardmore Avenue"/></node>
<node id="-33" lat="45.518805675" lon="-122.712983745" visible="true"><tag k="addr:housenumber" v="3029"/><tag k="addr:postcode" v="97205"/><tag k="addr:city" v="Portland"/><tag k="addr:street" v="Southwest Bennington Drive"/></node>
<node id="-34" lat="45.522872649" lon="-122.700469698" visible="true"><tag k="addr:housenumber" v="2354"/><tag k="addr:postcode" v="97205"/><tag k="addr:city" v="Portland"/><tag k="addr:street" v="Southwest Cactus Drive"/></node>
<node id="-35" lat="45.523002772" lon="-122.700423751" visible="true"><tag k="addr:housenumber" v="2356"/><tag k="addr:postcode" v="97205"/><tag k="addr:city" v="Portland"/><tag k="addr:street" v="Southwest Cactus Drive"/></node>
<node id="-36" lat="45.522873798" lon="-122.700466015" visible="true"><tag k="addr:housenumber" v="2360"/><tag k="addr:postcode" v="97205"/><tag k="addr:city" v="Portland"/><tag k="addr:street" v="Southwest Cactus Drive"/></node>
<node id="-37" lat="45.5228725" lon="-122.700470352" visible="true"><tag k="addr:housenumber" v="2362"/><tag k="addr:postcode" v="97205"/><tag k="addr:city" v="Portland"/><tag k="addr:street" v="Southwest Cactus Drive"/></node>
<node id="-38" lat="45.523005529" lon="-122.700423031" visible="true"><tag k="addr:housenumber" v="2364"/><tag k="addr:postcode" v="97205"/><tag k="addr:city" v="Portland"/><tag k="addr:street" v="Southwest Cactus Drive"/></node>
<node id="-39" lat="45.51880123" lon="-122.712988654" visible="true"><tag k="addr:housenumber" v="3029"/><tag k="addr:postcode" v="97205"/><tag k="addr:city" v="Portland"/><tag k="addr:street" v="Southwest Cascade Drive"/></node>
<node id="-40" lat="45.522056057" lon="-122.700444044" visible="true"><tag k="addr:housenumber" v="2368"/><tag k="addr:postcode" v="97205"/><tag k="addr:city" v="Portland"/><tag k="addr:street" v="Southwest Cedar Street"/></node>
<node id="-41" lat="45.522052368" lon="-122.700443626" visible="true"><tag k="addr:housenumber" v="2370"/><tag k="addr:postcode" v="97205"/><tag k="addr:city" v="Portland"/><tag k="addr:street" v="Southwest Cedar Street"/></node>
<node id="-42" lat="45.517357202" lon="-122.721346086" visible="true"><tag k="addr:housenumber" v="4300"/><tag k="addr:postcode" v="97221"/><tag k="addr:city" v="Portland"/><tag k="addr:street" v="Southwest Fairview Boulevard"/></node>
<node id="-43" lat="45.516999035" lon="-122.720895048" visible="true"><tag k="addr:housenumber" v="4314"/><tag k="addr:postcode" v="97221"/><tag k="addr:city" v="Portland"/><tag k="addr:street" v="Southwest Fairview Boulevard"/></node>
<node id="-44" lat="45.516967042" lon="-122.721850936" visible="true"><tag k="addr:housenumber" v="4319"/><tag k="addr:postcode" v="97221"/><tag k="addr:city" v="Portland"/><tag k="addr:street" v="Southwest Fairview Boulevard"/></node>
<node id="-45" lat="45.516772277" lon="-122.722016931" visible="true"><tag k="addr:housenumber" v="4329"/><tag k="addr:postcode" v="97221"/><tag k="addr:city" v="Portland"/><tag k="addr:street" v="Southwest Fairview Boulevard"/></node>
<node id="-46" lat="45.516658387" lon="-122.722323169" visible="true"><tag k="addr:housenumber" v="4337"/><tag k="addr:postcode" v="97221"/><tag k="addr:city" v="Portland"/><tag k="addr:street" v="Southwest Fairview Boulevard"/></node>
<node id="-47" lat="45.51735618" lon="-122.721347335" visible="true"><tag k="addr:housenumber" v="4300"/><tag k="addr:postcode" v="97221"/><tag k="addr:city" v="Portland"/><tag k="addr:street" v="Southwest Fairview Circus"/></node>
<node id="-48" lat="45.51699536" lon="-122.72089108" visible="true"><tag k="addr:housenumber" v="4314"/><tag k="addr:postcode" v="97221"/><tag k="addr:city" v="Portland"/><tag k="addr:street" v="Southwest Fairview Circus"/></node>
<node id="-49" lat="45.516965397" lon="-122.721849118" visible="true"><tag k="addr:housenumber" v="4319"/><tag k="addr:postcode" v="97221"/><tag k="addr:city" v="Portland"/><tag k="addr:street" v="Southwest Fairview Circus"/></node>
<node id="-50" lat="45.516764223" lon="-122.722016748" visible="true"><tag k="addr:housenumber" v="4329"/><tag k="addr:postcode" v="97221"/><tag k="addr:city" v="Portland"/><tag k="addr:street" v="Southwest Fairview Circus"/></node>
<node id="-51" lat="45.516660857" lon="-122.722320472" visible="true"><tag k="addr:housenumber" v="4337"/><tag k="addr:postcode" v="97221"/><tag k="addr:city" v="Portland"/><tag k="addr:street" v="Southwest Fairview Circus"/></node>
<node id="-52" lat="45.506190384" lon="-122.70597675" visible="true"><tag k="addr:housenumber" v="2735"/><tag k="addr:postcode" v="97201"/><tag k="addr:city" v="Portland"/><tag k="addr:street" v="Southwest Fern Street"/></node>
<node id="-53" lat="45.506194064" lon="-122.705974693" visible="true"><tag k="addr:housenumber" v="2737"/><tag k="addr:postcode" v="97201"/><tag k="addr:city" v="Portland"/><tag k="addr:street" v="Southwest Fern Street"/></node>
<node id="-54" lat="45.507742676" lon="-122.703755601" visible="true"><tag k="addr:housenumber" v="2601"/><tag k="addr:postcode" v="97201"/><tag k="addr:city" v="Portland"/><tag k="addr:street" v="Southwest Georgian Place"/></node>
<node id="-55" lat="45.507748575" lon="-122.703753504" visible="true"><tag k="addr:housenumber" v="2611"/><tag k="addr:postcode" v="97201"/><tag k="addr:city" v="Portland"/><tag k="addr:street" v="Southwest Georgian Place"/></node>
<node id="-56" lat="45.520783469" lon="-122.695144841" visible="true"><tag k="addr:housenumber" v="1012"/><tag k="addr:postcode" v="97205"/><tag k="addr:city" v="Portland"/><tag k="addr:street" v="Southwest King Avenue"/></node>
<node id="-57" lat="45.509928721" lon="-122.702842492" visible="true"><tag k="addr:housenumber" v="2417"/><tag k="addr:postcode" v="97201"/><tag k="addr:city" v="Portland"/><tag k="addr:street" v="Southwest Montgomery Drive"/></node>
<node id="-58" lat="45.509933296" lon="-122.702845383" visible="true"><tag k="addr:housenumber" v="2419"/><tag k="addr:postcode" v="97201"/><tag k="addr:city" v="Portland"/><tag k="addr:street" v="Southwest Montgomery Drive"/></node>
<node id="-59" lat="45.510272029" lon="-122.703514456" visible="true"><tag k="addr:housenumber" v="2441"/><tag k="addr:postcode" v="97201"/><tag k="addr:city" v="Portland"/><tag k="addr:street" v="Southwest Montgomery Drive"/></node>
<node id="-60" lat="45.510266272" lon="-122.703517156" visible="true"><tag k="addr:housenumber" v="2443"/><tag k="addr:postcode" v="97201"/><tag k="addr:city" v="Portland"/><tag k="addr:street" v="Southwest Montgomery Drive"/></node>
<node id="-61" lat="45.505155623" lon="-122.70646124" visible="true"><tag k="addr:housenumber" v="2806"/><tag k="addr:postcode" v="97201"/><tag k="addr:city" v="Portland"/><tag k="addr:street" v="Southwest Periander Street"/></node>
<node id="-62" lat="45.505151643" lon="-122.706459567" visible="true"><tag k="addr:housenumber" v="2814"/><tag k="addr:postcode" v="97201"/><tag k="addr:city" v="Portland"/><tag k="addr:street" v="Southwest Periander Street"/></node>
<node id="-63" lat="45.520782961" lon="-122.695140552" visible="true"><tag k="addr:housenumber" v="2138"/><tag k="addr:postcode" v="97205"/><tag k="addr:city" v="Portland"/><tag k="addr:street" v="Southwest Salmon Street"/></node>
<node id="-64" lat="45.520091494" lon="-122.697920311" visible="true"><tag k="addr:housenumber" v="1100"/><tag k="addr:postcode" v="97205"/><tag k="addr:city" v="Portland"/><tag k="addr:street" v="Southwest Vista Avenue"/></node>
<node id="-65" lat="45.520084671" lon="-122.697925609" visible="true"><tag k="addr:housenumber" v="1132"/><tag k="addr:postcode" v="97205"/><tag k="addr:city" v="Portland"/><tag k="addr:street" v="Southwest Vista Avenue"/></node>
<node id="-66" lat="45.5229958" lon="-122.698401448" visible="true"><tag k="addr:housenumber" v="729"/><tag k="addr:postcode" v="97205"/><tag k="addr:city" v="Portland"/><tag k="addr:street" v="Southwest Vista Avenue"/></node>
<node id="-67" lat="45.522995818" lon="-122.698405787" visible="true"><tag k="addr:housenumber" v="733"/><tag k="addr:postcode" v="97205"/><tag k="addr:city" v="Portland"/><tag k="addr:street" v="Southwest Vista Avenue"/></node>
<node id="-68" lat="45.523155986" lon="-122.69570617" visible="true"><tag k="addr:housenumber" v="2168"/><tag k="addr:postcode" v="97205"/><tag k="addr:city" v="Portland"/><tag k="addr:street" v="West Burnside Street"/></node>
<node id="-69" lat="45.523155477" lon="-122.695702636" visible="true"><tag k="addr:housenumber" v="2172"/><tag k="addr:postcode" v="97210"/><tag k="addr:city" v="Portland"/><tag k="addr:street" v="West Burnside Street"/></node>
<node id="-70" lat="45.523153937" lon="-122.695709372" visible="true"><tag k="addr:housenumber" v="2174"/><tag k="addr:postcode" v="97205"/><tag k="addr:city" v="Portland"/><tag k="addr:street" v="West Burnside Street"/></node>
</osm>