<?xml version="1.0"?>
<osm version="0.6" upload="false" generator="uvmogr2osm">
<node id="-1" lat="45.438394119" lon="-122.693932727" visible="true"><tag k="addr:housenumber" v="12211"/><tag k="addr:postcode" v="97219"/><tag k="addr:city" v="Portland"/><tag k="addr:street" v="Southwest Boones Ferry Road"/></node>
<node id="-2" lat="45.437916192" lon="-122.694909606" visible="true"><tag k="addr:housenumber" v="12255"/><tag k="addr:postcode" v="97219"/><tag k="addr:city" v="Portland"/><tag k="addr:street" v="Southwest Boones Ferry Road"/></node>
<node id="-3" lat="45.436205786" lon="-122.69944943" visible="true"><tag k="addr:housenumber" v="12409"/><tag k="addr:postcode" v="97035"/><tag k="addr:city" v="Lake Oswego"/><tag k="addr:street" v="Southwest Boones Ferry Road"/></node>
<node id="-4" lat="45.438397006" lon="-122.693934134" visible="true"><tag k="addr:housenumber" v="1633"/><tag k="addr:postcode" v="97219"/><tag k="addr:city" v="Portland"/><tag k="addr:street" v="Southwest Joshua Street"/></node>
<node id="-5" lat="45.437917513" lon="-122.694912945" visible="true"><tag k="addr:housenumber" v="1710"/><tag k="addr:postcode" v="97219"/><tag k="addr:city" v="Portland"/><tag k="addr:street" v="Southwest Joshua Street"/></node>
<node id="-6" lat="45.436190885" lon="-122.699482814" visible="true"><tag k="addr:housenumber" v="2247"/><tag k="addr:postcode" v="97035"/><tag k="addr:city" v="Lake Oswego"/><tag k="addr:street" v="Southwest Sequoia Court"/></node>
<node id="-7" lat="45.440695254" lon="-122.698837906" visible="true"><tag k="addr:housenumber" v="2025"/><tag k="addr:postcode" v="97219"/><tag k="addr:city" v="Portland"/><tag k="addr:street" v="Southwest Stephenson Street"/></node>
<node id="-8" lat="45.440701637" lon="-122.698835018" visible="true"><tag k="addr:housenumber" v="2031"/><tag k="addr:postcode" v="97219"/><tag k="addr:city" v="Portland"/><tag k="addr:street" v="Southwest Stephenson Street"/></node>
</osm>