<?xml version="1.0"?>
<osm version="0.6" upload="false" generator="uvmogr2osm">
<node id="-1" lat="45.462607784" lon="-122.69535728" visible="true"><tag k="addr:housenumber" v="8603"/><tag k="addr:postcode" v="97219"/><tag k="addr:city" v="Portland"/><tag k="addr:street" v="Southwest 17th Avenue"/></node>
<node id="-2" lat="45.462609739" lon="-122.695359968" visible="true"><tag k="addr:housenumber" v="8610"/><tag k="addr:postcode" v="97219"/><tag k="addr:city" v="Portland"/><tag k="addr:street" v="Southwest 17th Avenue"/></node>
<node id="-3" lat="45.461993565" lon="-122.700899356" visible="true"><tag k="addr:housenumber" v="8702"/><tag k="addr:postcode" v="97219"/><tag k="addr:city" v="Portland"/><tag k="addr:street" v="Southwest 23rd Avenue"/></node>
<node id="-4" lat="45.461994871" lon="-122.70090052" visible="true"><tag k="addr:housenumber" v="8704"/><tag k="addr:postcode" v="97219"/><tag k="addr:city" v="Portland"/><tag k="addr:street" v="Southwest 23rd Avenue"/></node>
<node id="-5" lat="45.467554313" lon="-122.700293447" visible="true"><tag k="addr:housenumber" v="7827"/><tag k="addr:postcode" v="97219"/><tag k="addr:city" v="Portland"/><tag k="addr:street" v="Southwest Capitol Hill Road"/></node>
<node id="-6" lat="45.467547689" lon="-122.700290856" visible="true"><tag k="addr:housenumber" v="7829"/><tag k="addr:postcode" v="97219"/><tag k="addr:city" v="Portland"/><tag k="addr:street" v="Southwest Capitol Hill Road"/></node>
<node id="-7" lat="45.467551144" lon="-122.700292696" visible="true"><tag k="addr:housenumber" v="7831"/><tag k="addr:postcode" v="97219"/><tag k="addr:city" v="Portland"/><tag k="addr:street" v="Southwest Capitol Hill Road"/></node>
<node id="-8" lat="45.497501264" lon="-122.689683086" visible="true"><tag k="addr:housenumber" v="902"/><tag k="addr:postcode" v="97239"/><tag k="addr:city" v="Portland"/><tag k="addr:street" v="Southwest Curry Street"/></node>
<node id="-9" lat="45.497500306" lon="-122.689673816" visible="true"><tag k="addr:housenumber" v="912"/><tag k="addr:postcode" v="97239"/><tag k="addr:city" v="Portland"/><tag k="addr:street" v="Southwest Curry Street"/></node>
<node id="-10" lat="45.461821622" lon="-122.700485748" visible="true"><tag k="addr:housenumber" v="2203"/><tag k="addr:postcode" v="97219"/><tag k="addr:city" v="Portland"/><tag k="addr:street" v="Southwest Dolph Court"/></node>
<node id="-11" lat="45.461817497" lon="-122.700493274" visible="true"><tag k="addr:housenumber" v="2205"/><tag k="addr:postcode" v="97219"/><tag k="addr:city" v="Portland"/><tag k="addr:street" v="Southwest Dolph Court"/></node>
<node id="-12" lat="45.461820866" lon="-122.700487268" visible="true"><tag k="addr:housenumber" v="2207"/><tag k="addr:postcode" v="97219"/><tag k="addr:city" v="Portland"/><tag k="addr:street" v="Southwest Dolph Court"/></node>
<node id="-13" lat="45.461815744" lon="-122.70049362" visible="true"><tag k="addr:housenumber" v="2209"/><tag k="addr:postcode" v="97219"/><tag k="addr:city" v="Portland"/><tag k="addr:street" v="Southwest Dolph Court"/></node>
<node id="-14" lat="45.461835973" lon="-122.70093293" visible="true"><tag k="addr:housenumber" v="2221"/><tag k="addr:postcode" v="97219"/><tag k="addr:city" v="Portland"/><tag k="addr:street" v="Southwest Dolph Court"/></node>
<node id="-15" lat="45.461842252" lon="-122.700929521" visible="true"><tag k="addr:housenumber" v="2223"/><tag k="addr:postcode" v="97219"/><tag k="addr:city" v="Portland"/><tag k="addr:street" v="Southwest Dolph Court"/></node>
<node id="-16" lat="45.461841875" lon="-122.700924368" visible="true"><tag k="addr:housenumber" v="2225"/><tag k="addr:postcode" v="97219"/><tag k="addr:city" v="Portland"/><tag k="addr:street" v="Southwest Dolph Court"/></node>
<node id="-17" lat="45.497113564" lon="-122.690570977" visible="true"><tag k="addr:housenumber" v="1007"/><tag k="addr:postcode" v="97239"/><tag k="addr:city" v="Portland"/><tag k="addr:street" v="Southwest Gaines Street"/></node>
<node id="-18" lat="45.497119709" lon="-122.690574239" visible="true"><tag k="addr:housenumber" v="1019"/><tag k="addr:postcode" v="97239"/><tag k="addr:city" v="Portland"/><tag k="addr:street" v="Southwest Gaines Street"/></node>
<node id="-19" lat="45.465356174" lon="-122.694041852" visible="true"><tag k="addr:housenumber" v="1516"/><tag k="addr:postcode" v="97219"/><tag k="addr:city" v="Portland"/><tag k="addr:street" v="Southwest Hume Street"/></node>
<node id="-20" lat="45.465354949" lon="-122.694045272" visible="true"><tag k="addr:housenumber" v="1518"/><tag k="addr:postcode" v="97219"/><tag k="addr:city" v="Portland"/><tag k="addr:street" v="Southwest Hume Street"/></node>
<node id="-21" lat="45.49390622" lon="-122.700414169" visible="true"><tag k="addr:housenumber" v="4138"/><tag k="addr:postcode" v="97239"/><tag k="addr:city" v="Portland"/><tag k="addr:street" v="Southwest Tualatin Avenue"/></node>
<node id="-22" lat="45.493913415" lon="-122.700414364" visible="true"><tag k="addr:housenumber" v="4140"/><tag k="addr:postcode" v="97239"/><tag k="addr:city" v="Portland"/><tag k="addr:street" v="Southwest Tualatin Avenue"/></node>
</osm>