<?xml version="1.0"?>
<osm version="0.6" upload="false" generator="uvmogr2osm">
<node id="-1" lat="45.482684522" lon="-122.623832443" visible="true"><tag k="addr:housenumber" v="5501"/><tag k="addr:postcode" v="97202"/><tag k="addr:city" v="Portland"/><tag k="addr:street" v="Southeast 38th Avenue"/></node>
<node id="-2" lat="45.482683636" lon="-122.623832769" visible="true"><tag k="addr:housenumber" v="5511"/><tag k="addr:postcode" v="97202"/><tag k="addr:city" v="Portland"/><tag k="addr:street" v="Southeast 38th Avenue"/></node>
<node id="-3" lat="45.479455972" lon="-122.621983055" visible="true"><tag k="addr:housenumber" v="5923"/><tag k="addr:postcode" v="97202"/><tag k="addr:city" v="Portland"/><tag k="addr:street" v="Southeast 40th Avenue"/></node>
<node id="-4" lat="45.479456097" lon="-122.621988985" visible="true"><tag k="addr:housenumber" v="5925"/><tag k="addr:postcode" v="97202"/><tag k="addr:city" v="Portland"/><tag k="addr:street" v="Southeast 40th Avenue"/></node>
<node id="-5" lat="45.479460015" lon="-122.621990155" visible="true"><tag k="addr:housenumber" v="5927"/><tag k="addr:postcode" v="97202"/><tag k="addr:city" v="Portland"/><tag k="addr:street" v="Southeast 40th Avenue"/></node>
<node id="-6" lat="45.479456051" lon="-122.621985297" visible="true"><tag k="addr:housenumber" v="5929"/><tag k="addr:postcode" v="97202"/><tag k="addr:city" v="Portland"/><tag k="addr:street" v="Southeast 40th Avenue"/></node>
<node id="-7" lat="45.478611872" lon="-122.621906961" visible="true"><tag k="addr:housenumber" v="6033"/><tag k="addr:postcode" v="97202"/><tag k="addr:city" v="Portland"/><tag k="addr:street" v="Southeast 40th Avenue"/></node>
<node id="-8" lat="45.478609094" lon="-122.621900211" visible="true"><tag k="addr:housenumber" v="6037"/><tag k="addr:postcode" v="97202"/><tag k="addr:city" v="Portland"/><tag k="addr:street" v="Southeast 40th Avenue"/></node>
<node id="-9" lat="45.476147284" lon="-122.621957107" visible="true"><tag k="addr:housenumber" v="6405"/><tag k="addr:postcode" v="97202"/><tag k="addr:city" v="Portland"/><tag k="addr:street" v="Southeast 40th Avenue"/></node>
<node id="-10" lat="45.476147605" lon="-122.621966626" visible="true"><tag k="addr:housenumber" v="3934"/><tag k="addr:postcode" v="97202"/><tag k="addr:city" v="Portland"/><tag k="addr:street" v="Southeast Henry Street"/></node>
<node id="-11" lat="45.479718757" lon="-122.622432898" visible="true"><tag k="addr:housenumber" v="3904"/><tag k="addr:postcode" v="97202"/><tag k="addr:city" v="Portland"/><tag k="addr:street" v="Southeast Knight Street"/></node>
<node id="-12" lat="45.479720826" lon="-122.62243971" visible="true"><tag k="addr:housenumber" v="3906"/><tag k="addr:postcode" v="97202"/><tag k="addr:city" v="Portland"/><tag k="addr:street" v="Southeast Knight Street"/></node>
<node id="-13" lat="45.479714314" lon="-122.622242439" visible="true"><tag k="addr:housenumber" v="3910"/><tag k="addr:postcode" v="97202"/><tag k="addr:city" v="Portland"/><tag k="addr:street" v="Southeast Knight Street"/></node>
<node id="-14" lat="45.479717599" lon="-122.622235916" visible="true"><tag k="addr:housenumber" v="3912"/><tag k="addr:postcode" v="97202"/><tag k="addr:city" v="Portland"/><tag k="addr:street" v="Southeast Knight Street"/></node>
<node id="-15" lat="45.478947141" lon="-122.621234107" visible="true"><tag k="addr:housenumber" v="4012"/><tag k="addr:postcode" v="97202"/><tag k="addr:city" v="Portland"/><tag k="addr:street" v="Southeast Woodstock Boulevard"/></node>
<node id="-16" lat="45.478951016" lon="-122.621231614" visible="true"><tag k="addr:housenumber" v="4014"/><tag k="addr:postcode" v="97202"/><tag k="addr:city" v="Portland"/><tag k="addr:street" v="Southeast Woodstock Boulevard"/></node>
<node id="-17" lat="45.478947178" lon="-122.621232216" visible="true"><tag k="addr:housenumber" v="4016"/><tag k="addr:postcode" v="97202"/><tag k="addr:city" v="Portland"/><tag k="addr:street" v="Southeast Woodstock Boulevard"/></node>
</osm>