<?xml version="1.0"?>
<osm version="0.6" upload="false" generator="uvmogr2osm">
<node id="-1" lat="45.47849491" lon="-122.653071826" visible="true"><tag k="addr:housenumber" v="6111"/><tag k="addr:postcode" v="97202"/><tag k="addr:city" v="Portland"/><tag k="addr:street" v="Southeast 13th Avenue"/></node>
<node id="-2" lat="45.478491646" lon="-122.653069298" visible="true"><tag k="addr:housenumber" v="6115"/><tag k="addr:postcode" v="97202"/><tag k="addr:city" v="Portland"/><tag k="addr:street" v="Southeast 13th Avenue"/></node>
<node id="-3" lat="45.469224614" lon="-122.652698075" visible="true"><tag k="addr:housenumber" v="7704"/><tag k="addr:postcode" v="97202"/><tag k="addr:city" v="Portland"/><tag k="addr:street" v="Southeast 13th Avenue"/></node>
<node id="-4" lat="45.469229381" lon="-122.652698307" visible="true"><tag k="addr:housenumber" v="7718"/><tag k="addr:postcode" v="97202"/><tag k="addr:city" v="Portland"/><tag k="addr:street" v="Southeast 13th Avenue"/></node>
<node id="-5" lat="45.468900495" lon="-122.652715998" visible="true"><tag k="addr:housenumber" v="7730"/><tag k="addr:postcode" v="97202"/><tag k="addr:city" v="Portland"/><tag k="addr:street" v="Southeast 13th Avenue"/></node>
<node id="-6" lat="45.468899277" lon="-122.652721545" visible="true"><tag k="addr:housenumber" v="7732"/><tag k="addr:postcode" v="97202"/><tag k="addr:city" v="Portland"/><tag k="addr:street" v="Southeast 13th Avenue"/></node>
<node id="-7" lat="45.468901634" lon="-122.652724049" visible="true"><tag k="addr:housenumber" v="7738"/><tag k="addr:postcode" v="97202"/><tag k="addr:city" v="Portland"/><tag k="addr:street" v="Southeast 13th Avenue"/></node>
<node id="-8" lat="45.468904643" lon="-122.652716966" visible="true"><tag k="addr:housenumber" v="7740"/><tag k="addr:postcode" v="97202"/><tag k="addr:city" v="Portland"/><tag k="addr:street" v="Southeast 13th Avenue"/></node>
<node id="-9" lat="45.468903757" lon="-122.652723014" visible="true"><tag k="addr:housenumber" v="7742"/><tag k="addr:postcode" v="97202"/><tag k="addr:city" v="Portland"/><tag k="addr:street" v="Southeast 13th Avenue"/></node>
<node id="-10" lat="45.474190053" lon="-122.651179496" visible="true"><tag k="addr:housenumber" v="1422"/><tag k="addr:postcode" v="97202"/><tag k="addr:city" v="Portland"/><tag k="addr:street" v="Southeast Glenwood Street"/></node>
<node id="-11" lat="45.474631324" lon="-122.651106119" visible="true"><tag k="addr:housenumber" v="1423"/><tag k="addr:postcode" v="97202"/><tag k="addr:city" v="Portland"/><tag k="addr:street" v="Southeast Glenwood Street"/></node>
<node id="-12" lat="45.474196193" lon="-122.651173382" visible="true"><tag k="addr:housenumber" v="1424"/><tag k="addr:postcode" v="97202"/><tag k="addr:city" v="Portland"/><tag k="addr:street" v="Southeast Glenwood Street"/></node>
<node id="-13" lat="45.474629786" lon="-122.651109731" visible="true"><tag k="addr:housenumber" v="1429"/><tag k="addr:postcode" v="97202"/><tag k="addr:city" v="Portland"/><tag k="addr:street" v="Southeast Glenwood Street"/></node>
<node id="-14" lat="45.474630567" lon="-122.651110881" visible="true"><tag k="addr:housenumber" v="1435"/><tag k="addr:postcode" v="97202"/><tag k="addr:city" v="Portland"/><tag k="addr:street" v="Southeast Glenwood Street"/></node>
<node id="-15" lat="45.471329217" lon="-122.651112954" visible="true"><tag k="addr:housenumber" v="1424"/><tag k="addr:postcode" v="97202"/><tag k="addr:city" v="Portland"/><tag k="addr:street" v="Southeast Knapp Street"/></node>
<node id="-16" lat="45.471333747" lon="-122.651111023" visible="true"><tag k="addr:housenumber" v="1426"/><tag k="addr:postcode" v="97202"/><tag k="addr:city" v="Portland"/><tag k="addr:street" v="Southeast Knapp Street"/></node>
<node id="-17" lat="45.468827975" lon="-122.653400203" visible="true"><tag k="addr:housenumber" v="1221"/><tag k="addr:postcode" v="97202"/><tag k="addr:city" v="Portland"/><tag k="addr:street" v="Southeast Lambert Street"/></node>
<node id="-18" lat="45.468827639" lon="-122.653397395" visible="true"><tag k="addr:housenumber" v="1223"/><tag k="addr:postcode" v="97202"/><tag k="addr:city" v="Portland"/><tag k="addr:street" v="Southeast Lambert Street"/></node>
<node id="-19" lat="45.468821445" lon="-122.652382393" visible="true"><tag k="addr:housenumber" v="1323"/><tag k="addr:postcode" v="97202"/><tag k="addr:city" v="Portland"/><tag k="addr:street" v="Southeast Lambert Street"/></node>
<node id="-20" lat="45.468828591" lon="-122.652380617" visible="true"><tag k="addr:housenumber" v="1327"/><tag k="addr:postcode" v="97202"/><tag k="addr:city" v="Portland"/><tag k="addr:street" v="Southeast Lambert Street"/></node>
<node id="-21" lat="45.469134387" lon="-122.652380013" visible="true"><tag k="addr:housenumber" v="1326"/><tag k="addr:postcode" v="97202"/><tag k="addr:city" v="Portland"/><tag k="addr:street" v="Southeast Malden Street"/></node>
<node id="-22" lat="45.469132549" lon="-122.652385836" visible="true"><tag k="addr:housenumber" v="1330"/><tag k="addr:postcode" v="97202"/><tag k="addr:city" v="Portland"/><tag k="addr:street" v="Southeast Malden Street"/></node>
<node id="-23" lat="45.489284811" lon="-122.651244613" visible="true"><tag k="addr:housenumber" v="4617"/><tag k="addr:postcode" v="97202"/><tag k="addr:city" v="Portland"/><tag k="addr:street" v="Southeast Milwaukie Avenue"/></node>
<node id="-24" lat="45.489284336" lon="-122.651243667" visible="true"><tag k="addr:housenumber" v="4621"/><tag k="addr:postcode" v="97202"/><tag k="addr:city" v="Portland"/><tag k="addr:street" v="Southeast Milwaukie Avenue"/></node>
<node id="-25" lat="45.48928318" lon="-122.651241436" visible="true"><tag k="addr:housenumber" v="4627"/><tag k="addr:postcode" v="97202"/><tag k="addr:city" v="Portland"/><tag k="addr:street" v="Southeast Milwaukie Avenue"/></node>
<node id="-26" lat="45.471220789" lon="-122.653716244" visible="true"><tag k="addr:housenumber" v="1214"/><tag k="addr:postcode" v="97202"/><tag k="addr:city" v="Portland"/><tag k="addr:street" v="Southeast Sellwood Boulevard"/></node>
<node id="-27" lat="45.471221589" lon="-122.653716682" visible="true"><tag k="addr:housenumber" v="1216"/><tag k="addr:postcode" v="97202"/><tag k="addr:city" v="Portland"/><tag k="addr:street" v="Southeast Sellwood Boulevard"/></node>
</osm>