<?xml version="1.0"?>
<osm version="0.6" upload="false" generator="uvmogr2osm">
<node id="-1" lat="45.471425646" lon="-122.56650531" visible="true"><tag k="addr:housenumber" v="7124"/><tag k="addr:postcode" v="97266"/><tag k="addr:city" v="Portland"/><tag k="addr:street" v="Southeast 92nd Avenue"/></node>
<node id="-2" lat="45.462873072" lon="-122.568341755" visible="true"><tag k="addr:housenumber" v="8324"/><tag k="addr:postcode" v="97266"/><tag k="addr:city" v="Portland"/><tag k="addr:street" v="Southeast 92nd Avenue"/></node>
<node id="-3" lat="45.462870471" lon="-122.568346384" visible="true"><tag k="addr:housenumber" v="8330"/><tag k="addr:postcode" v="97266"/><tag k="addr:city" v="Portland"/><tag k="addr:street" v="Southeast 92nd Avenue"/></node>
<node id="-4" lat="45.462875632" lon="-122.568343877" visible="true"><tag k="addr:housenumber" v="8338"/><tag k="addr:postcode" v="97266"/><tag k="addr:city" v="Portland"/><tag k="addr:street" v="Southeast 92nd Avenue"/></node>
<node id="-5" lat="45.474656257" lon="-122.567927032" visible="true"><tag k="addr:housenumber" v="6603"/><tag k="addr:postcode" v="97266"/><tag k="addr:city" v="Portland"/><tag k="addr:street" v="Southeast 93rd Avenue"/></node>
<node id="-6" lat="45.474668981" lon="-122.567925313" visible="true"><tag k="addr:housenumber" v="6605"/><tag k="addr:postcode" v="97266"/><tag k="addr:city" v="Portland"/><tag k="addr:street" v="Southeast 93rd Avenue"/></node>
<node id="-7" lat="45.474245457" lon="-122.567920133" visible="true"><tag k="addr:housenumber" v="6623"/><tag k="addr:postcode" v="97266"/><tag k="addr:city" v="Portland"/><tag k="addr:street" v="Southeast 93rd Avenue"/></node>
<node id="-8" lat="45.474243444" lon="-122.567918428" visible="true"><tag k="addr:housenumber" v="6629"/><tag k="addr:postcode" v="97266"/><tag k="addr:city" v="Portland"/><tag k="addr:street" v="Southeast 93rd Avenue"/></node>
<node id="-9" lat="45.473741819" lon="-122.566421946" visible="true"><tag k="addr:housenumber" v="6700"/><tag k="addr:postcode" v="97266"/><tag k="addr:city" v="Portland"/><tag k="addr:street" v="Southeast 94th Avenue"/></node>
<node id="-10" lat="45.471426847" lon="-122.566505454" visible="true"><tag k="addr:housenumber" v="7101"/><tag k="addr:postcode" v="97266"/><tag k="addr:city" v="Portland"/><tag k="addr:street" v="Southeast 94th Avenue"/></node>
<node id="-11" lat="45.474364857" lon="-122.5632074" visible="true"><tag k="addr:housenumber" v="6610"/><tag k="addr:postcode" v="97266"/><tag k="addr:city" v="Portland"/><tag k="addr:street" v="Southeast 97th Avenue"/></node>
<node id="-12" lat="45.474363043" lon="-122.563205838" visible="true"><tag k="addr:housenumber" v="6612"/><tag k="addr:postcode" v="97266"/><tag k="addr:city" v="Portland"/><tag k="addr:street" v="Southeast 97th Avenue"/></node>
<node id="-13" lat="45.474403677" lon="-122.563784618" visible="true"><tag k="addr:housenumber" v="6623"/><tag k="addr:postcode" v="97266"/><tag k="addr:city" v="Portland"/><tag k="addr:street" v="Southeast 97th Avenue"/></node>
<node id="-14" lat="45.474405856" lon="-122.563783485" visible="true"><tag k="addr:housenumber" v="6627"/><tag k="addr:postcode" v="97266"/><tag k="addr:city" v="Portland"/><tag k="addr:street" v="Southeast 97th Avenue"/></node>
<node id="-15" lat="45.474289539" lon="-122.563784692" visible="true"><tag k="addr:housenumber" v="6635"/><tag k="addr:postcode" v="97266"/><tag k="addr:city" v="Portland"/><tag k="addr:street" v="Southeast 97th Avenue"/></node>
<node id="-16" lat="45.474286246" lon="-122.563781412" visible="true"><tag k="addr:housenumber" v="6639"/><tag k="addr:postcode" v="97266"/><tag k="addr:city" v="Portland"/><tag k="addr:street" v="Southeast 97th Avenue"/></node>
<node id="-17" lat="45.467936048" lon="-122.562441597" visible="true"><tag k="addr:housenumber" v="7610"/><tag k="addr:postcode" v="97266"/><tag k="addr:city" v="Portland"/><tag k="addr:street" v="Southeast 98th Avenue"/></node>
<node id="-18" lat="45.467939539" lon="-122.562434411" visible="true"><tag k="addr:housenumber" v="7612"/><tag k="addr:postcode" v="97266"/><tag k="addr:city" v="Portland"/><tag k="addr:street" v="Southeast 98th Avenue"/></node>
<node id="-19" lat="45.467909279" lon="-122.5616885" visible="true"><tag k="addr:housenumber" v="7620"/><tag k="addr:postcode" v="97266"/><tag k="addr:city" v="Portland"/><tag k="addr:street" v="Southeast 98th Avenue"/></node>
<node id="-20" lat="45.467909816" lon="-122.561691652" visible="true"><tag k="addr:housenumber" v="7624"/><tag k="addr:postcode" v="97266"/><tag k="addr:city" v="Portland"/><tag k="addr:street" v="Southeast 98th Avenue"/></node>
<node id="-21" lat="45.46762609" lon="-122.561745266" visible="true"><tag k="addr:housenumber" v="7630"/><tag k="addr:postcode" v="97266"/><tag k="addr:city" v="Portland"/><tag k="addr:street" v="Southeast 98th Avenue"/></node>
<node id="-22" lat="45.467621943" lon="-122.561747161" visible="true"><tag k="addr:housenumber" v="7632"/><tag k="addr:postcode" v="97266"/><tag k="addr:city" v="Portland"/><tag k="addr:street" v="Southeast 98th Avenue"/></node>
<node id="-23" lat="45.467528499" lon="-122.562074447" visible="true"><tag k="addr:housenumber" v="7650"/><tag k="addr:postcode" v="97266"/><tag k="addr:city" v="Portland"/><tag k="addr:street" v="Southeast 98th Avenue"/></node>
<node id="-24" lat="45.467531254" lon="-122.562071484" visible="true"><tag k="addr:housenumber" v="7652"/><tag k="addr:postcode" v="97266"/><tag k="addr:city" v="Portland"/><tag k="addr:street" v="Southeast 98th Avenue"/></node>
<node id="-25" lat="45.467528604" lon="-122.56256529" visible="true"><tag k="addr:housenumber" v="7670"/><tag k="addr:postcode" v="97266"/><tag k="addr:city" v="Portland"/><tag k="addr:street" v="Southeast 98th Avenue"/></node>
<node id="-26" lat="45.467529223" lon="-122.562564253" visible="true"><tag k="addr:housenumber" v="7672"/><tag k="addr:postcode" v="97266"/><tag k="addr:city" v="Portland"/><tag k="addr:street" v="Southeast 98th Avenue"/></node>
<node id="-27" lat="45.466564314" lon="-122.562553724" visible="true"><tag k="addr:housenumber" v="7824"/><tag k="addr:postcode" v="97266"/><tag k="addr:city" v="Portland"/><tag k="addr:street" v="Southeast 98th Avenue"/></node>
<node id="-28" lat="45.466557215" lon="-122.562545212" visible="true"><tag k="addr:housenumber" v="7830"/><tag k="addr:postcode" v="97266"/><tag k="addr:city" v="Portland"/><tag k="addr:street" v="Southeast 98th Avenue"/></node>
<node id="-29" lat="45.47458003" lon="-122.562805978" visible="true"><tag k="addr:housenumber" v="9728"/><tag k="addr:postcode" v="97266"/><tag k="addr:city" v="Portland"/><tag k="addr:street" v="Southeast Claybourne Street"/></node>
<node id="-30" lat="45.474581879" lon="-122.562812626" visible="true"><tag k="addr:housenumber" v="9730"/><tag k="addr:postcode" v="97266"/><tag k="addr:city" v="Portland"/><tag k="addr:street" v="Southeast Claybourne Street"/></node>
<node id="-31" lat="45.473735754" lon="-122.56641722" visible="true"><tag k="addr:housenumber" v="9406"/><tag k="addr:postcode" v="97266"/><tag k="addr:city" v="Portland"/><tag k="addr:street" v="Southeast Glenwood Street"/></node>
<node id="-32" lat="45.466952696" lon="-122.562578399" visible="true"><tag k="addr:housenumber" v="9805"/><tag k="addr:postcode" v="97266"/><tag k="addr:city" v="Portland"/><tag k="addr:street" v="Southeast Mary Jean Court"/></node>
<node id="-33" lat="45.466951106" lon="-122.562586632" visible="true"><tag k="addr:housenumber" v="9807"/><tag k="addr:postcode" v="97266"/><tag k="addr:city" v="Portland"/><tag k="addr:street" v="Southeast Mary Jean Court"/></node>
<node id="-34" lat="45.46645162" lon="-122.561584873" visible="true"><tag k="addr:housenumber" v="9841"/><tag k="addr:postcode" v="97266"/><tag k="addr:city" v="Portland"/><tag k="addr:street" v="Southeast Mary Jean Court"/></node>
<node id="-35" lat="45.46729934" lon="-122.563274697" visible="true"><tag k="addr:housenumber" v="9750"/><tag k="addr:postcode" v="97266"/><tag k="addr:city" v="Portland"/><tag k="addr:street" v="Southeast Mt Scott Boulevard"/></node>
<node id="-36" lat="45.467300643" lon="-122.56326864" visible="true"><tag k="addr:housenumber" v="9775"/><tag k="addr:postcode" v="97266"/><tag k="addr:city" v="Portland"/><tag k="addr:street" v="Southeast Mt Scott Boulevard"/></node>
<node id="-37" lat="45.466456497" lon="-122.561578977" visible="true"><tag k="addr:housenumber" v="9845"/><tag k="addr:postcode" v="97266"/><tag k="addr:city" v="Portland"/><tag k="addr:street" v="Southeast Mt Scott Boulevard"/></node>
</osm>