<?xml version="1.0"?>
<osm version="0.6" upload="false" generator="uvmogr2osm">
<node id="-1" lat="45.498678613" lon="-122.516121895" visible="true"><tag k="addr:housenumber" v="3206"/><tag k="addr:postcode" v="97236"/><tag k="addr:city" v="Portland"/><tag k="addr:street" v="Southeast 143rd Avenue"/></node>
<node id="-2" lat="45.498008534" lon="-122.516686946" visible="true"><tag k="addr:housenumber" v="3403"/><tag k="addr:postcode" v="97236"/><tag k="addr:city" v="Portland"/><tag k="addr:street" v="Southeast 143rd Avenue"/></node>
<node id="-3" lat="45.498004511" lon="-122.516691939" visible="true"><tag k="addr:housenumber" v="3405"/><tag k="addr:postcode" v="97236"/><tag k="addr:city" v="Portland"/><tag k="addr:street" v="Southeast 143rd Avenue"/></node>
<node id="-4" lat="45.498105659" lon="-122.514177223" visible="true"><tag k="addr:housenumber" v="3328"/><tag k="addr:postcode" v="97236"/><tag k="addr:city" v="Portland"/><tag k="addr:street" v="Southeast 144th Avenue"/></node>
<node id="-5" lat="45.498114002" lon="-122.514182321" visible="true"><tag k="addr:housenumber" v="3332"/><tag k="addr:postcode" v="97236"/><tag k="addr:city" v="Portland"/><tag k="addr:street" v="Southeast 144th Avenue"/></node>
<node id="-6" lat="45.498105508" lon="-122.514177216" visible="true"><tag k="addr:housenumber" v="3336"/><tag k="addr:postcode" v="97236"/><tag k="addr:city" v="Portland"/><tag k="addr:street" v="Southeast 144th Avenue"/></node>
<node id="-7" lat="45.498111511" lon="-122.514182888" visible="true"><tag k="addr:housenumber" v="3340"/><tag k="addr:postcode" v="97236"/><tag k="addr:city" v="Portland"/><tag k="addr:street" v="Southeast 144th Avenue"/></node>
<node id="-8" lat="45.498111087" lon="-122.514181781" visible="true"><tag k="addr:housenumber" v="3344"/><tag k="addr:postcode" v="97236"/><tag k="addr:city" v="Portland"/><tag k="addr:street" v="Southeast 144th Avenue"/></node>
<node id="-9" lat="45.503881215" lon="-122.513536844" visible="true"><tag k="addr:housenumber" v="2508"/><tag k="addr:postcode" v="97236"/><tag k="addr:city" v="Portland"/><tag k="addr:street" v="Southeast 145th Avenue"/></node>
<node id="-10" lat="45.503885221" lon="-122.513538887" visible="true"><tag k="addr:housenumber" v="2514"/><tag k="addr:postcode" v="97236"/><tag k="addr:city" v="Portland"/><tag k="addr:street" v="Southeast 145th Avenue"/></node>
<node id="-11" lat="45.50388134" lon="-122.513534693" visible="true"><tag k="addr:housenumber" v="2520"/><tag k="addr:postcode" v="97236"/><tag k="addr:city" v="Portland"/><tag k="addr:street" v="Southeast 145th Avenue"/></node>
<node id="-12" lat="45.501979165" lon="-122.513536998" visible="true"><tag k="addr:housenumber" v="2750"/><tag k="addr:postcode" v="97236"/><tag k="addr:city" v="Portland"/><tag k="addr:street" v="Southeast 145th Avenue"/></node>
<node id="-13" lat="45.50198192" lon="-122.513539481" visible="true"><tag k="addr:housenumber" v="2752"/><tag k="addr:postcode" v="97236"/><tag k="addr:city" v="Portland"/><tag k="addr:street" v="Southeast 145th Avenue"/></node>
<node id="-14" lat="45.50195133" lon="-122.513142408" visible="true"><tag k="addr:housenumber" v="2800"/><tag k="addr:postcode" v="97236"/><tag k="addr:city" v="Portland"/><tag k="addr:street" v="Southeast 145th Avenue"/></node>
<node id="-15" lat="45.501957055" lon="-122.513141495" visible="true"><tag k="addr:housenumber" v="2802"/><tag k="addr:postcode" v="97236"/><tag k="addr:city" v="Portland"/><tag k="addr:street" v="Southeast 145th Avenue"/></node>
<node id="-16" lat="45.501911871" lon="-122.514431444" visible="true"><tag k="addr:housenumber" v="2805"/><tag k="addr:postcode" v="97236"/><tag k="addr:city" v="Portland"/><tag k="addr:street" v="Southeast 145th Avenue"/></node>
<node id="-17" lat="45.501912451" lon="-122.514433722" visible="true"><tag k="addr:housenumber" v="2807"/><tag k="addr:postcode" v="97236"/><tag k="addr:city" v="Portland"/><tag k="addr:street" v="Southeast 145th Avenue"/></node>
<node id="-18" lat="45.501903136" lon="-122.514436403" visible="true"><tag k="addr:housenumber" v="2809"/><tag k="addr:postcode" v="97236"/><tag k="addr:city" v="Portland"/><tag k="addr:street" v="Southeast 145th Avenue"/></node>
<node id="-19" lat="45.501907296" lon="-122.514435368" visible="true"><tag k="addr:housenumber" v="2811"/><tag k="addr:postcode" v="97236"/><tag k="addr:city" v="Portland"/><tag k="addr:street" v="Southeast 145th Avenue"/></node>
<node id="-20" lat="45.503431711" lon="-122.510025269" visible="true"><tag k="addr:housenumber" v="2600"/><tag k="addr:postcode" v="97236"/><tag k="addr:city" v="Portland"/><tag k="addr:street" v="Southeast 148th Avenue"/></node>
<node id="-21" lat="45.503429674" lon="-122.510025802" visible="true"><tag k="addr:housenumber" v="2602"/><tag k="addr:postcode" v="97236"/><tag k="addr:city" v="Portland"/><tag k="addr:street" v="Southeast 148th Avenue"/></node>
<node id="-22" lat="45.503434224" lon="-122.510025095" visible="true"><tag k="addr:housenumber" v="2604"/><tag k="addr:postcode" v="97236"/><tag k="addr:city" v="Portland"/><tag k="addr:street" v="Southeast 148th Avenue"/></node>
<node id="-23" lat="45.502919539" lon="-122.51001019" visible="true"><tag k="addr:housenumber" v="2640"/><tag k="addr:postcode" v="97236"/><tag k="addr:city" v="Portland"/><tag k="addr:street" v="Southeast 148th Avenue"/></node>
<node id="-24" lat="45.502917268" lon="-122.510011642" visible="true"><tag k="addr:housenumber" v="2642"/><tag k="addr:postcode" v="97236"/><tag k="addr:city" v="Portland"/><tag k="addr:street" v="Southeast 148th Avenue"/></node>
<node id="-25" lat="45.502921503" lon="-122.51001123" visible="true"><tag k="addr:housenumber" v="2644"/><tag k="addr:postcode" v="97236"/><tag k="addr:city" v="Portland"/><tag k="addr:street" v="Southeast 148th Avenue"/></node>
<node id="-26" lat="45.499075605" lon="-122.510087039" visible="true"><tag k="addr:housenumber" v="3220"/><tag k="addr:postcode" v="97236"/><tag k="addr:city" v="Portland"/><tag k="addr:street" v="Southeast 148th Avenue"/></node>
<node id="-27" lat="45.499074472" lon="-122.510089667" visible="true"><tag k="addr:housenumber" v="3221"/><tag k="addr:postcode" v="97236"/><tag k="addr:city" v="Portland"/><tag k="addr:street" v="Southeast 148th Avenue"/></node>
<node id="-28" lat="45.499072016" lon="-122.510092283" visible="true"><tag k="addr:housenumber" v="3222"/><tag k="addr:postcode" v="97236"/><tag k="addr:city" v="Portland"/><tag k="addr:street" v="Southeast 148th Avenue"/></node>
<node id="-29" lat="45.498901584" lon="-122.510204997" visible="true"><tag k="addr:housenumber" v="3232"/><tag k="addr:postcode" v="97236"/><tag k="addr:city" v="Portland"/><tag k="addr:street" v="Southeast 148th Avenue"/></node>
<node id="-30" lat="45.498904546" lon="-122.510201367" visible="true"><tag k="addr:housenumber" v="3234"/><tag k="addr:postcode" v="97236"/><tag k="addr:city" v="Portland"/><tag k="addr:street" v="Southeast 148th Avenue"/></node>
<node id="-31" lat="45.498747739" lon="-122.510116537" visible="true"><tag k="addr:housenumber" v="3248"/><tag k="addr:postcode" v="97236"/><tag k="addr:city" v="Portland"/><tag k="addr:street" v="Southeast 148th Avenue"/></node>
<node id="-32" lat="45.498750202" lon="-122.510113281" visible="true"><tag k="addr:housenumber" v="3250"/><tag k="addr:postcode" v="97236"/><tag k="addr:city" v="Portland"/><tag k="addr:street" v="Southeast 148th Avenue"/></node>
<node id="-33" lat="45.498585339" lon="-122.510119858" visible="true"><tag k="addr:housenumber" v="3306"/><tag k="addr:postcode" v="97236"/><tag k="addr:city" v="Portland"/><tag k="addr:street" v="Southeast 148th Avenue"/></node>
<node id="-34" lat="45.49858355" lon="-122.510121368" visible="true"><tag k="addr:housenumber" v="3308"/><tag k="addr:postcode" v="97236"/><tag k="addr:city" v="Portland"/><tag k="addr:street" v="Southeast 148th Avenue"/></node>
<node id="-35" lat="45.498422166" lon="-122.510211977" visible="true"><tag k="addr:housenumber" v="3318"/><tag k="addr:postcode" v="97236"/><tag k="addr:city" v="Portland"/><tag k="addr:street" v="Southeast 148th Avenue"/></node>
<node id="-36" lat="45.498424977" lon="-122.510211352" visible="true"><tag k="addr:housenumber" v="3320"/><tag k="addr:postcode" v="97236"/><tag k="addr:city" v="Portland"/><tag k="addr:street" v="Southeast 148th Avenue"/></node>
<node id="-37" lat="45.498222418" lon="-122.510247121" visible="true"><tag k="addr:housenumber" v="3334"/><tag k="addr:postcode" v="97236"/><tag k="addr:city" v="Portland"/><tag k="addr:street" v="Southeast 148th Avenue"/></node>
<node id="-38" lat="45.498215639" lon="-122.51024286" visible="true"><tag k="addr:housenumber" v="3336"/><tag k="addr:postcode" v="97236"/><tag k="addr:city" v="Portland"/><tag k="addr:street" v="Southeast 148th Avenue"/></node>
<node id="-39" lat="45.494028113" lon="-122.511102361" visible="true"><tag k="addr:housenumber" v="3907"/><tag k="addr:postcode" v="97236"/><tag k="addr:city" v="Portland"/><tag k="addr:street" v="Southeast 148th Avenue"/></node>
<node id="-40" lat="45.494026669" lon="-122.51110338" visible="true"><tag k="addr:housenumber" v="3909"/><tag k="addr:postcode" v="97236"/><tag k="addr:city" v="Portland"/><tag k="addr:street" v="Southeast 148th Avenue"/></node>
<node id="-41" lat="45.493866928" lon="-122.511103717" visible="true"><tag k="addr:housenumber" v="3919"/><tag k="addr:postcode" v="97236"/><tag k="addr:city" v="Portland"/><tag k="addr:street" v="Southeast 148th Avenue"/></node>
<node id="-42" lat="45.493860454" lon="-122.511098618" visible="true"><tag k="addr:housenumber" v="3921"/><tag k="addr:postcode" v="97236"/><tag k="addr:city" v="Portland"/><tag k="addr:street" v="Southeast 148th Avenue"/></node>
<node id="-43" lat="45.493693128" lon="-122.511067772" visible="true"><tag k="addr:housenumber" v="3933"/><tag k="addr:postcode" v="97236"/><tag k="addr:city" v="Portland"/><tag k="addr:street" v="Southeast 148th Avenue"/></node>
<node id="-44" lat="45.493695965" lon="-122.511067434" visible="true"><tag k="addr:housenumber" v="3935"/><tag k="addr:postcode" v="97236"/><tag k="addr:city" v="Portland"/><tag k="addr:street" v="Southeast 148th Avenue"/></node>
<node id="-45" lat="45.492419939" lon="-122.510900803" visible="true"><tag k="addr:housenumber" v="4102"/><tag k="addr:postcode" v="97236"/><tag k="addr:city" v="Portland"/><tag k="addr:street" v="Southeast 148th Avenue"/></node>
<node id="-46" lat="45.492425966" lon="-122.510894175" visible="true"><tag k="addr:housenumber" v="4104"/><tag k="addr:postcode" v="97236"/><tag k="addr:city" v="Portland"/><tag k="addr:street" v="Southeast 148th Avenue"/></node>
<node id="-47" lat="45.492485331" lon="-122.511646251" visible="true"><tag k="addr:housenumber" v="4105"/><tag k="addr:postcode" v="97236"/><tag k="addr:city" v="Portland"/><tag k="addr:street" v="Southeast 148th Avenue"/></node>
<node id="-48" lat="45.492485389" lon="-122.511648037" visible="true"><tag k="addr:housenumber" v="4107"/><tag k="addr:postcode" v="97236"/><tag k="addr:city" v="Portland"/><tag k="addr:street" v="Southeast 148th Avenue"/></node>
<node id="-49" lat="45.492486786" lon="-122.511645076" visible="true"><tag k="addr:housenumber" v="4125"/><tag k="addr:postcode" v="97236"/><tag k="addr:city" v="Portland"/><tag k="addr:street" v="Southeast 148th Avenue"/></node>
<node id="-50" lat="45.498418785" lon="-122.509333749" visible="true"><tag k="addr:housenumber" v="3315"/><tag k="addr:postcode" v="97236"/><tag k="addr:city" v="Portland"/><tag k="addr:street" v="Southeast 150th Avenue"/></node>
<node id="-51" lat="45.498420011" lon="-122.509334829" visible="true"><tag k="addr:housenumber" v="3317"/><tag k="addr:postcode" v="97236"/><tag k="addr:city" v="Portland"/><tag k="addr:street" v="Southeast 150th Avenue"/></node>
<node id="-52" lat="45.498260817" lon="-122.509334875" visible="true"><tag k="addr:housenumber" v="3339"/><tag k="addr:postcode" v="97236"/><tag k="addr:city" v="Portland"/><tag k="addr:street" v="Southeast 150th Avenue"/></node>
<node id="-53" lat="45.498262337" lon="-122.50933586" visible="true"><tag k="addr:housenumber" v="3341"/><tag k="addr:postcode" v="97236"/><tag k="addr:city" v="Portland"/><tag k="addr:street" v="Southeast 150th Avenue"/></node>
<node id="-54" lat="45.498107594" lon="-122.509330706" visible="true"><tag k="addr:housenumber" v="3403"/><tag k="addr:postcode" v="97236"/><tag k="addr:city" v="Portland"/><tag k="addr:street" v="Southeast 150th Avenue"/></node>
<node id="-55" lat="45.498107022" lon="-122.509331104" visible="true"><tag k="addr:housenumber" v="3405"/><tag k="addr:postcode" v="97236"/><tag k="addr:city" v="Portland"/><tag k="addr:street" v="Southeast 150th Avenue"/></node>
<node id="-56" lat="45.498685997" lon="-122.516123654" visible="true"><tag k="addr:housenumber" v="13939"/><tag k="addr:postcode" v="97236"/><tag k="addr:city" v="Portland"/><tag k="addr:street" v="Southeast Bush Street"/></node>
<node id="-57" lat="45.494683206" lon="-122.512557939" visible="true"><tag k="addr:housenumber" v="14620"/><tag k="addr:postcode" v="97236"/><tag k="addr:city" v="Portland"/><tag k="addr:street" v="Southeast Bush Street"/></node>
<node id="-58" lat="45.492630926" lon="-122.514981002" visible="true"><tag k="addr:housenumber" v="14416"/><tag k="addr:postcode" v="97236"/><tag k="addr:city" v="Portland"/><tag k="addr:street" v="Southeast Center Street"/></node>
<node id="-59" lat="45.492631353" lon="-122.514976503" visible="true"><tag k="addr:housenumber" v="14424"/><tag k="addr:postcode" v="97236"/><tag k="addr:city" v="Portland"/><tag k="addr:street" v="Southeast Center Street"/></node>
<node id="-60" lat="45.498917186" lon="-122.516235874" visible="true"><tag k="addr:housenumber" v="14306"/><tag k="addr:postcode" v="97236"/><tag k="addr:city" v="Portland"/><tag k="addr:street" v="Southeast Powell Boulevard"/></node>
<node id="-61" lat="45.498910976" lon="-122.516231631" visible="true"><tag k="addr:housenumber" v="14310"/><tag k="addr:postcode" v="97236"/><tag k="addr:city" v="Portland"/><tag k="addr:street" v="Southeast Powell Boulevard"/></node>
<node id="-62" lat="45.498189406" lon="-122.509928529" visible="true"><tag k="addr:housenumber" v="14847"/><tag k="addr:postcode" v="97236"/><tag k="addr:city" v="Portland"/><tag k="addr:street" v="Southeast Powell Boulevard"/></node>
<node id="-63" lat="45.498187169" lon="-122.509929978" visible="true"><tag k="addr:housenumber" v="14849"/><tag k="addr:postcode" v="97236"/><tag k="addr:city" v="Portland"/><tag k="addr:street" v="Southeast Powell Boulevard"/></node>
<node id="-64" lat="45.497949082" lon="-122.509304334" visible="true"><tag k="addr:housenumber" v="14919"/><tag k="addr:postcode" v="97236"/><tag k="addr:city" v="Portland"/><tag k="addr:street" v="Southeast Powell Boulevard"/></node>
<node id="-65" lat="45.497950472" lon="-122.509308753" visible="true"><tag k="addr:housenumber" v="14923"/><tag k="addr:postcode" v="97236"/><tag k="addr:city" v="Portland"/><tag k="addr:street" v="Southeast Powell Boulevard"/></node>
<node id="-66" lat="45.494674984" lon="-122.51255367" visible="true"><tag k="addr:housenumber" v="14620"/><tag k="addr:postcode" v="97236"/><tag k="addr:city" v="Portland"/><tag k="addr:street" v="Southeast Rachel Lane"/></node>
<node id="-67" lat="45.496849006" lon="-122.513845068" visible="true"><tag k="addr:housenumber" v="14522"/><tag k="addr:postcode" v="97236"/><tag k="addr:city" v="Portland"/><tag k="addr:street" v="Southeast Rhine Street"/></node>
<node id="-68" lat="45.496853942" lon="-122.513849611" visible="true"><tag k="addr:housenumber" v="14524"/><tag k="addr:postcode" v="97236"/><tag k="addr:city" v="Portland"/><tag k="addr:street" v="Southeast Rhine Street"/></node>
<node id="-69" lat="45.497491661" lon="-122.513301566" visible="true"><tag k="addr:housenumber" v="14535"/><tag k="addr:postcode" v="97236"/><tag k="addr:city" v="Portland"/><tag k="addr:street" v="Southeast Rhine Street"/></node>
<node id="-70" lat="45.497487291" lon="-122.513302608" visible="true"><tag k="addr:housenumber" v="14537"/><tag k="addr:postcode" v="97236"/><tag k="addr:city" v="Portland"/><tag k="addr:street" v="Southeast Rhine Street"/></node>
<node id="-71" lat="45.497545666" lon="-122.512250936" visible="true"><tag k="addr:housenumber" v="14639"/><tag k="addr:postcode" v="97236"/><tag k="addr:city" v="Portland"/><tag k="addr:street" v="Southeast Rhine Street"/></node>
<node id="-72" lat="45.497539122" lon="-122.5122545" visible="true"><tag k="addr:housenumber" v="14645"/><tag k="addr:postcode" v="97236"/><tag k="addr:city" v="Portland"/><tag k="addr:street" v="Southeast Rhine Street"/></node>
<node id="-73" lat="45.497541966" lon="-122.512251221" visible="true"><tag k="addr:housenumber" v="14647"/><tag k="addr:postcode" v="97236"/><tag k="addr:city" v="Portland"/><tag k="addr:street" v="Southeast Rhine Street"/></node>
<node id="-74" lat="45.497537445" lon="-122.512254814" visible="true"><tag k="addr:housenumber" v="14655"/><tag k="addr:postcode" v="97236"/><tag k="addr:city" v="Portland"/><tag k="addr:street" v="Southeast Rhine Street"/></node>
<node id="-75" lat="45.497537501" lon="-122.512248103" visible="true"><tag k="addr:housenumber" v="14657"/><tag k="addr:postcode" v="97236"/><tag k="addr:city" v="Portland"/><tag k="addr:street" v="Southeast Rhine Street"/></node>
<node id="-76" lat="45.497654612" lon="-122.511409325" visible="true"><tag k="addr:housenumber" v="14715"/><tag k="addr:postcode" v="97236"/><tag k="addr:city" v="Portland"/><tag k="addr:street" v="Southeast Rhine Street"/></node>
<node id="-77" lat="45.497650775" lon="-122.511413349" visible="true"><tag k="addr:housenumber" v="14719"/><tag k="addr:postcode" v="97236"/><tag k="addr:city" v="Portland"/><tag k="addr:street" v="Southeast Rhine Street"/></node>
<node id="-78" lat="45.500625516" lon="-122.510102663" visible="true"><tag k="addr:housenumber" v="14814"/><tag k="addr:postcode" v="97236"/><tag k="addr:city" v="Portland"/><tag k="addr:street" v="Southeast Woodward Street"/></node>
<node id="-79" lat="45.501099566" lon="-122.510160154" visible="true"><tag k="addr:housenumber" v="14815"/><tag k="addr:postcode" v="97236"/><tag k="addr:city" v="Portland"/><tag k="addr:street" v="Southeast Woodward Street"/></node>
<node id="-80" lat="45.500622728" lon="-122.510097994" visible="true"><tag k="addr:housenumber" v="14820"/><tag k="addr:postcode" v="97236"/><tag k="addr:city" v="Portland"/><tag k="addr:street" v="Southeast Woodward Street"/></node>
<node id="-81" lat="45.501094112" lon="-122.510158366" visible="true"><tag k="addr:housenumber" v="14825"/><tag k="addr:postcode" v="97236"/><tag k="addr:city" v="Portland"/><tag k="addr:street" v="Southeast Woodward Street"/></node>
<node id="-82" lat="45.501098224" lon="-122.509887889" visible="true"><tag k="addr:housenumber" v="14835"/><tag k="addr:postcode" v="97236"/><tag k="addr:city" v="Portland"/><tag k="addr:street" v="Southeast Woodward Street"/></node>
<node id="-83" lat="45.501099758" lon="-122.509885707" visible="true"><tag k="addr:housenumber" v="14845"/><tag k="addr:postcode" v="97236"/><tag k="addr:city" v="Portland"/><tag k="addr:street" v="Southeast Woodward Street"/></node>
</osm>