<?xml version="1.0"?>
<osm version="0.6" upload="false" generator="uvmogr2osm">
<node id="-1" lat="45.51122077" lon="-122.509837094" visible="true"><tag k="addr:housenumber" v="1704"/><tag k="addr:postcode" v="97233"/><tag k="addr:city" v="Portland"/><tag k="addr:street" v="Northeast 112th Avenue"/></node>
<node id="-2" lat="45.511231001" lon="-122.510433769" visible="true"><tag k="addr:housenumber" v="1708"/><tag k="addr:postcode" v="97233"/><tag k="addr:city" v="Portland"/><tag k="addr:street" v="Northeast 112th Avenue"/></node>
<node id="-3" lat="45.511051991" lon="-122.510306093" visible="true"><tag k="addr:housenumber" v="1720"/><tag k="addr:postcode" v="97233"/><tag k="addr:city" v="Portland"/><tag k="addr:street" v="Northeast 112th Avenue"/></node>
<node id="-4" lat="45.510682384" lon="-122.51116992" visible="true"><tag k="addr:housenumber" v="1747"/><tag k="addr:postcode" v="97233"/><tag k="addr:city" v="Portland"/><tag k="addr:street" v="Northeast 112th Avenue"/></node>
<node id="-5" lat="45.510524672" lon="-122.511094698" visible="true"><tag k="addr:housenumber" v="1753"/><tag k="addr:postcode" v="97233"/><tag k="addr:city" v="Portland"/><tag k="addr:street" v="Northeast 112th Avenue"/></node>
<node id="-6" lat="45.505574721" lon="-122.516988052" visible="true"><tag k="addr:housenumber" v="2324"/><tag k="addr:postcode" v="97233"/><tag k="addr:city" v="Portland"/><tag k="addr:street" v="Southeast 142nd Avenue"/></node>
<node id="-7" lat="45.505579318" lon="-122.516983839" visible="true"><tag k="addr:housenumber" v="2326"/><tag k="addr:postcode" v="97233"/><tag k="addr:city" v="Portland"/><tag k="addr:street" v="Southeast 142nd Avenue"/></node>
<node id="-8" lat="45.506944563" lon="-122.515041255" visible="true"><tag k="addr:housenumber" v="2154"/><tag k="addr:postcode" v="97233"/><tag k="addr:city" v="Portland"/><tag k="addr:street" v="Southeast 143rd Avenue"/></node>
<node id="-9" lat="45.505376569" lon="-122.514318638" visible="true"><tag k="addr:housenumber" v="2345"/><tag k="addr:postcode" v="97233"/><tag k="addr:city" v="Portland"/><tag k="addr:street" v="Southeast 145th Avenue"/></node>
<node id="-10" lat="45.505380867" lon="-122.514321228" visible="true"><tag k="addr:housenumber" v="2347"/><tag k="addr:postcode" v="97233"/><tag k="addr:city" v="Portland"/><tag k="addr:street" v="Southeast 145th Avenue"/></node>
<node id="-11" lat="45.505190626" lon="-122.514324107" visible="true"><tag k="addr:housenumber" v="2361"/><tag k="addr:postcode" v="97233"/><tag k="addr:city" v="Portland"/><tag k="addr:street" v="Southeast 145th Avenue"/></node>
<node id="-12" lat="45.505183114" lon="-122.514326884" visible="true"><tag k="addr:housenumber" v="2363"/><tag k="addr:postcode" v="97233"/><tag k="addr:city" v="Portland"/><tag k="addr:street" v="Southeast 145th Avenue"/></node>
<node id="-13" lat="45.505192885" lon="-122.5132111" visible="true"><tag k="addr:housenumber" v="2355"/><tag k="addr:postcode" v="97233"/><tag k="addr:city" v="Portland"/><tag k="addr:street" v="Southeast 146th Avenue"/></node>
<node id="-14" lat="45.505184597" lon="-122.513208525" visible="true"><tag k="addr:housenumber" v="2357"/><tag k="addr:postcode" v="97233"/><tag k="addr:city" v="Portland"/><tag k="addr:street" v="Southeast 146th Avenue"/></node>
<node id="-15" lat="45.511222314" lon="-122.509834253" visible="true"><tag k="addr:housenumber" v="1642"/><tag k="addr:postcode" v="97233"/><tag k="addr:city" v="Portland"/><tag k="addr:street" v="Southeast 148th Avenue"/></node>
<node id="-16" lat="45.511227912" lon="-122.509831724" visible="true"><tag k="addr:housenumber" v="1704"/><tag k="addr:postcode" v="97233"/><tag k="addr:city" v="Portland"/><tag k="addr:street" v="Southeast 148th Avenue"/></node>
<node id="-17" lat="45.511231445" lon="-122.510438699" visible="true"><tag k="addr:housenumber" v="1708"/><tag k="addr:postcode" v="97233"/><tag k="addr:city" v="Portland"/><tag k="addr:street" v="Southeast 148th Avenue"/></node>
<node id="-18" lat="45.511048304" lon="-122.510299397" visible="true"><tag k="addr:housenumber" v="1720"/><tag k="addr:postcode" v="97233"/><tag k="addr:city" v="Portland"/><tag k="addr:street" v="Southeast 148th Avenue"/></node>
<node id="-19" lat="45.510675165" lon="-122.511169265" visible="true"><tag k="addr:housenumber" v="1747"/><tag k="addr:postcode" v="97233"/><tag k="addr:city" v="Portland"/><tag k="addr:street" v="Southeast 148th Avenue"/></node>
<node id="-20" lat="45.510526555" lon="-122.511092877" visible="true"><tag k="addr:housenumber" v="1753"/><tag k="addr:postcode" v="97233"/><tag k="addr:city" v="Portland"/><tag k="addr:street" v="Southeast 148th Avenue"/></node>
<node id="-21" lat="45.510532871" lon="-122.511099525" visible="true"><tag k="addr:housenumber" v="1757"/><tag k="addr:postcode" v="97233"/><tag k="addr:city" v="Portland"/><tag k="addr:street" v="Southeast 148th Avenue"/></node>
<node id="-22" lat="45.508647534" lon="-122.511080082" visible="true"><tag k="addr:housenumber" v="1945"/><tag k="addr:postcode" v="97233"/><tag k="addr:city" v="Portland"/><tag k="addr:street" v="Southeast 148th Avenue"/></node>
<node id="-23" lat="45.50864551" lon="-122.511079116" visible="true"><tag k="addr:housenumber" v="1947"/><tag k="addr:postcode" v="97233"/><tag k="addr:city" v="Portland"/><tag k="addr:street" v="Southeast 148th Avenue"/></node>
<node id="-24" lat="45.504447346" lon="-122.515050664" visible="true"><tag k="addr:housenumber" v="14305"/><tag k="addr:postcode" v="97236"/><tag k="addr:city" v="Portland"/><tag k="addr:street" v="Southeast Division Street"/></node>
<node id="-25" lat="45.504452749" lon="-122.515055348" visible="true"><tag k="addr:housenumber" v="14329"/><tag k="addr:postcode" v="97236"/><tag k="addr:city" v="Portland"/><tag k="addr:street" v="Southeast Division Street"/></node>
<node id="-26" lat="45.504423771" lon="-122.514325881" visible="true"><tag k="addr:housenumber" v="14425"/><tag k="addr:postcode" v="97236"/><tag k="addr:city" v="Portland"/><tag k="addr:street" v="Southeast Division Street"/></node>
<node id="-27" lat="45.504426738" lon="-122.514330323" visible="true"><tag k="addr:housenumber" v="14441"/><tag k="addr:postcode" v="97236"/><tag k="addr:city" v="Portland"/><tag k="addr:street" v="Southeast Division Street"/></node>
<node id="-28" lat="45.504420734" lon="-122.514331043" visible="true"><tag k="addr:housenumber" v="14443"/><tag k="addr:postcode" v="97236"/><tag k="addr:city" v="Portland"/><tag k="addr:street" v="Southeast Division Street"/></node>
<node id="-29" lat="45.504422987" lon="-122.514324376" visible="true"><tag k="addr:housenumber" v="14447"/><tag k="addr:postcode" v="97236"/><tag k="addr:city" v="Portland"/><tag k="addr:street" v="Southeast Division Street"/></node>
<node id="-30" lat="45.507902114" lon="-122.510417903" visible="true"><tag k="addr:housenumber" v="14814"/><tag k="addr:postcode" v="97233"/><tag k="addr:city" v="Portland"/><tag k="addr:street" v="Southeast Lincoln Street"/></node>
<node id="-31" lat="45.508314145" lon="-122.510327766" visible="true"><tag k="addr:housenumber" v="14815"/><tag k="addr:postcode" v="97233"/><tag k="addr:city" v="Portland"/><tag k="addr:street" v="Southeast Lincoln Street"/></node>
<node id="-32" lat="45.507903703" lon="-122.510419197" visible="true"><tag k="addr:housenumber" v="14820"/><tag k="addr:postcode" v="97233"/><tag k="addr:city" v="Portland"/><tag k="addr:street" v="Southeast Lincoln Street"/></node>
<node id="-33" lat="45.508311468" lon="-122.510327143" visible="true"><tag k="addr:housenumber" v="14825"/><tag k="addr:postcode" v="97233"/><tag k="addr:city" v="Portland"/><tag k="addr:street" v="Southeast Lincoln Street"/></node>
<node id="-34" lat="45.506990927" lon="-122.515045727" visible="true"><tag k="addr:housenumber" v="14325"/><tag k="addr:postcode" v="97233"/><tag k="addr:city" v="Portland"/><tag k="addr:street" v="Southeast Macduffee Court"/></node>
</osm>