<?xml version="1.0"?>
<osm version="0.6" upload="false" generator="uvmogr2osm">
<node id="-1" lat="45.513903211" lon="-122.588806646" visible="true"><tag k="addr:housenumber" v="1226"/><tag k="addr:postcode" v="97215"/><tag k="addr:city" v="Portland"/><tag k="addr:street" v="Southeast 72nd Avenue"/></node>
<node id="-2" lat="45.513246118" lon="-122.588718656" visible="true"><tag k="addr:housenumber" v="1326"/><tag k="addr:postcode" v="97215"/><tag k="addr:city" v="Portland"/><tag k="addr:street" v="Southeast 72nd Avenue"/></node>
<node id="-3" lat="45.518602053" lon="-122.588439315" visible="true"><tag k="addr:housenumber" v="538"/><tag k="addr:postcode" v="97215"/><tag k="addr:city" v="Portland"/><tag k="addr:street" v="Southeast 72nd Avenue"/></node>
<node id="-4" lat="45.518601294" lon="-122.588437551" visible="true"><tag k="addr:housenumber" v="540"/><tag k="addr:postcode" v="97215"/><tag k="addr:city" v="Portland"/><tag k="addr:street" v="Southeast 72nd Avenue"/></node>
<node id="-5" lat="45.518462905" lon="-122.588441683" visible="true"><tag k="addr:housenumber" v="604"/><tag k="addr:postcode" v="97215"/><tag k="addr:city" v="Portland"/><tag k="addr:street" v="Southeast 72nd Avenue"/></node>
<node id="-6" lat="45.518471128" lon="-122.588441276" visible="true"><tag k="addr:housenumber" v="606"/><tag k="addr:postcode" v="97215"/><tag k="addr:city" v="Portland"/><tag k="addr:street" v="Southeast 72nd Avenue"/></node>
<node id="-7" lat="45.513441554" lon="-122.585477024" visible="true"><tag k="addr:housenumber" v="1315"/><tag k="addr:postcode" v="97215"/><tag k="addr:city" v="Portland"/><tag k="addr:street" v="Southeast 76th Avenue"/></node>
<node id="-8" lat="45.512627594" lon="-122.58555025" visible="true"><tag k="addr:housenumber" v="1411"/><tag k="addr:postcode" v="97215"/><tag k="addr:city" v="Portland"/><tag k="addr:street" v="Southeast 76th Avenue"/></node>
<node id="-9" lat="45.512635688" lon="-122.585550572" visible="true"><tag k="addr:housenumber" v="1417"/><tag k="addr:postcode" v="97215"/><tag k="addr:city" v="Portland"/><tag k="addr:street" v="Southeast 76th Avenue"/></node>
<node id="-10" lat="45.512492052" lon="-122.585550751" visible="true"><tag k="addr:housenumber" v="1421"/><tag k="addr:postcode" v="97215"/><tag k="addr:city" v="Portland"/><tag k="addr:street" v="Southeast 76th Avenue"/></node>
<node id="-11" lat="45.512487051" lon="-122.585548329" visible="true"><tag k="addr:housenumber" v="1427"/><tag k="addr:postcode" v="97215"/><tag k="addr:city" v="Portland"/><tag k="addr:street" v="Southeast 76th Avenue"/></node>
<node id="-12" lat="45.518263994" lon="-122.585490323" visible="true"><tag k="addr:housenumber" v="607"/><tag k="addr:postcode" v="97215"/><tag k="addr:city" v="Portland"/><tag k="addr:street" v="Southeast 76th Avenue"/></node>
<node id="-13" lat="45.518262998" lon="-122.585489844" visible="true"><tag k="addr:housenumber" v="609"/><tag k="addr:postcode" v="97215"/><tag k="addr:city" v="Portland"/><tag k="addr:street" v="Southeast 76th Avenue"/></node>
<node id="-14" lat="45.518659924" lon="-122.58364859" visible="true"><tag k="addr:housenumber" v="527"/><tag k="addr:postcode" v="97215"/><tag k="addr:city" v="Portland"/><tag k="addr:street" v="Southeast 78th Avenue"/></node>
<node id="-15" lat="45.518659635" lon="-122.583646325" visible="true"><tag k="addr:housenumber" v="529"/><tag k="addr:postcode" v="97215"/><tag k="addr:city" v="Portland"/><tag k="addr:street" v="Southeast 78th Avenue"/></node>
<node id="-16" lat="45.518657601" lon="-122.583640071" visible="true"><tag k="addr:housenumber" v="533"/><tag k="addr:postcode" v="97215"/><tag k="addr:city" v="Portland"/><tag k="addr:street" v="Southeast 78th Avenue"/></node>
<node id="-17" lat="45.518607358" lon="-122.58295908" visible="true"><tag k="addr:housenumber" v="536"/><tag k="addr:postcode" v="97215"/><tag k="addr:city" v="Portland"/><tag k="addr:street" v="Southeast 78th Avenue"/></node>
<node id="-18" lat="45.51865996" lon="-122.583646659" visible="true"><tag k="addr:housenumber" v="539"/><tag k="addr:postcode" v="97215"/><tag k="addr:city" v="Portland"/><tag k="addr:street" v="Southeast 78th Avenue"/></node>
<node id="-19" lat="45.518609655" lon="-122.582958196" visible="true"><tag k="addr:housenumber" v="540"/><tag k="addr:postcode" v="97215"/><tag k="addr:city" v="Portland"/><tag k="addr:street" v="Southeast 78th Avenue"/></node>
<node id="-20" lat="45.51866187" lon="-122.583642857" visible="true"><tag k="addr:housenumber" v="543"/><tag k="addr:postcode" v="97215"/><tag k="addr:city" v="Portland"/><tag k="addr:street" v="Southeast 78th Avenue"/></node>
<node id="-21" lat="45.518659906" lon="-122.583645708" visible="true"><tag k="addr:housenumber" v="545"/><tag k="addr:postcode" v="97215"/><tag k="addr:city" v="Portland"/><tag k="addr:street" v="Southeast 78th Avenue"/></node>
<node id="-22" lat="45.518157787" lon="-122.582828956" visible="true"><tag k="addr:housenumber" v="618"/><tag k="addr:postcode" v="97215"/><tag k="addr:city" v="Portland"/><tag k="addr:street" v="Southeast 78th Avenue"/></node>
<node id="-23" lat="45.516266969" lon="-122.581647712" visible="true"><tag k="addr:housenumber" v="831"/><tag k="addr:postcode" v="97215"/><tag k="addr:city" v="Portland"/><tag k="addr:street" v="Southeast 80th Avenue"/></node>
<node id="-24" lat="45.516260184" lon="-122.581653767" visible="true"><tag k="addr:housenumber" v="835"/><tag k="addr:postcode" v="97215"/><tag k="addr:city" v="Portland"/><tag k="addr:street" v="Southeast 80th Avenue"/></node>
<node id="-25" lat="45.517891511" lon="-122.580484383" visible="true"><tag k="addr:housenumber" v="631"/><tag k="addr:postcode" v="97215"/><tag k="addr:city" v="Portland"/><tag k="addr:street" v="Southeast 81st Avenue"/></node>
<node id="-26" lat="45.517897194" lon="-122.580479258" visible="true"><tag k="addr:housenumber" v="635"/><tag k="addr:postcode" v="97215"/><tag k="addr:city" v="Portland"/><tag k="addr:street" v="Southeast 81st Avenue"/></node>
<node id="-27" lat="45.517154877" lon="-122.580093367" visible="true"><tag k="addr:housenumber" v="736"/><tag k="addr:postcode" v="97215"/><tag k="addr:city" v="Portland"/><tag k="addr:street" v="Southeast 81st Avenue"/></node>
<node id="-28" lat="45.517156007" lon="-122.580089395" visible="true"><tag k="addr:housenumber" v="738"/><tag k="addr:postcode" v="97215"/><tag k="addr:city" v="Portland"/><tag k="addr:street" v="Southeast 81st Avenue"/></node>
<node id="-29" lat="45.515057101" lon="-122.579281172" visible="true"><tag k="addr:housenumber" v="1133"/><tag k="addr:postcode" v="97216"/><tag k="addr:city" v="Portland"/><tag k="addr:street" v="Southeast 82nd Avenue"/></node>
<node id="-30" lat="45.513186894" lon="-122.579146428" visible="true"><tag k="addr:housenumber" v="1311"/><tag k="addr:postcode" v="97216"/><tag k="addr:city" v="Portland"/><tag k="addr:street" v="Southeast 82nd Avenue"/></node>
<node id="-31" lat="45.513181281" lon="-122.579145152" visible="true"><tag k="addr:housenumber" v="1313"/><tag k="addr:postcode" v="97216"/><tag k="addr:city" v="Portland"/><tag k="addr:street" v="Southeast 82nd Avenue"/></node>
<node id="-32" lat="45.516758015" lon="-122.579239804" visible="true"><tag k="addr:housenumber" v="803"/><tag k="addr:postcode" v="97216"/><tag k="addr:city" v="Portland"/><tag k="addr:street" v="Southeast 82nd Avenue"/></node>
<node id="-33" lat="45.516761284" lon="-122.579239691" visible="true"><tag k="addr:housenumber" v="805"/><tag k="addr:postcode" v="97216"/><tag k="addr:city" v="Portland"/><tag k="addr:street" v="Southeast 82nd Avenue"/></node>
<node id="-34" lat="45.516765933" lon="-122.579232295" visible="true"><tag k="addr:housenumber" v="835"/><tag k="addr:postcode" v="97216"/><tag k="addr:city" v="Portland"/><tag k="addr:street" v="Southeast 82nd Avenue"/></node>
<node id="-35" lat="45.517810892" lon="-122.584290085" visible="true"><tag k="addr:housenumber" v="7641"/><tag k="addr:postcode" v="97215"/><tag k="addr:city" v="Portland"/><tag k="addr:street" v="Southeast Alder Street"/></node>
<node id="-36" lat="45.517816679" lon="-122.584294906" visible="true"><tag k="addr:housenumber" v="7643"/><tag k="addr:postcode" v="97215"/><tag k="addr:city" v="Portland"/><tag k="addr:street" v="Southeast Alder Street"/></node>
<node id="-37" lat="45.512348156" lon="-122.58555807" visible="true"><tag k="addr:housenumber" v="7525"/><tag k="addr:postcode" v="97215"/><tag k="addr:city" v="Portland"/><tag k="addr:street" v="Southeast Hawthorne Boulevard"/></node>
<node id="-38" lat="45.512353334" lon="-122.585555996" visible="true"><tag k="addr:housenumber" v="7529"/><tag k="addr:postcode" v="97215"/><tag k="addr:city" v="Portland"/><tag k="addr:street" v="Southeast Hawthorne Boulevard"/></node>
<node id="-39" lat="45.513249768" lon="-122.588723208" visible="true"><tag k="addr:housenumber" v="7207"/><tag k="addr:postcode" v="97215"/><tag k="addr:city" v="Portland"/><tag k="addr:street" v="Southeast Madison Street"/></node>
<node id="-40" lat="45.513071964" lon="-122.57965406" visible="true"><tag k="addr:housenumber" v="8121"/><tag k="addr:postcode" v="97215"/><tag k="addr:city" v="Portland"/><tag k="addr:street" v="Southeast Madison Street"/></node>
<node id="-41" lat="45.513072507" lon="-122.579653182" visible="true"><tag k="addr:housenumber" v="8123"/><tag k="addr:postcode" v="97215"/><tag k="addr:city" v="Portland"/><tag k="addr:street" v="Southeast Madison Street"/></node>
<node id="-42" lat="45.513903016" lon="-122.588809085" visible="true"><tag k="addr:housenumber" v="7203"/><tag k="addr:postcode" v="97215"/><tag k="addr:city" v="Portland"/><tag k="addr:street" v="Southeast Main Street"/></node>
<node id="-43" lat="45.513433294" lon="-122.585471512" visible="true"><tag k="addr:housenumber" v="7530"/><tag k="addr:postcode" v="97215"/><tag k="addr:city" v="Portland"/><tag k="addr:street" v="Southeast Main Street"/></node>
<node id="-44" lat="45.513734083" lon="-122.580608044" visible="true"><tag k="addr:housenumber" v="8019"/><tag k="addr:postcode" v="97215"/><tag k="addr:city" v="Portland"/><tag k="addr:street" v="Southeast Main Street"/></node>
<node id="-45" lat="45.513735051" lon="-122.5806125" visible="true"><tag k="addr:housenumber" v="8021"/><tag k="addr:postcode" v="97215"/><tag k="addr:city" v="Portland"/><tag k="addr:street" v="Southeast Main Street"/></node>
<node id="-46" lat="45.513730001" lon="-122.580613703" visible="true"><tag k="addr:housenumber" v="8023"/><tag k="addr:postcode" v="97215"/><tag k="addr:city" v="Portland"/><tag k="addr:street" v="Southeast Main Street"/></node>
<node id="-47" lat="45.513734556" lon="-122.580612208" visible="true"><tag k="addr:housenumber" v="8025"/><tag k="addr:postcode" v="97215"/><tag k="addr:city" v="Portland"/><tag k="addr:street" v="Southeast Main Street"/></node>
<node id="-48" lat="45.513730304" lon="-122.580609361" visible="true"><tag k="addr:housenumber" v="8027"/><tag k="addr:postcode" v="97215"/><tag k="addr:city" v="Portland"/><tag k="addr:street" v="Southeast Main Street"/></node>
<node id="-49" lat="45.513726838" lon="-122.580614076" visible="true"><tag k="addr:housenumber" v="8029"/><tag k="addr:postcode" v="97215"/><tag k="addr:city" v="Portland"/><tag k="addr:street" v="Southeast Main Street"/></node>
<node id="-50" lat="45.513734117" lon="-122.580613078" visible="true"><tag k="addr:housenumber" v="8033"/><tag k="addr:postcode" v="97215"/><tag k="addr:city" v="Portland"/><tag k="addr:street" v="Southeast Main Street"/></node>
<node id="-51" lat="45.51373243" lon="-122.580617782" visible="true"><tag k="addr:housenumber" v="8035"/><tag k="addr:postcode" v="97215"/><tag k="addr:city" v="Portland"/><tag k="addr:street" v="Southeast Main Street"/></node>
<node id="-52" lat="45.513733695" lon="-122.580612096" visible="true"><tag k="addr:housenumber" v="8037"/><tag k="addr:postcode" v="97215"/><tag k="addr:city" v="Portland"/><tag k="addr:street" v="Southeast Main Street"/></node>
<node id="-53" lat="45.513733338" lon="-122.580611833" visible="true"><tag k="addr:housenumber" v="8039"/><tag k="addr:postcode" v="97215"/><tag k="addr:city" v="Portland"/><tag k="addr:street" v="Southeast Main Street"/></node>
<node id="-54" lat="45.513701102" lon="-122.5799849" visible="true"><tag k="addr:housenumber" v="8103"/><tag k="addr:postcode" v="97215"/><tag k="addr:city" v="Portland"/><tag k="addr:street" v="Southeast Main Street"/></node>
<node id="-55" lat="45.513701973" lon="-122.57997797" visible="true"><tag k="addr:housenumber" v="8109"/><tag k="addr:postcode" v="97215"/><tag k="addr:city" v="Portland"/><tag k="addr:street" v="Southeast Main Street"/></node>
<node id="-56" lat="45.517147351" lon="-122.579700558" visible="true"><tag k="addr:housenumber" v="8123"/><tag k="addr:postcode" v="97215"/><tag k="addr:city" v="Portland"/><tag k="addr:street" v="Southeast Morrison Street"/></node>
<node id="-57" lat="45.517152285" lon="-122.579699751" visible="true"><tag k="addr:housenumber" v="8125"/><tag k="addr:postcode" v="97215"/><tag k="addr:city" v="Portland"/><tag k="addr:street" v="Southeast Morrison Street"/></node>
<node id="-58" lat="45.514364669" lon="-122.579479273" visible="true"><tag k="addr:housenumber" v="8121"/><tag k="addr:postcode" v="97215"/><tag k="addr:city" v="Portland"/><tag k="addr:street" v="Southeast Salmon Street"/></node>
<node id="-59" lat="45.514363956" lon="-122.579479101" visible="true"><tag k="addr:housenumber" v="8131"/><tag k="addr:postcode" v="97215"/><tag k="addr:city" v="Portland"/><tag k="addr:street" v="Southeast Salmon Street"/></node>
<node id="-60" lat="45.514362598" lon="-122.579483382" visible="true"><tag k="addr:housenumber" v="8135"/><tag k="addr:postcode" v="97215"/><tag k="addr:city" v="Portland"/><tag k="addr:street" v="Southeast Salmon Street"/></node>
<node id="-61" lat="45.514366022" lon="-122.579484936" visible="true"><tag k="addr:housenumber" v="8139"/><tag k="addr:postcode" v="97215"/><tag k="addr:city" v="Portland"/><tag k="addr:street" v="Southeast Salmon Street"/></node>
<node id="-62" lat="45.51502558" lon="-122.58000174" visible="true"><tag k="addr:housenumber" v="8105"/><tag k="addr:postcode" v="97215"/><tag k="addr:city" v="Portland"/><tag k="addr:street" v="Southeast Taylor Court"/></node>
<node id="-63" lat="45.515019487" lon="-122.580001697" visible="true"><tag k="addr:housenumber" v="8107"/><tag k="addr:postcode" v="97215"/><tag k="addr:city" v="Portland"/><tag k="addr:street" v="Southeast Taylor Court"/></node>
<node id="-64" lat="45.515026388" lon="-122.580008034" visible="true"><tag k="addr:housenumber" v="8109"/><tag k="addr:postcode" v="97215"/><tag k="addr:city" v="Portland"/><tag k="addr:street" v="Southeast Taylor Court"/></node>
<node id="-65" lat="45.515060541" lon="-122.579279363" visible="true"><tag k="addr:housenumber" v="8131"/><tag k="addr:postcode" v="97215"/><tag k="addr:city" v="Portland"/><tag k="addr:street" v="Southeast Taylor Court"/></node>
<node id="-66" lat="45.515333764" lon="-122.57963803" visible="true"><tag k="addr:housenumber" v="8122"/><tag k="addr:postcode" v="97215"/><tag k="addr:city" v="Portland"/><tag k="addr:street" v="Southeast Taylor Street"/></node>
<node id="-67" lat="45.515327013" lon="-122.579638146" visible="true"><tag k="addr:housenumber" v="8126"/><tag k="addr:postcode" v="97215"/><tag k="addr:city" v="Portland"/><tag k="addr:street" v="Southeast Taylor Street"/></node>
<node id="-68" lat="45.518614902" lon="-122.584851873" visible="true"><tag k="addr:housenumber" v="7611"/><tag k="addr:postcode" v="97215"/><tag k="addr:city" v="Portland"/><tag k="addr:street" v="Southeast Washington Street"/></node>
<node id="-69" lat="45.518605741" lon="-122.584858595" visible="true"><tag k="addr:housenumber" v="7613"/><tag k="addr:postcode" v="97215"/><tag k="addr:city" v="Portland"/><tag k="addr:street" v="Southeast Washington Street"/></node>
<node id="-70" lat="45.518162615" lon="-122.584216906" visible="true"><tag k="addr:housenumber" v="7646"/><tag k="addr:postcode" v="97215"/><tag k="addr:city" v="Portland"/><tag k="addr:street" v="Southeast Washington Street"/></node>
<node id="-71" lat="45.518161019" lon="-122.584221282" visible="true"><tag k="addr:housenumber" v="7700"/><tag k="addr:postcode" v="97215"/><tag k="addr:city" v="Portland"/><tag k="addr:street" v="Southeast Washington Street"/></node>
<node id="-72" lat="45.518154626" lon="-122.584217944" visible="true"><tag k="addr:housenumber" v="7702"/><tag k="addr:postcode" v="97215"/><tag k="addr:city" v="Portland"/><tag k="addr:street" v="Southeast Washington Street"/></node>
<node id="-73" lat="45.51815668" lon="-122.58282199" visible="true"><tag k="addr:housenumber" v="7814"/><tag k="addr:postcode" v="97215"/><tag k="addr:city" v="Portland"/><tag k="addr:street" v="Southeast Washington Street"/></node>
<node id="-74" lat="45.518159932" lon="-122.581852812" visible="true"><tag k="addr:housenumber" v="7920"/><tag k="addr:postcode" v="97215"/><tag k="addr:city" v="Portland"/><tag k="addr:street" v="Southeast Washington Street"/></node>
<node id="-75" lat="45.518164353" lon="-122.581852957" visible="true"><tag k="addr:housenumber" v="7922"/><tag k="addr:postcode" v="97215"/><tag k="addr:city" v="Portland"/><tag k="addr:street" v="Southeast Washington Street"/></node>
<node id="-76" lat="45.518158537" lon="-122.581846432" visible="true"><tag k="addr:housenumber" v="7924"/><tag k="addr:postcode" v="97215"/><tag k="addr:city" v="Portland"/><tag k="addr:street" v="Southeast Washington Street"/></node>
<node id="-77" lat="45.516180358" lon="-122.58494527" visible="true"><tag k="addr:housenumber" v="7605"/><tag k="addr:postcode" v="97215"/><tag k="addr:city" v="Portland"/><tag k="addr:street" v="Southeast Yamhill Street"/></node>
<node id="-78" lat="45.515805981" lon="-122.584844584" visible="true"><tag k="addr:housenumber" v="7614"/><tag k="addr:postcode" v="97215"/><tag k="addr:city" v="Portland"/><tag k="addr:street" v="Southeast Yamhill Street"/></node>
<node id="-79" lat="45.51618356" lon="-122.584948597" visible="true"><tag k="addr:housenumber" v="7615"/><tag k="addr:postcode" v="97215"/><tag k="addr:city" v="Portland"/><tag k="addr:street" v="Southeast Yamhill Street"/></node>
<node id="-80" lat="45.515806027" lon="-122.58485027" visible="true"><tag k="addr:housenumber" v="7616"/><tag k="addr:postcode" v="97215"/><tag k="addr:city" v="Portland"/><tag k="addr:street" v="Southeast Yamhill Street"/></node>
</osm>