<?xml version="1.0"?>
<osm version="0.6" upload="false" generator="uvmogr2osm">
<node id="-1" lat="45.450785229" lon="-122.580504305" visible="true"><tag k="addr:housenumber" v="9993"/><tag k="addr:postcode" v="97086"/><tag k="addr:city" v="Happy Valley"/><tag k="addr:street" v="Southeast 82nd Avenue"/></node>
<node id="-2" lat="45.450782824" lon="-122.580508076" visible="true"><tag k="addr:housenumber" v="9995"/><tag k="addr:postcode" v="97086"/><tag k="addr:city" v="Happy Valley"/><tag k="addr:street" v="Southeast 82nd Avenue"/></node>
<node id="-3" lat="45.450781789" lon="-122.580507293" visible="true"><tag k="addr:housenumber" v="9997"/><tag k="addr:postcode" v="97086"/><tag k="addr:city" v="Happy Valley"/><tag k="addr:street" v="Southeast 82nd Avenue"/></node>
<node id="-4" lat="45.450786943" lon="-122.58051019" visible="true"><tag k="addr:housenumber" v="9999"/><tag k="addr:postcode" v="97086"/><tag k="addr:city" v="Happy Valley"/><tag k="addr:street" v="Southeast 82nd Avenue"/></node>
<node id="-5" lat="45.451950799" lon="-122.580947116" visible="true"><tag k="addr:housenumber" v="8009"/><tag k="addr:postcode" v="97222"/><tag k="addr:city" v="Milwaukie"/><tag k="addr:street" v="Southeast Otty Street"/></node>
<node id="-6" lat="45.452083969" lon="-122.580945875" visible="true"><tag k="addr:housenumber" v="8011"/><tag k="addr:postcode" v="97222"/><tag k="addr:city" v="Milwaukie"/><tag k="addr:street" v="Southeast Otty Street"/></node>
<node id="-7" lat="45.452214799" lon="-122.580940258" visible="true"><tag k="addr:housenumber" v="8013"/><tag k="addr:postcode" v="97222"/><tag k="addr:city" v="Milwaukie"/><tag k="addr:street" v="Southeast Otty Street"/></node>
</osm>