<?xml version="1.0"?>
<osm version="0.6" upload="false" generator="uvmogr2osm">
<node id="-1" lat="45.479643023" lon="-122.619181207" visible="true"><tag k="addr:housenumber" v="5916"/><tag k="addr:postcode" v="97206"/><tag k="addr:city" v="Portland"/><tag k="addr:street" v="Southeast 42nd Avenue"/></node>
<node id="-2" lat="45.479644594" lon="-122.619177961" visible="true"><tag k="addr:housenumber" v="5918"/><tag k="addr:postcode" v="97206"/><tag k="addr:city" v="Portland"/><tag k="addr:street" v="Southeast 42nd Avenue"/></node>
<node id="-3" lat="45.478743355" lon="-122.618797063" visible="true"><tag k="addr:housenumber" v="6021"/><tag k="addr:postcode" v="97206"/><tag k="addr:city" v="Portland"/><tag k="addr:street" v="Southeast 43rd Avenue"/></node>
<node id="-4" lat="45.478735344" lon="-122.618796817" visible="true"><tag k="addr:housenumber" v="6023"/><tag k="addr:postcode" v="97206"/><tag k="addr:city" v="Portland"/><tag k="addr:street" v="Southeast 43rd Avenue"/></node>
<node id="-5" lat="45.478024545" lon="-122.617155612" visible="true"><tag k="addr:housenumber" v="6118"/><tag k="addr:postcode" v="97206"/><tag k="addr:city" v="Portland"/><tag k="addr:street" v="Southeast 44th Avenue"/></node>
<node id="-6" lat="45.47801948" lon="-122.617159117" visible="true"><tag k="addr:housenumber" v="6126"/><tag k="addr:postcode" v="97206"/><tag k="addr:city" v="Portland"/><tag k="addr:street" v="Southeast 44th Avenue"/></node>
<node id="-7" lat="45.476870484" lon="-122.617163357" visible="true"><tag k="addr:housenumber" v="6303"/><tag k="addr:postcode" v="97206"/><tag k="addr:city" v="Portland"/><tag k="addr:street" v="Southeast 44th Avenue"/></node>
<node id="-8" lat="45.476873615" lon="-122.617168635" visible="true"><tag k="addr:housenumber" v="6306"/><tag k="addr:postcode" v="97206"/><tag k="addr:city" v="Portland"/><tag k="addr:street" v="Southeast 44th Avenue"/></node>
<node id="-9" lat="45.479424787" lon="-122.614109254" visible="true"><tag k="addr:housenumber" v="5924"/><tag k="addr:postcode" v="97206"/><tag k="addr:city" v="Portland"/><tag k="addr:street" v="Southeast 47th Avenue"/></node>
<node id="-10" lat="45.481181862" lon="-122.613630588" visible="true"><tag k="addr:housenumber" v="5705"/><tag k="addr:postcode" v="97206"/><tag k="addr:city" v="Portland"/><tag k="addr:street" v="Southeast 48th Avenue"/></node>
<node id="-11" lat="45.480123598" lon="-122.613094127" visible="true"><tag k="addr:housenumber" v="5830"/><tag k="addr:postcode" v="97206"/><tag k="addr:city" v="Portland"/><tag k="addr:street" v="Southeast 48th Avenue"/></node>
<node id="-12" lat="45.480062114" lon="-122.613091956" visible="true"><tag k="addr:housenumber" v="5832"/><tag k="addr:postcode" v="97206"/><tag k="addr:city" v="Portland"/><tag k="addr:street" v="Southeast 48th Avenue"/></node>
<node id="-13" lat="45.482165211" lon="-122.611145056" visible="true"><tag k="addr:housenumber" v="5530"/><tag k="addr:postcode" v="97206"/><tag k="addr:city" v="Portland"/><tag k="addr:street" v="Southeast 50th Avenue"/></node>
<node id="-14" lat="45.482168882" lon="-122.611145106" visible="true"><tag k="addr:housenumber" v="5005"/><tag k="addr:postcode" v="97206"/><tag k="addr:city" v="Portland"/><tag k="addr:street" v="Southeast Ellis Street"/></node>
<node id="-15" lat="45.482940961" lon="-122.610541066" visible="true"><tag k="addr:housenumber" v="5027"/><tag k="addr:postcode" v="97206"/><tag k="addr:city" v="Portland"/><tag k="addr:street" v="Southeast Harold Street"/></node>
<node id="-16" lat="45.482945932" lon="-122.610544899" visible="true"><tag k="addr:housenumber" v="5031"/><tag k="addr:postcode" v="97206"/><tag k="addr:city" v="Portland"/><tag k="addr:street" v="Southeast Harold Street"/></node>
<node id="-17" lat="45.476129188" lon="-122.612628827" visible="true"><tag k="addr:housenumber" v="4826"/><tag k="addr:postcode" v="97206"/><tag k="addr:city" v="Portland"/><tag k="addr:street" v="Southeast Henry Street"/></node>
<node id="-18" lat="45.476133075" lon="-122.612633179" visible="true"><tag k="addr:housenumber" v="4828"/><tag k="addr:postcode" v="97206"/><tag k="addr:city" v="Portland"/><tag k="addr:street" v="Southeast Henry Street"/></node>
<node id="-19" lat="45.476510777" lon="-122.610663745" visible="true"><tag k="addr:housenumber" v="5025"/><tag k="addr:postcode" v="97206"/><tag k="addr:city" v="Portland"/><tag k="addr:street" v="Southeast Henry Street"/></node>
<node id="-20" lat="45.476515306" lon="-122.610660038" visible="true"><tag k="addr:housenumber" v="5027"/><tag k="addr:postcode" v="97206"/><tag k="addr:city" v="Portland"/><tag k="addr:street" v="Southeast Henry Street"/></node>
<node id="-21" lat="45.476513881" lon="-122.610468407" visible="true"><tag k="addr:housenumber" v="5035"/><tag k="addr:postcode" v="97206"/><tag k="addr:city" v="Portland"/><tag k="addr:street" v="Southeast Henry Street"/></node>
<node id="-22" lat="45.476515476" lon="-122.610462914" visible="true"><tag k="addr:housenumber" v="5037"/><tag k="addr:postcode" v="97206"/><tag k="addr:city" v="Portland"/><tag k="addr:street" v="Southeast Henry Street"/></node>
<node id="-23" lat="45.481180396" lon="-122.613625133" visible="true"><tag k="addr:housenumber" v="4705"/><tag k="addr:postcode" v="97206"/><tag k="addr:city" v="Portland"/><tag k="addr:street" v="Southeast Reedway Street"/></node>
<node id="-24" lat="45.481179371" lon="-122.613626124" visible="true"><tag k="addr:housenumber" v="4750"/><tag k="addr:postcode" v="97206"/><tag k="addr:city" v="Portland"/><tag k="addr:street" v="Southeast Reedway Street"/></node>
<node id="-25" lat="45.481478765" lon="-122.609971393" visible="true"><tag k="addr:housenumber" v="5055"/><tag k="addr:postcode" v="97206"/><tag k="addr:city" v="Portland"/><tag k="addr:street" v="Southeast Reedway Street"/></node>
<node id="-26" lat="45.481476687" lon="-122.609963088" visible="true"><tag k="addr:housenumber" v="5065"/><tag k="addr:postcode" v="97206"/><tag k="addr:city" v="Portland"/><tag k="addr:street" v="Southeast Reedway Street"/></node>
<node id="-27" lat="45.481474867" lon="-122.609967321" visible="true"><tag k="addr:housenumber" v="5075"/><tag k="addr:postcode" v="97206"/><tag k="addr:city" v="Portland"/><tag k="addr:street" v="Southeast Reedway Street"/></node>
<node id="-28" lat="45.478949801" lon="-122.619227607" visible="true"><tag k="addr:housenumber" v="4203"/><tag k="addr:postcode" v="97206"/><tag k="addr:city" v="Portland"/><tag k="addr:street" v="Southeast Woodstock Boulevard"/></node>
<node id="-29" lat="45.478946214" lon="-122.619230665" visible="true"><tag k="addr:housenumber" v="4206"/><tag k="addr:postcode" v="97206"/><tag k="addr:city" v="Portland"/><tag k="addr:street" v="Southeast Woodstock Boulevard"/></node>
<node id="-30" lat="45.478946635" lon="-122.61923226" visible="true"><tag k="addr:housenumber" v="4214"/><tag k="addr:postcode" v="97206"/><tag k="addr:city" v="Portland"/><tag k="addr:street" v="Southeast Woodstock Boulevard"/></node>
<node id="-31" lat="45.479363828" lon="-122.614907722" visible="true"><tag k="addr:housenumber" v="4607"/><tag k="addr:postcode" v="97206"/><tag k="addr:city" v="Portland"/><tag k="addr:street" v="Southeast Woodstock Boulevard"/></node>
<node id="-32" lat="45.479369139" lon="-122.614907748" visible="true"><tag k="addr:housenumber" v="4609"/><tag k="addr:postcode" v="97206"/><tag k="addr:city" v="Portland"/><tag k="addr:street" v="Southeast Woodstock Boulevard"/></node>
<node id="-33" lat="45.479366532" lon="-122.614909881" visible="true"><tag k="addr:housenumber" v="4611"/><tag k="addr:postcode" v="97206"/><tag k="addr:city" v="Portland"/><tag k="addr:street" v="Southeast Woodstock Boulevard"/></node>
<node id="-34" lat="45.479368631" lon="-122.614904988" visible="true"><tag k="addr:housenumber" v="4615"/><tag k="addr:postcode" v="97206"/><tag k="addr:city" v="Portland"/><tag k="addr:street" v="Southeast Woodstock Boulevard"/></node>
<node id="-35" lat="45.479363115" lon="-122.614911953" visible="true"><tag k="addr:housenumber" v="4617"/><tag k="addr:postcode" v="97206"/><tag k="addr:city" v="Portland"/><tag k="addr:street" v="Southeast Woodstock Boulevard"/></node>
<node id="-36" lat="45.479424191" lon="-122.614110112" visible="true"><tag k="addr:housenumber" v="4715"/><tag k="addr:postcode" v="97206"/><tag k="addr:city" v="Portland"/><tag k="addr:street" v="Southeast Woodstock Boulevard"/></node>
<node id="-37" lat="45.479426184" lon="-122.614109901" visible="true"><tag k="addr:housenumber" v="4717"/><tag k="addr:postcode" v="97206"/><tag k="addr:city" v="Portland"/><tag k="addr:street" v="Southeast Woodstock Boulevard"/></node>
<node id="-38" lat="45.479427218" lon="-122.614115176" visible="true"><tag k="addr:housenumber" v="4721"/><tag k="addr:postcode" v="97206"/><tag k="addr:city" v="Portland"/><tag k="addr:street" v="Southeast Woodstock Boulevard"/></node>
</osm>