<?xml version="1.0"?>
<osm version="0.6" upload="false" generator="uvmogr2osm">
<node id="-1" lat="45.464928492" lon="-122.640742239" visible="true"><tag k="addr:housenumber" v="8037"/><tag k="addr:postcode" v="97202"/><tag k="addr:city" v="Portland"/><tag k="addr:street" v="Southeast 24th Avenue"/></node>
<node id="-2" lat="45.464923736" lon="-122.640735815" visible="true"><tag k="addr:housenumber" v="8039"/><tag k="addr:postcode" v="97202"/><tag k="addr:city" v="Portland"/><tag k="addr:street" v="Southeast 24th Avenue"/></node>
<node id="-3" lat="45.465506879" lon="-122.639268837" visible="true"><tag k="addr:housenumber" v="8002"/><tag k="addr:postcode" v="97202"/><tag k="addr:city" v="Portland"/><tag k="addr:street" v="Southeast 25th Avenue"/></node>
<node id="-4" lat="45.465508603" lon="-122.639272288" visible="true"><tag k="addr:housenumber" v="8004"/><tag k="addr:postcode" v="97202"/><tag k="addr:city" v="Portland"/><tag k="addr:street" v="Southeast 25th Avenue"/></node>
<node id="-5" lat="45.465000805" lon="-122.639702972" visible="true"><tag k="addr:housenumber" v="8043"/><tag k="addr:postcode" v="97202"/><tag k="addr:city" v="Portland"/><tag k="addr:street" v="Southeast 25th Avenue"/></node>
<node id="-6" lat="45.462364893" lon="-122.616710069" visible="true"><tag k="addr:housenumber" v="8431"/><tag k="addr:postcode" v="97222"/><tag k="addr:city" v="Milwaukie"/><tag k="addr:street" v="Southeast 45th Place"/></node>
<node id="-7" lat="45.462360966" lon="-122.616704474" visible="true"><tag k="addr:housenumber" v="8441"/><tag k="addr:postcode" v="97222"/><tag k="addr:city" v="Milwaukie"/><tag k="addr:street" v="Southeast 45th Place"/></node>
<node id="-8" lat="45.46654909" lon="-122.613164036" visible="true"><tag k="addr:housenumber" v="7823"/><tag k="addr:postcode" v="97206"/><tag k="addr:city" v="Portland"/><tag k="addr:street" v="Southeast 49th Avenue"/></node>
<node id="-9" lat="45.466552322" lon="-122.613166657" visible="true"><tag k="addr:housenumber" v="7833"/><tag k="addr:postcode" v="97206"/><tag k="addr:city" v="Portland"/><tag k="addr:street" v="Southeast 49th Avenue"/></node>
<node id="-10" lat="45.468084231" lon="-122.610247748" visible="true"><tag k="addr:housenumber" v="7533"/><tag k="addr:postcode" v="97206"/><tag k="addr:city" v="Portland"/><tag k="addr:street" v="Southeast 52nd Avenue"/></node>
<node id="-11" lat="45.468087298" lon="-122.61024877" visible="true"><tag k="addr:housenumber" v="7535"/><tag k="addr:postcode" v="97206"/><tag k="addr:city" v="Portland"/><tag k="addr:street" v="Southeast 52nd Avenue"/></node>
<node id="-12" lat="45.464840111" lon="-122.616608624" visible="true"><tag k="addr:housenumber" v="4430"/><tag k="addr:postcode" v="97206"/><tag k="addr:city" v="Portland"/><tag k="addr:street" v="Southeast Crystal Springs Boulevard"/></node>
<node id="-13" lat="45.464835911" lon="-122.616600202" visible="true"><tag k="addr:housenumber" v="4432"/><tag k="addr:postcode" v="97206"/><tag k="addr:city" v="Portland"/><tag k="addr:street" v="Southeast Crystal Springs Boulevard"/></node>
<node id="-14" lat="45.462447969" lon="-122.611775542" visible="true"><tag k="addr:housenumber" v="4840"/><tag k="addr:postcode" v="97206"/><tag k="addr:city" v="Portland"/><tag k="addr:street" v="Southeast Harney Drive"/></node>
<node id="-15" lat="45.463143509" lon="-122.612703664" visible="true"><tag k="addr:housenumber" v="4903"/><tag k="addr:postcode" v="97206"/><tag k="addr:city" v="Portland"/><tag k="addr:street" v="Southeast Harney Drive"/></node>
<node id="-16" lat="45.463142119" lon="-122.612702094" visible="true"><tag k="addr:housenumber" v="4905"/><tag k="addr:postcode" v="97206"/><tag k="addr:city" v="Portland"/><tag k="addr:street" v="Southeast Harney Drive"/></node>
<node id="-17" lat="45.462445114" lon="-122.611767982" visible="true"><tag k="addr:housenumber" v="5000"/><tag k="addr:postcode" v="97206"/><tag k="addr:city" v="Portland"/><tag k="addr:street" v="Southeast Harney Drive"/></node>
<node id="-18" lat="45.462446956" lon="-122.611766667" visible="true"><tag k="addr:housenumber" v="5006"/><tag k="addr:postcode" v="97206"/><tag k="addr:city" v="Portland"/><tag k="addr:street" v="Southeast Harney Drive"/></node>
<node id="-19" lat="45.462014459" lon="-122.640316679" visible="true"><tag k="addr:housenumber" v="2404"/><tag k="addr:postcode" v="97202"/><tag k="addr:city" v="Portland"/><tag k="addr:street" v="Southeast Harney Street"/></node>
<node id="-20" lat="45.462020763" lon="-122.640316878" visible="true"><tag k="addr:housenumber" v="2410"/><tag k="addr:postcode" v="97202"/><tag k="addr:city" v="Portland"/><tag k="addr:street" v="Southeast Harney Street"/></node>
<node id="-21" lat="45.462114456" lon="-122.615540013" visible="true"><tag k="addr:housenumber" v="4427"/><tag k="addr:postcode" v="97222"/><tag k="addr:city" v="Milwaukie"/><tag k="addr:street" v="Southeast Johnson Creek Boulevard"/></node>
<node id="-22" lat="45.462108384" lon="-122.615538189" visible="true"><tag k="addr:housenumber" v="4429"/><tag k="addr:postcode" v="97222"/><tag k="addr:city" v="Milwaukie"/><tag k="addr:street" v="Southeast Johnson Creek Boulevard"/></node>
<node id="-23" lat="45.462112618" lon="-122.615536908" visible="true"><tag k="addr:housenumber" v="4437"/><tag k="addr:postcode" v="97202"/><tag k="addr:city" v="Milwaukie"/><tag k="addr:street" v="Southeast Johnson Creek Boulevard"/></node>
<node id="-24" lat="45.462114012" lon="-122.615538358" visible="true"><tag k="addr:housenumber" v="4437"/><tag k="addr:postcode" v="97222"/><tag k="addr:city" v="Milwaukie"/><tag k="addr:street" v="Southeast Johnson Creek Boulevard"/></node>
<node id="-25" lat="45.462114919" lon="-122.61554172" visible="true"><tag k="addr:housenumber" v="4439"/><tag k="addr:postcode" v="97202"/><tag k="addr:city" v="Milwaukie"/><tag k="addr:street" v="Southeast Johnson Creek Boulevard"/></node>
<node id="-26" lat="45.462109893" lon="-122.615538908" visible="true"><tag k="addr:housenumber" v="4439"/><tag k="addr:postcode" v="97222"/><tag k="addr:city" v="Milwaukie"/><tag k="addr:street" v="Southeast Johnson Creek Boulevard"/></node>
<node id="-27" lat="45.462108233" lon="-122.61554192" visible="true"><tag k="addr:housenumber" v="4500"/><tag k="addr:postcode" v="97222"/><tag k="addr:city" v="Milwaukie"/><tag k="addr:street" v="Southeast Johnson Creek Boulevard"/></node>
<node id="-28" lat="45.466232172" lon="-122.611909729" visible="true"><tag k="addr:housenumber" v="4974"/><tag k="addr:postcode" v="97206"/><tag k="addr:city" v="Portland"/><tag k="addr:street" v="Southeast Malden Drive"/></node>
<node id="-29" lat="45.465733901" lon="-122.611376739" visible="true"><tag k="addr:housenumber" v="5010"/><tag k="addr:postcode" v="97206"/><tag k="addr:city" v="Portland"/><tag k="addr:street" v="Southeast Malden Drive"/></node>
<node id="-30" lat="45.465735386" lon="-122.611378735" visible="true"><tag k="addr:housenumber" v="5020"/><tag k="addr:postcode" v="97206"/><tag k="addr:city" v="Portland"/><tag k="addr:street" v="Southeast Malden Drive"/></node>
<node id="-31" lat="45.464594152" lon="-122.638878903" visible="true"><tag k="addr:housenumber" v="8217"/><tag k="addr:postcode" v="97202"/><tag k="addr:city" v="Portland"/><tag k="addr:street" v="Southeast Mcloughlin Boulevard"/></node>
<node id="-32" lat="45.465576257" lon="-122.639799252" visible="true"><tag k="addr:housenumber" v="2422"/><tag k="addr:postcode" v="97202"/><tag k="addr:city" v="Portland"/><tag k="addr:street" v="Southeast Nehalem Street"/></node>
<node id="-33" lat="45.46557361" lon="-122.639799682" visible="true"><tag k="addr:housenumber" v="2424"/><tag k="addr:postcode" v="97202"/><tag k="addr:city" v="Portland"/><tag k="addr:street" v="Southeast Nehalem Street"/></node>
<node id="-34" lat="45.465501693" lon="-122.639073779" visible="true"><tag k="addr:housenumber" v="2516"/><tag k="addr:postcode" v="97202"/><tag k="addr:city" v="Portland"/><tag k="addr:street" v="Southeast Nehalem Street"/></node>
<node id="-35" lat="45.465504989" lon="-122.63907501" visible="true"><tag k="addr:housenumber" v="2518"/><tag k="addr:postcode" v="97202"/><tag k="addr:city" v="Portland"/><tag k="addr:street" v="Southeast Nehalem Street"/></node>
<node id="-36" lat="45.4655003" lon="-122.639075356" visible="true"><tag k="addr:housenumber" v="2520"/><tag k="addr:postcode" v="97202"/><tag k="addr:city" v="Portland"/><tag k="addr:street" v="Southeast Nehalem Street"/></node>
<node id="-37" lat="45.465856096" lon="-122.616320952" visible="true"><tag k="addr:housenumber" v="4441"/><tag k="addr:postcode" v="97206"/><tag k="addr:city" v="Portland"/><tag k="addr:street" v="Southeast Nehalem Street"/></node>
<node id="-38" lat="45.465859201" lon="-122.616318645" visible="true"><tag k="addr:housenumber" v="4449"/><tag k="addr:postcode" v="97206"/><tag k="addr:city" v="Portland"/><tag k="addr:street" v="Southeast Nehalem Street"/></node>
<node id="-39" lat="45.465859926" lon="-122.616322724" visible="true"><tag k="addr:housenumber" v="4451"/><tag k="addr:postcode" v="97206"/><tag k="addr:city" v="Portland"/><tag k="addr:street" v="Southeast Nehalem Street"/></node>
<node id="-40" lat="45.464998918" lon="-122.639706294" visible="true"><tag k="addr:housenumber" v="2457"/><tag k="addr:postcode" v="97202"/><tag k="addr:city" v="Portland"/><tag k="addr:street" v="Southeast Tacoma Street"/></node>
<node id="-41" lat="45.464551975" lon="-122.639172547" visible="true"><tag k="addr:housenumber" v="2500"/><tag k="addr:postcode" v="97202"/><tag k="addr:city" v="Portland"/><tag k="addr:street" v="Southeast Tacoma Street"/></node>
<node id="-42" lat="45.462992129" lon="-122.631100455" visible="true"><tag k="addr:housenumber" v="3032"/><tag k="addr:postcode" v="97202"/><tag k="addr:city" v="Portland"/><tag k="addr:street" v="Southeast Tacoma Street"/></node>
<node id="-43" lat="45.462991699" lon="-122.631102106" visible="true"><tag k="addr:housenumber" v="3034"/><tag k="addr:postcode" v="97202"/><tag k="addr:city" v="Portland"/><tag k="addr:street" v="Southeast Tacoma Street"/></node>
<node id="-44" lat="45.463017312" lon="-122.630812078" visible="true"><tag k="addr:housenumber" v="3110"/><tag k="addr:postcode" v="97202"/><tag k="addr:city" v="Portland"/><tag k="addr:street" v="Southeast Tacoma Street"/></node>
<node id="-45" lat="45.463017711" lon="-122.630817602" visible="true"><tag k="addr:housenumber" v="3112"/><tag k="addr:postcode" v="97202"/><tag k="addr:city" v="Portland"/><tag k="addr:street" v="Southeast Tacoma Street"/></node>
<node id="-46" lat="45.466175149" lon="-122.612005092" visible="true"><tag k="addr:housenumber" v="4937"/><tag k="addr:postcode" v="97206"/><tag k="addr:city" v="Portland"/><tag k="addr:street" v="Southeast Tenino Drive"/></node>
</osm>