<?xml version="1.0"?>
<osm version="0.6" upload="false" generator="uvmogr2osm">
<node id="-1" lat="45.485206484" lon="-122.608536596" visible="true"><tag k="addr:housenumber" v="5210"/><tag k="addr:postcode" v="97206"/><tag k="addr:city" v="Portland"/><tag k="addr:street" v="Southeast 52nd Avenue"/></node>
<node id="-2" lat="45.485205565" lon="-122.608535072" visible="true"><tag k="addr:housenumber" v="5212"/><tag k="addr:postcode" v="97206"/><tag k="addr:city" v="Portland"/><tag k="addr:street" v="Southeast 52nd Avenue"/></node>
<node id="-3" lat="45.485210821" lon="-122.608541925" visible="true"><tag k="addr:housenumber" v="5228"/><tag k="addr:postcode" v="97206"/><tag k="addr:city" v="Portland"/><tag k="addr:street" v="Southeast 52nd Avenue"/></node>
<node id="-4" lat="45.484430139" lon="-122.608464984" visible="true"><tag k="addr:housenumber" v="5308"/><tag k="addr:postcode" v="97206"/><tag k="addr:city" v="Portland"/><tag k="addr:street" v="Southeast 52nd Avenue"/></node>
<node id="-5" lat="45.484432333" lon="-122.60846739" visible="true"><tag k="addr:housenumber" v="5310"/><tag k="addr:postcode" v="97206"/><tag k="addr:city" v="Portland"/><tag k="addr:street" v="Southeast 52nd Avenue"/></node>
<node id="-6" lat="45.484430861" lon="-122.608461626" visible="true"><tag k="addr:housenumber" v="5312"/><tag k="addr:postcode" v="97206"/><tag k="addr:city" v="Portland"/><tag k="addr:street" v="Southeast 52nd Avenue"/></node>
<node id="-7" lat="45.484094673" lon="-122.607523539" visible="true"><tag k="addr:housenumber" v="5333"/><tag k="addr:postcode" v="97206"/><tag k="addr:city" v="Portland"/><tag k="addr:street" v="Southeast 54th Avenue"/></node>
<node id="-8" lat="45.484096042" lon="-122.607520433" visible="true"><tag k="addr:housenumber" v="5335"/><tag k="addr:postcode" v="97206"/><tag k="addr:city" v="Portland"/><tag k="addr:street" v="Southeast 54th Avenue"/></node>
<node id="-9" lat="45.483632884" lon="-122.604962361" visible="true"><tag k="addr:housenumber" v="5407"/><tag k="addr:postcode" v="97206"/><tag k="addr:city" v="Portland"/><tag k="addr:street" v="Southeast 57th Avenue"/></node>
<node id="-10" lat="45.483632149" lon="-122.604961329" visible="true"><tag k="addr:housenumber" v="5411"/><tag k="addr:postcode" v="97206"/><tag k="addr:city" v="Portland"/><tag k="addr:street" v="Southeast 57th Avenue"/></node>
<node id="-11" lat="45.486531187" lon="-122.604329614" visible="true"><tag k="addr:housenumber" v="5003"/><tag k="addr:postcode" v="97206"/><tag k="addr:city" v="Portland"/><tag k="addr:street" v="Southeast 58th Avenue"/></node>
<node id="-12" lat="45.486532672" lon="-122.604331389" visible="true"><tag k="addr:housenumber" v="5005"/><tag k="addr:postcode" v="97206"/><tag k="addr:city" v="Portland"/><tag k="addr:street" v="Southeast 58th Avenue"/></node>
<node id="-13" lat="45.484445161" lon="-122.60236187" visible="true"><tag k="addr:housenumber" v="5307"/><tag k="addr:postcode" v="97206"/><tag k="addr:city" v="Portland"/><tag k="addr:street" v="Southeast 60th Avenue"/></node>
<node id="-14" lat="45.484445441" lon="-122.602361475" visible="true"><tag k="addr:housenumber" v="5315"/><tag k="addr:postcode" v="97206"/><tag k="addr:city" v="Portland"/><tag k="addr:street" v="Southeast 60th Avenue"/></node>
<node id="-15" lat="45.484090341" lon="-122.601850501" visible="true"><tag k="addr:housenumber" v="5336"/><tag k="addr:postcode" v="97206"/><tag k="addr:city" v="Portland"/><tag k="addr:street" v="Southeast 60th Avenue"/></node>
<node id="-16" lat="45.483257274" lon="-122.605045369" visible="true"><tag k="addr:housenumber" v="5651"/><tag k="addr:postcode" v="97206"/><tag k="addr:city" v="Portland"/><tag k="addr:street" v="Southeast Harold Street"/></node>
<node id="-17" lat="45.483254643" lon="-122.605047848" visible="true"><tag k="addr:housenumber" v="5655"/><tag k="addr:postcode" v="97206"/><tag k="addr:city" v="Portland"/><tag k="addr:street" v="Southeast Harold Street"/></node>
<node id="-18" lat="45.484049197" lon="-122.604199803" visible="true"><tag k="addr:housenumber" v="5715"/><tag k="addr:postcode" v="97206"/><tag k="addr:city" v="Portland"/><tag k="addr:street" v="Southeast Insley Street"/></node>
<node id="-19" lat="45.484048068" lon="-122.604199805" visible="true"><tag k="addr:housenumber" v="5723"/><tag k="addr:postcode" v="97206"/><tag k="addr:city" v="Portland"/><tag k="addr:street" v="Southeast Insley Street"/></node>
<node id="-20" lat="45.4840865" lon="-122.601846574" visible="true"><tag k="addr:housenumber" v="6011"/><tag k="addr:postcode" v="97206"/><tag k="addr:city" v="Portland"/><tag k="addr:street" v="Southeast Insley Street"/></node>
<node id="-21" lat="45.488329198" lon="-122.609160111" visible="true"><tag k="addr:housenumber" v="5128"/><tag k="addr:postcode" v="97206"/><tag k="addr:city" v="Portland"/><tag k="addr:street" v="Southeast Long Street"/></node>
<node id="-22" lat="45.488327775" lon="-122.609163755" visible="true"><tag k="addr:housenumber" v="5134"/><tag k="addr:postcode" v="97206"/><tag k="addr:city" v="Portland"/><tag k="addr:street" v="Southeast Long Street"/></node>
<node id="-23" lat="45.489342788" lon="-122.606944741" visible="true"><tag k="addr:housenumber" v="5411"/><tag k="addr:postcode" v="97206"/><tag k="addr:city" v="Portland"/><tag k="addr:street" v="Southeast Long Street"/></node>
<node id="-24" lat="45.489335382" lon="-122.606943432" visible="true"><tag k="addr:housenumber" v="5415"/><tag k="addr:postcode" v="97206"/><tag k="addr:city" v="Portland"/><tag k="addr:street" v="Southeast Long Street"/></node>
<node id="-25" lat="45.485210223" lon="-122.606278925" visible="true"><tag k="addr:housenumber" v="5510"/><tag k="addr:postcode" v="97206"/><tag k="addr:city" v="Portland"/><tag k="addr:street" v="Southeast Mitchell Street"/></node>
<node id="-26" lat="45.485207455" lon="-122.606277931" visible="true"><tag k="addr:housenumber" v="5512"/><tag k="addr:postcode" v="97206"/><tag k="addr:city" v="Portland"/><tag k="addr:street" v="Southeast Mitchell Street"/></node>
<node id="-27" lat="45.484830395" lon="-122.604031007" visible="true"><tag k="addr:housenumber" v="5717"/><tag k="addr:postcode" v="97206"/><tag k="addr:city" v="Portland"/><tag k="addr:street" v="Southeast Steele Street"/></node>
<node id="-28" lat="45.484827978" lon="-122.604033409" visible="true"><tag k="addr:housenumber" v="5725"/><tag k="addr:postcode" v="97206"/><tag k="addr:city" v="Portland"/><tag k="addr:street" v="Southeast Steele Street"/></node>
<node id="-29" lat="45.484456671" lon="-122.602926581" visible="true"><tag k="addr:housenumber" v="5848"/><tag k="addr:postcode" v="97206"/><tag k="addr:city" v="Portland"/><tag k="addr:street" v="Southeast Steele Street"/></node>
<node id="-30" lat="45.484465134" lon="-122.602928801" visible="true"><tag k="addr:housenumber" v="5854"/><tag k="addr:postcode" v="97206"/><tag k="addr:city" v="Portland"/><tag k="addr:street" v="Southeast Steele Street"/></node>
<node id="-31" lat="45.484447214" lon="-122.601134208" visible="true"><tag k="addr:housenumber" v="6026"/><tag k="addr:postcode" v="97206"/><tag k="addr:city" v="Portland"/><tag k="addr:street" v="Southeast Steele Street"/></node>
<node id="-32" lat="45.484442326" lon="-122.601141994" visible="true"><tag k="addr:housenumber" v="6030"/><tag k="addr:postcode" v="97206"/><tag k="addr:city" v="Portland"/><tag k="addr:street" v="Southeast Steele Street"/></node>
<node id="-33" lat="45.484442073" lon="-122.601143104" visible="true"><tag k="addr:housenumber" v="6036"/><tag k="addr:postcode" v="97206"/><tag k="addr:city" v="Portland"/><tag k="addr:street" v="Southeast Steele Street"/></node>
</osm>