<?xml version="1.0"?>
<osm version="0.6" upload="false" generator="uvmogr2osm">
<node id="-1" lat="45.502717164" lon="-122.54267793" visible="true"><tag k="addr:housenumber" v="2635"/><tag k="addr:postcode" v="97266"/><tag k="addr:city" v="Portland"/><tag k="addr:street" v="North Arlington Place"/></node>
<node id="-2" lat="45.502388749" lon="-122.542449752" visible="true"><tag k="addr:housenumber" v="2705"/><tag k="addr:postcode" v="97266"/><tag k="addr:city" v="Portland"/><tag k="addr:street" v="North Arlington Place"/></node>
<node id="-3" lat="45.500815906" lon="-122.541614307" visible="true"><tag k="addr:housenumber" v="2904"/><tag k="addr:postcode" v="97266"/><tag k="addr:city" v="Portland"/><tag k="addr:street" v="North Arlington Place"/></node>
<node id="-4" lat="45.500822867" lon="-122.541608965" visible="true"><tag k="addr:housenumber" v="2908"/><tag k="addr:postcode" v="97217"/><tag k="addr:city" v="Portland"/><tag k="addr:street" v="North Arlington Place"/></node>
<node id="-5" lat="45.500854798" lon="-122.541925544" visible="true"><tag k="addr:housenumber" v="2912"/><tag k="addr:postcode" v="97266"/><tag k="addr:city" v="Portland"/><tag k="addr:street" v="North Arlington Place"/></node>
<node id="-6" lat="45.500694238" lon="-122.541926314" visible="true"><tag k="addr:housenumber" v="2918"/><tag k="addr:postcode" v="97266"/><tag k="addr:city" v="Portland"/><tag k="addr:street" v="North Arlington Place"/></node>
<node id="-7" lat="45.499091925" lon="-122.541922656" visible="true"><tag k="addr:housenumber" v="3226"/><tag k="addr:postcode" v="97266"/><tag k="addr:city" v="Portland"/><tag k="addr:street" v="North Arlington Place"/></node>
<node id="-8" lat="45.501414977" lon="-122.547277276" visible="true"><tag k="addr:housenumber" v="2838"/><tag k="addr:postcode" v="97266"/><tag k="addr:city" v="Portland"/><tag k="addr:street" v="Southeast 112th Avenue"/></node>
<node id="-9" lat="45.501416906" lon="-122.547279097" visible="true"><tag k="addr:housenumber" v="2848"/><tag k="addr:postcode" v="97266"/><tag k="addr:city" v="Portland"/><tag k="addr:street" v="Southeast 112th Avenue"/></node>
<node id="-10" lat="45.497240414" lon="-122.547726349" visible="true"><tag k="addr:housenumber" v="3430"/><tag k="addr:postcode" v="97266"/><tag k="addr:city" v="Portland"/><tag k="addr:street" v="Southeast 112th Avenue"/></node>
<node id="-11" lat="45.497243524" lon="-122.547723587" visible="true"><tag k="addr:housenumber" v="3440"/><tag k="addr:postcode" v="97266"/><tag k="addr:city" v="Portland"/><tag k="addr:street" v="Southeast 112th Avenue"/></node>
<node id="-12" lat="45.502236858" lon="-122.546351891" visible="true"><tag k="addr:housenumber" v="2733"/><tag k="addr:postcode" v="97266"/><tag k="addr:city" v="Portland"/><tag k="addr:street" v="Southeast 115th Avenue"/></node>
<node id="-13" lat="45.499577244" lon="-122.546117211" visible="true"><tag k="addr:housenumber" v="3115"/><tag k="addr:postcode" v="97266"/><tag k="addr:city" v="Portland"/><tag k="addr:street" v="Southeast 115th Avenue"/></node>
<node id="-14" lat="45.497469196" lon="-122.543122358" visible="true"><tag k="addr:housenumber" v="3402"/><tag k="addr:postcode" v="97266"/><tag k="addr:city" v="Portland"/><tag k="addr:street" v="Southeast 116th Avenue"/></node>
<node id="-15" lat="45.497475208" lon="-122.543124266" visible="true"><tag k="addr:housenumber" v="3403"/><tag k="addr:postcode" v="97266"/><tag k="addr:city" v="Portland"/><tag k="addr:street" v="Southeast 116th Avenue"/></node>
<node id="-16" lat="45.497476508" lon="-122.543120632" visible="true"><tag k="addr:housenumber" v="3410"/><tag k="addr:postcode" v="97266"/><tag k="addr:city" v="Portland"/><tag k="addr:street" v="Southeast 116th Avenue"/></node>
<node id="-17" lat="45.502720627" lon="-122.542678365" visible="true"><tag k="addr:housenumber" v="2635"/><tag k="addr:postcode" v="97266"/><tag k="addr:city" v="Portland"/><tag k="addr:street" v="Southeast 118th Avenue"/></node>
<node id="-18" lat="45.502397785" lon="-122.542448037" visible="true"><tag k="addr:housenumber" v="2657"/><tag k="addr:postcode" v="97266"/><tag k="addr:city" v="Portland"/><tag k="addr:street" v="Southeast 118th Avenue"/></node>
<node id="-19" lat="45.502390209" lon="-122.542446277" visible="true"><tag k="addr:housenumber" v="2705"/><tag k="addr:postcode" v="97266"/><tag k="addr:city" v="Portland"/><tag k="addr:street" v="Southeast 118th Avenue"/></node>
<node id="-20" lat="45.500820161" lon="-122.541614377" visible="true"><tag k="addr:housenumber" v="2904"/><tag k="addr:postcode" v="97266"/><tag k="addr:city" v="Portland"/><tag k="addr:street" v="Southeast 118th Avenue"/></node>
<node id="-21" lat="45.500772423" lon="-122.542729949" visible="true"><tag k="addr:housenumber" v="2905"/><tag k="addr:postcode" v="97266"/><tag k="addr:city" v="Portland"/><tag k="addr:street" v="Southeast 118th Avenue"/></node>
<node id="-22" lat="45.500815336" lon="-122.541613392" visible="true"><tag k="addr:housenumber" v="2908"/><tag k="addr:postcode" v="97266"/><tag k="addr:city" v="Portland"/><tag k="addr:street" v="Southeast 118th Avenue"/></node>
<node id="-23" lat="45.500769277" lon="-122.542731795" visible="true"><tag k="addr:housenumber" v="2909"/><tag k="addr:postcode" v="97266"/><tag k="addr:city" v="Portland"/><tag k="addr:street" v="Southeast 118th Avenue"/></node>
<node id="-24" lat="45.500849436" lon="-122.541920907" visible="true"><tag k="addr:housenumber" v="2912"/><tag k="addr:postcode" v="97266"/><tag k="addr:city" v="Portland"/><tag k="addr:street" v="Southeast 118th Avenue"/></node>
<node id="-25" lat="45.500692978" lon="-122.541920544" visible="true"><tag k="addr:housenumber" v="2918"/><tag k="addr:postcode" v="97266"/><tag k="addr:city" v="Portland"/><tag k="addr:street" v="Southeast 118th Avenue"/></node>
<node id="-26" lat="45.499096823" lon="-122.54193042" visible="true"><tag k="addr:housenumber" v="3226"/><tag k="addr:postcode" v="97266"/><tag k="addr:city" v="Portland"/><tag k="addr:street" v="Southeast 118th Avenue"/></node>
<node id="-27" lat="45.50287518" lon="-122.541300755" visible="true"><tag k="addr:housenumber" v="2631"/><tag k="addr:postcode" v="97266"/><tag k="addr:city" v="Portland"/><tag k="addr:street" v="Southeast 119th Avenue"/></node>
<node id="-28" lat="45.502880208" lon="-122.541301681" visible="true"><tag k="addr:housenumber" v="2633"/><tag k="addr:postcode" v="97266"/><tag k="addr:city" v="Portland"/><tag k="addr:street" v="Southeast 119th Avenue"/></node>
<node id="-29" lat="45.502876812" lon="-122.541302631" visible="true"><tag k="addr:housenumber" v="2637"/><tag k="addr:postcode" v="97266"/><tag k="addr:city" v="Portland"/><tag k="addr:street" v="Southeast 119th Avenue"/></node>
<node id="-30" lat="45.502875269" lon="-122.54130091" visible="true"><tag k="addr:housenumber" v="2639"/><tag k="addr:postcode" v="97266"/><tag k="addr:city" v="Portland"/><tag k="addr:street" v="Southeast 119th Avenue"/></node>
<node id="-31" lat="45.501389907" lon="-122.540518817" visible="true"><tag k="addr:housenumber" v="2826"/><tag k="addr:postcode" v="97266"/><tag k="addr:city" v="Portland"/><tag k="addr:street" v="Southeast 119th Avenue"/></node>
<node id="-32" lat="45.5013877" lon="-122.540515715" visible="true"><tag k="addr:housenumber" v="2828"/><tag k="addr:postcode" v="97266"/><tag k="addr:city" v="Portland"/><tag k="addr:street" v="Southeast 119th Avenue"/></node>
<node id="-33" lat="45.500891342" lon="-122.540333777" visible="true"><tag k="addr:housenumber" v="2918"/><tag k="addr:postcode" v="97266"/><tag k="addr:city" v="Portland"/><tag k="addr:street" v="Southeast 119th Avenue"/></node>
<node id="-34" lat="45.500895011" lon="-122.54033418" visible="true"><tag k="addr:housenumber" v="2922"/><tag k="addr:postcode" v="97266"/><tag k="addr:city" v="Portland"/><tag k="addr:street" v="Southeast 119th Avenue"/></node>
<node id="-35" lat="45.497788836" lon="-122.541145853" visible="true"><tag k="addr:housenumber" v="3329"/><tag k="addr:postcode" v="97266"/><tag k="addr:city" v="Portland"/><tag k="addr:street" v="Southeast 119th Avenue"/></node>
<node id="-36" lat="45.497784667" lon="-122.54115108" visible="true"><tag k="addr:housenumber" v="3337"/><tag k="addr:postcode" v="97266"/><tag k="addr:city" v="Portland"/><tag k="addr:street" v="Southeast 119th Avenue"/></node>
<node id="-37" lat="45.498619127" lon="-122.539671563" visible="true"><tag k="addr:housenumber" v="3233"/><tag k="addr:postcode" v="97266"/><tag k="addr:city" v="Portland"/><tag k="addr:street" v="Southeast 120th Avenue"/></node>
<node id="-38" lat="45.498614794" lon="-122.539674067" visible="true"><tag k="addr:housenumber" v="3235"/><tag k="addr:postcode" v="97266"/><tag k="addr:city" v="Portland"/><tag k="addr:street" v="Southeast 120th Avenue"/></node>
<node id="-39" lat="45.503631405" lon="-122.540520729" visible="true"><tag k="addr:housenumber" v="2601"/><tag k="addr:postcode" v="97236"/><tag k="addr:city" v="Portland"/><tag k="addr:street" v="Southeast 122nd Avenue"/></node>
<node id="-40" lat="45.503633257" lon="-122.540520531" visible="true"><tag k="addr:housenumber" v="2609"/><tag k="addr:postcode" v="97236"/><tag k="addr:city" v="Portland"/><tag k="addr:street" v="Southeast 122nd Avenue"/></node>
<node id="-41" lat="45.501700957" lon="-122.5380667" visible="true"><tag k="addr:housenumber" v="2801"/><tag k="addr:postcode" v="97236"/><tag k="addr:city" v="Portland"/><tag k="addr:street" v="Southeast 122nd Avenue"/></node>
<node id="-42" lat="45.501702166" lon="-122.538075718" visible="true"><tag k="addr:housenumber" v="2803"/><tag k="addr:postcode" v="97236"/><tag k="addr:city" v="Portland"/><tag k="addr:street" v="Southeast 122nd Avenue"/></node>
<node id="-43" lat="45.501701077" lon="-122.538075162" visible="true"><tag k="addr:housenumber" v="2807"/><tag k="addr:postcode" v="97236"/><tag k="addr:city" v="Portland"/><tag k="addr:street" v="Southeast 122nd Avenue"/></node>
<node id="-44" lat="45.501703348" lon="-122.538071858" visible="true"><tag k="addr:housenumber" v="2809"/><tag k="addr:postcode" v="97236"/><tag k="addr:city" v="Portland"/><tag k="addr:street" v="Southeast 122nd Avenue"/></node>
<node id="-45" lat="45.501704594" lon="-122.538072761" visible="true"><tag k="addr:housenumber" v="2811"/><tag k="addr:postcode" v="97236"/><tag k="addr:city" v="Portland"/><tag k="addr:street" v="Southeast 122nd Avenue"/></node>
<node id="-46" lat="45.501698322" lon="-122.538076411" visible="true"><tag k="addr:housenumber" v="2813"/><tag k="addr:postcode" v="97236"/><tag k="addr:city" v="Portland"/><tag k="addr:street" v="Southeast 122nd Avenue"/></node>
<node id="-47" lat="45.502238377" lon="-122.546353493" visible="true"><tag k="addr:housenumber" v="11405"/><tag k="addr:postcode" v="97266"/><tag k="addr:city" v="Portland"/><tag k="addr:street" v="Southeast Clinton Court"/></node>
<node id="-48" lat="45.503569283" lon="-122.546571395" visible="true"><tag k="addr:housenumber" v="11312"/><tag k="addr:postcode" v="97266"/><tag k="addr:city" v="Portland"/><tag k="addr:street" v="Southeast Division Street"/></node>
<node id="-49" lat="45.503566393" lon="-122.546566789" visible="true"><tag k="addr:housenumber" v="11320"/><tag k="addr:postcode" v="97266"/><tag k="addr:city" v="Portland"/><tag k="addr:street" v="Southeast Division Street"/></node>
<node id="-50" lat="45.503932864" lon="-122.542553594" visible="true"><tag k="addr:housenumber" v="11716"/><tag k="addr:postcode" v="97266"/><tag k="addr:city" v="Portland"/><tag k="addr:street" v="Southeast Division Street"/></node>
<node id="-51" lat="45.503927537" lon="-122.542547313" visible="true"><tag k="addr:housenumber" v="11724"/><tag k="addr:postcode" v="97266"/><tag k="addr:city" v="Portland"/><tag k="addr:street" v="Southeast Division Street"/></node>
<node id="-52" lat="45.503632897" lon="-122.540517258" visible="true"><tag k="addr:housenumber" v="11904"/><tag k="addr:postcode" v="97266"/><tag k="addr:city" v="Portland"/><tag k="addr:street" v="Southeast Division Street"/></node>
<node id="-53" lat="45.503630759" lon="-122.540519662" visible="true"><tag k="addr:housenumber" v="11906"/><tag k="addr:postcode" v="97266"/><tag k="addr:city" v="Portland"/><tag k="addr:street" v="Southeast Division Street"/></node>
<node id="-54" lat="45.503632483" lon="-122.540519564" visible="true"><tag k="addr:housenumber" v="11908"/><tag k="addr:postcode" v="97266"/><tag k="addr:city" v="Portland"/><tag k="addr:street" v="Southeast Division Street"/></node>
<node id="-55" lat="45.503632453" lon="-122.540518028" visible="true"><tag k="addr:housenumber" v="11910"/><tag k="addr:postcode" v="97266"/><tag k="addr:city" v="Portland"/><tag k="addr:street" v="Southeast Division Street"/></node>
<node id="-56" lat="45.503627278" lon="-122.540519557" visible="true"><tag k="addr:housenumber" v="11914"/><tag k="addr:postcode" v="97266"/><tag k="addr:city" v="Portland"/><tag k="addr:street" v="Southeast Division Street"/></node>
<node id="-57" lat="45.503626922" lon="-122.540515454" visible="true"><tag k="addr:housenumber" v="11918"/><tag k="addr:postcode" v="97266"/><tag k="addr:city" v="Portland"/><tag k="addr:street" v="Southeast Division Street"/></node>
<node id="-58" lat="45.503626459" lon="-122.540516206" visible="true"><tag k="addr:housenumber" v="11920"/><tag k="addr:postcode" v="97266"/><tag k="addr:city" v="Portland"/><tag k="addr:street" v="Southeast Division Street"/></node>
<node id="-59" lat="45.503635252" lon="-122.540521012" visible="true"><tag k="addr:housenumber" v="11924"/><tag k="addr:postcode" v="97266"/><tag k="addr:city" v="Portland"/><tag k="addr:street" v="Southeast Division Street"/></node>
<node id="-60" lat="45.503630007" lon="-122.540517085" visible="true"><tag k="addr:housenumber" v="11926"/><tag k="addr:postcode" v="97266"/><tag k="addr:city" v="Portland"/><tag k="addr:street" v="Southeast Division Street"/></node>
<node id="-61" lat="45.503632518" lon="-122.540519343" visible="true"><tag k="addr:housenumber" v="11928"/><tag k="addr:postcode" v="97266"/><tag k="addr:city" v="Portland"/><tag k="addr:street" v="Southeast Division Street"/></node>
<node id="-62" lat="45.503634741" lon="-122.540518145" visible="true"><tag k="addr:housenumber" v="11981"/><tag k="addr:postcode" v="97266"/><tag k="addr:city" v="Portland"/><tag k="addr:street" v="Southeast Division Street"/></node>
<node id="-63" lat="45.502754721" lon="-122.539533976" visible="true"><tag k="addr:housenumber" v="12010"/><tag k="addr:postcode" v="97266"/><tag k="addr:city" v="Portland"/><tag k="addr:street" v="Southeast Division Street"/></node>
<node id="-64" lat="45.503634994" lon="-122.54052204" visible="true"><tag k="addr:housenumber" v="12014"/><tag k="addr:postcode" v="97266"/><tag k="addr:city" v="Portland"/><tag k="addr:street" v="Southeast Division Street"/></node>
<node id="-65" lat="45.502754279" lon="-122.539532516" visible="true"><tag k="addr:housenumber" v="12020"/><tag k="addr:postcode" v="97266"/><tag k="addr:city" v="Portland"/><tag k="addr:street" v="Southeast Division Street"/></node>
<node id="-66" lat="45.503635478" lon="-122.540522309" visible="true"><tag k="addr:housenumber" v="12112"/><tag k="addr:postcode" v="97266"/><tag k="addr:city" v="Portland"/><tag k="addr:street" v="Southeast Division Street"/></node>
<node id="-67" lat="45.503633783" lon="-122.540516167" visible="true"><tag k="addr:housenumber" v="12120"/><tag k="addr:postcode" v="97266"/><tag k="addr:city" v="Portland"/><tag k="addr:street" v="Southeast Division Street"/></node>
<node id="-68" lat="45.498860871" lon="-122.539982812" visible="true"><tag k="addr:housenumber" v="11950"/><tag k="addr:postcode" v="97266"/><tag k="addr:city" v="Portland"/><tag k="addr:street" v="Southeast Kelly Street"/></node>
<node id="-69" lat="45.49886888" lon="-122.539980135" visible="true"><tag k="addr:housenumber" v="11952"/><tag k="addr:postcode" v="97266"/><tag k="addr:city" v="Portland"/><tag k="addr:street" v="Southeast Kelly Street"/></node>
<node id="-70" lat="45.497141881" lon="-122.54652506" visible="true"><tag k="addr:housenumber" v="11321"/><tag k="addr:postcode" v="97266"/><tag k="addr:city" v="Portland"/><tag k="addr:street" v="Southeast Powell Boulevard"/></node>
<node id="-71" lat="45.497141777" lon="-122.546526397" visible="true"><tag k="addr:housenumber" v="11325"/><tag k="addr:postcode" v="97266"/><tag k="addr:city" v="Portland"/><tag k="addr:street" v="Southeast Powell Boulevard"/></node>
<node id="-72" lat="45.497144621" lon="-122.546526387" visible="true"><tag k="addr:housenumber" v="11329"/><tag k="addr:postcode" v="97266"/><tag k="addr:city" v="Portland"/><tag k="addr:street" v="Southeast Powell Boulevard"/></node>
<node id="-73" lat="45.497146822" lon="-122.546520039" visible="true"><tag k="addr:housenumber" v="11333"/><tag k="addr:postcode" v="97266"/><tag k="addr:city" v="Portland"/><tag k="addr:street" v="Southeast Powell Boulevard"/></node>
<node id="-74" lat="45.49709098" lon="-122.54424043" visible="true"><tag k="addr:housenumber" v="11549"/><tag k="addr:postcode" v="97266"/><tag k="addr:city" v="Portland"/><tag k="addr:street" v="Southeast Powell Boulevard"/></node>
<node id="-75" lat="45.497095072" lon="-122.544234613" visible="true"><tag k="addr:housenumber" v="11551"/><tag k="addr:postcode" v="97266"/><tag k="addr:city" v="Portland"/><tag k="addr:street" v="Southeast Powell Boulevard"/></node>
<node id="-76" lat="45.497092723" lon="-122.544240359" visible="true"><tag k="addr:housenumber" v="11553"/><tag k="addr:postcode" v="97266"/><tag k="addr:city" v="Portland"/><tag k="addr:street" v="Southeast Powell Boulevard"/></node>
<node id="-77" lat="45.49709272" lon="-122.544235025" visible="true"><tag k="addr:housenumber" v="11555"/><tag k="addr:postcode" v="97266"/><tag k="addr:city" v="Portland"/><tag k="addr:street" v="Southeast Powell Boulevard"/></node>
<node id="-78" lat="45.497091177" lon="-122.544240262" visible="true"><tag k="addr:housenumber" v="11557"/><tag k="addr:postcode" v="97266"/><tag k="addr:city" v="Portland"/><tag k="addr:street" v="Southeast Powell Boulevard"/></node>
<node id="-79" lat="45.497091307" lon="-122.544232781" visible="true"><tag k="addr:housenumber" v="11559"/><tag k="addr:postcode" v="97266"/><tag k="addr:city" v="Portland"/><tag k="addr:street" v="Southeast Powell Boulevard"/></node>
<node id="-80" lat="45.497088214" lon="-122.544233072" visible="true"><tag k="addr:housenumber" v="11561"/><tag k="addr:postcode" v="97266"/><tag k="addr:city" v="Portland"/><tag k="addr:street" v="Southeast Powell Boulevard"/></node>
<node id="-81" lat="45.49709206" lon="-122.54423167" visible="true"><tag k="addr:housenumber" v="11563"/><tag k="addr:postcode" v="97266"/><tag k="addr:city" v="Portland"/><tag k="addr:street" v="Southeast Powell Boulevard"/></node>
<node id="-82" lat="45.497089385" lon="-122.544236307" visible="true"><tag k="addr:housenumber" v="11565"/><tag k="addr:postcode" v="97266"/><tag k="addr:city" v="Portland"/><tag k="addr:street" v="Southeast Powell Boulevard"/></node>
<node id="-83" lat="45.497266627" lon="-122.540340781" visible="true"><tag k="addr:housenumber" v="11915"/><tag k="addr:postcode" v="97266"/><tag k="addr:city" v="Portland"/><tag k="addr:street" v="Southeast Powell Boulevard"/></node>
<node id="-84" lat="45.497270214" lon="-122.540338425" visible="true"><tag k="addr:housenumber" v="11919"/><tag k="addr:postcode" v="97266"/><tag k="addr:city" v="Portland"/><tag k="addr:street" v="Southeast Powell Boulevard"/></node>
<node id="-85" lat="45.497583588" lon="-122.540040871" visible="true"><tag k="addr:housenumber" v="11945"/><tag k="addr:postcode" v="97266"/><tag k="addr:city" v="Portland"/><tag k="addr:street" v="Southeast Powell Boulevard"/></node>
<node id="-86" lat="45.497583985" lon="-122.540039795" visible="true"><tag k="addr:housenumber" v="11947"/><tag k="addr:postcode" v="97266"/><tag k="addr:city" v="Portland"/><tag k="addr:street" v="Southeast Powell Boulevard"/></node>
<node id="-87" lat="45.497326846" lon="-122.53835507" visible="true"><tag k="addr:housenumber" v="12111"/><tag k="addr:postcode" v="97266"/><tag k="addr:city" v="Portland"/><tag k="addr:street" v="Southeast Powell Boulevard"/></node>
<node id="-88" lat="45.49732416" lon="-122.538359448" visible="true"><tag k="addr:housenumber" v="12115"/><tag k="addr:postcode" v="97266"/><tag k="addr:city" v="Portland"/><tag k="addr:street" v="Southeast Powell Boulevard"/></node>
<node id="-89" lat="45.497321089" lon="-122.538363395" visible="true"><tag k="addr:housenumber" v="12121"/><tag k="addr:postcode" v="97266"/><tag k="addr:city" v="Portland"/><tag k="addr:street" v="Southeast Powell Boulevard"/></node>
<node id="-90" lat="45.499595333" lon="-122.546061933" visible="true"><tag k="addr:housenumber" v="11467"/><tag k="addr:postcode" v="97266"/><tag k="addr:city" v="Portland"/><tag k="addr:street" v="Southeast Tibbetts Street"/></node>
<node id="-91" lat="45.500669965" lon="-122.53933735" visible="true"><tag k="addr:housenumber" v="12010"/><tag k="addr:postcode" v="97266"/><tag k="addr:city" v="Portland"/><tag k="addr:street" v="Southeast Woodward Place"/></node>
<node id="-92" lat="45.500667099" lon="-122.53934164" visible="true"><tag k="addr:housenumber" v="12012"/><tag k="addr:postcode" v="97266"/><tag k="addr:city" v="Portland"/><tag k="addr:street" v="Southeast Woodward Place"/></node>
<node id="-93" lat="45.500658205" lon="-122.538616126" visible="true"><tag k="addr:housenumber" v="12100"/><tag k="addr:postcode" v="97266"/><tag k="addr:city" v="Portland"/><tag k="addr:street" v="Southeast Woodward Place"/></node>
<node id="-94" lat="45.500657682" lon="-122.538613926" visible="true"><tag k="addr:housenumber" v="12102"/><tag k="addr:postcode" v="97266"/><tag k="addr:city" v="Portland"/><tag k="addr:street" v="Southeast Woodward Place"/></node>
</osm>