<?xml version="1.0"?>
<osm version="0.6" upload="false" generator="uvmogr2osm">
<node id="-1" lat="45.49545213" lon="-122.620120371" visible="true"><tag k="addr:housenumber" v="3827"/><tag k="addr:postcode" v="97202"/><tag k="addr:city" v="Portland"/><tag k="addr:street" v="Southeast 41st Avenue"/></node>
<node id="-2" lat="45.495452685" lon="-122.620118182" visible="true"><tag k="addr:housenumber" v="3829"/><tag k="addr:postcode" v="97202"/><tag k="addr:city" v="Portland"/><tag k="addr:street" v="Southeast 41st Avenue"/></node>
<node id="-3" lat="45.497000951" lon="-122.619424338" visible="true"><tag k="addr:housenumber" v="3515"/><tag k="addr:postcode" v="97206"/><tag k="addr:city" v="Portland"/><tag k="addr:street" v="Southeast 42nd Avenue"/></node>
<node id="-4" lat="45.497003299" lon="-122.619422837" visible="true"><tag k="addr:housenumber" v="3559"/><tag k="addr:postcode" v="97206"/><tag k="addr:city" v="Portland"/><tag k="addr:street" v="Southeast 42nd Avenue"/></node>
<node id="-5" lat="45.495408028" lon="-122.619189842" visible="true"><tag k="addr:housenumber" v="3817"/><tag k="addr:postcode" v="97206"/><tag k="addr:city" v="Portland"/><tag k="addr:street" v="Southeast 42nd Avenue"/></node>
<node id="-6" lat="45.495403954" lon="-122.619193621" visible="true"><tag k="addr:housenumber" v="3819"/><tag k="addr:postcode" v="97206"/><tag k="addr:city" v="Portland"/><tag k="addr:street" v="Southeast 42nd Avenue"/></node>
<node id="-7" lat="45.495409897" lon="-122.619196601" visible="true"><tag k="addr:housenumber" v="3821"/><tag k="addr:postcode" v="97206"/><tag k="addr:city" v="Portland"/><tag k="addr:street" v="Southeast 42nd Avenue"/></node>
<node id="-8" lat="45.492941684" lon="-122.619430058" visible="true"><tag k="addr:housenumber" v="4111"/><tag k="addr:postcode" v="97206"/><tag k="addr:city" v="Portland"/><tag k="addr:street" v="Southeast 42nd Avenue"/></node>
<node id="-9" lat="45.492945583" lon="-122.61942421" visible="true"><tag k="addr:housenumber" v="4125"/><tag k="addr:postcode" v="97206"/><tag k="addr:city" v="Portland"/><tag k="addr:street" v="Southeast 42nd Avenue"/></node>
<node id="-10" lat="45.49304202" lon="-122.618658791" visible="true"><tag k="addr:housenumber" v="4128"/><tag k="addr:postcode" v="97206"/><tag k="addr:city" v="Portland"/><tag k="addr:street" v="Southeast 42nd Avenue"/></node>
<node id="-11" lat="45.493035232" lon="-122.618655757" visible="true"><tag k="addr:housenumber" v="4129"/><tag k="addr:postcode" v="97206"/><tag k="addr:city" v="Portland"/><tag k="addr:street" v="Southeast 42nd Avenue"/></node>
<node id="-12" lat="45.493034017" lon="-122.618653726" visible="true"><tag k="addr:housenumber" v="4130"/><tag k="addr:postcode" v="97206"/><tag k="addr:city" v="Portland"/><tag k="addr:street" v="Southeast 42nd Avenue"/></node>
<node id="-13" lat="45.492902904" lon="-122.618657267" visible="true"><tag k="addr:housenumber" v="4136"/><tag k="addr:postcode" v="97206"/><tag k="addr:city" v="Portland"/><tag k="addr:street" v="Southeast 42nd Avenue"/></node>
<node id="-14" lat="45.492905174" lon="-122.618652761" visible="true"><tag k="addr:housenumber" v="4137"/><tag k="addr:postcode" v="97206"/><tag k="addr:city" v="Portland"/><tag k="addr:street" v="Southeast 42nd Avenue"/></node>
<node id="-15" lat="45.492902668" lon="-122.618654398" visible="true"><tag k="addr:housenumber" v="4138"/><tag k="addr:postcode" v="97206"/><tag k="addr:city" v="Portland"/><tag k="addr:street" v="Southeast 42nd Avenue"/></node>
<node id="-16" lat="45.492904667" lon="-122.618660999" visible="true"><tag k="addr:housenumber" v="4139"/><tag k="addr:postcode" v="97206"/><tag k="addr:city" v="Portland"/><tag k="addr:street" v="Southeast 42nd Avenue"/></node>
<node id="-17" lat="45.492902646" lon="-122.618661177" visible="true"><tag k="addr:housenumber" v="4141"/><tag k="addr:postcode" v="97206"/><tag k="addr:city" v="Portland"/><tag k="addr:street" v="Southeast 42nd Avenue"/></node>
<node id="-18" lat="45.492897428" lon="-122.618656989" visible="true"><tag k="addr:housenumber" v="4142"/><tag k="addr:postcode" v="97206"/><tag k="addr:city" v="Portland"/><tag k="addr:street" v="Southeast 42nd Avenue"/></node>
<node id="-19" lat="45.492936765" lon="-122.619429642" visible="true"><tag k="addr:housenumber" v="4145"/><tag k="addr:postcode" v="97206"/><tag k="addr:city" v="Portland"/><tag k="addr:street" v="Southeast 42nd Avenue"/></node>
<node id="-20" lat="45.490586696" lon="-122.618667254" visible="true"><tag k="addr:housenumber" v="4420"/><tag k="addr:postcode" v="97206"/><tag k="addr:city" v="Portland"/><tag k="addr:street" v="Southeast 42nd Avenue"/></node>
<node id="-21" lat="45.490579402" lon="-122.618662563" visible="true"><tag k="addr:housenumber" v="4422"/><tag k="addr:postcode" v="97206"/><tag k="addr:city" v="Portland"/><tag k="addr:street" v="Southeast 42nd Avenue"/></node>
<node id="-22" lat="45.490587259" lon="-122.618667841" visible="true"><tag k="addr:housenumber" v="4424"/><tag k="addr:postcode" v="97206"/><tag k="addr:city" v="Portland"/><tag k="addr:street" v="Southeast 42nd Avenue"/></node>
<node id="-23" lat="45.490579474" lon="-122.618662091" visible="true"><tag k="addr:housenumber" v="4426"/><tag k="addr:postcode" v="97206"/><tag k="addr:city" v="Portland"/><tag k="addr:street" v="Southeast 42nd Avenue"/></node>
<node id="-24" lat="45.490443097" lon="-122.618670706" visible="true"><tag k="addr:housenumber" v="4428"/><tag k="addr:postcode" v="97206"/><tag k="addr:city" v="Portland"/><tag k="addr:street" v="Southeast 42nd Avenue"/></node>
<node id="-25" lat="45.490449306" lon="-122.618662342" visible="true"><tag k="addr:housenumber" v="4430"/><tag k="addr:postcode" v="97206"/><tag k="addr:city" v="Portland"/><tag k="addr:street" v="Southeast 42nd Avenue"/></node>
<node id="-26" lat="45.490442095" lon="-122.618663317" visible="true"><tag k="addr:housenumber" v="4432"/><tag k="addr:postcode" v="97206"/><tag k="addr:city" v="Portland"/><tag k="addr:street" v="Southeast 42nd Avenue"/></node>
<node id="-27" lat="45.490446943" lon="-122.618672104" visible="true"><tag k="addr:housenumber" v="4434"/><tag k="addr:postcode" v="97206"/><tag k="addr:city" v="Portland"/><tag k="addr:street" v="Southeast 42nd Avenue"/></node>
<node id="-28" lat="45.490445762" lon="-122.618669162" visible="true"><tag k="addr:housenumber" v="4436"/><tag k="addr:postcode" v="97206"/><tag k="addr:city" v="Portland"/><tag k="addr:street" v="Southeast 42nd Avenue"/></node>
<node id="-29" lat="45.497306022" lon="-122.618221074" visible="true"><tag k="addr:housenumber" v="3509"/><tag k="addr:postcode" v="97206"/><tag k="addr:city" v="Portland"/><tag k="addr:street" v="Southeast 43rd Avenue"/></node>
<node id="-30" lat="45.497309814" lon="-122.618224217" visible="true"><tag k="addr:housenumber" v="3511"/><tag k="addr:postcode" v="97206"/><tag k="addr:city" v="Portland"/><tag k="addr:street" v="Southeast 43rd Avenue"/></node>
<node id="-31" lat="45.497307171" lon="-122.618219814" visible="true"><tag k="addr:housenumber" v="3513"/><tag k="addr:postcode" v="97206"/><tag k="addr:city" v="Portland"/><tag k="addr:street" v="Southeast 43rd Avenue"/></node>
<node id="-32" lat="45.497307327" lon="-122.618216837" visible="true"><tag k="addr:housenumber" v="3515"/><tag k="addr:postcode" v="97206"/><tag k="addr:city" v="Portland"/><tag k="addr:street" v="Southeast 43rd Avenue"/></node>
<node id="-33" lat="45.496247214" lon="-122.61827292" visible="true"><tag k="addr:housenumber" v="3703"/><tag k="addr:postcode" v="97206"/><tag k="addr:city" v="Portland"/><tag k="addr:street" v="Southeast 43rd Avenue"/></node>
<node id="-34" lat="45.496006038" lon="-122.611610348" visible="true"><tag k="addr:housenumber" v="3717"/><tag k="addr:postcode" v="97206"/><tag k="addr:city" v="Portland"/><tag k="addr:street" v="Southeast 50th Avenue"/></node>
<node id="-35" lat="45.496003116" lon="-122.611609286" visible="true"><tag k="addr:housenumber" v="3721"/><tag k="addr:postcode" v="97206"/><tag k="addr:city" v="Portland"/><tag k="addr:street" v="Southeast 50th Avenue"/></node>
<node id="-36" lat="45.492164904" lon="-122.619925156" visible="true"><tag k="addr:housenumber" v="4054"/><tag k="addr:postcode" v="97202"/><tag k="addr:city" v="Portland"/><tag k="addr:street" v="Southeast Boise Street"/></node>
<node id="-37" lat="45.492158427" lon="-122.619924827" visible="true"><tag k="addr:housenumber" v="4056"/><tag k="addr:postcode" v="97202"/><tag k="addr:city" v="Portland"/><tag k="addr:street" v="Southeast Boise Street"/></node>
<node id="-38" lat="45.492163957" lon="-122.619723255" visible="true"><tag k="addr:housenumber" v="4102"/><tag k="addr:postcode" v="97202"/><tag k="addr:city" v="Portland"/><tag k="addr:street" v="Southeast Boise Street"/></node>
<node id="-39" lat="45.492708243" lon="-122.619775012" visible="true"><tag k="addr:housenumber" v="4103"/><tag k="addr:postcode" v="97202"/><tag k="addr:city" v="Portland"/><tag k="addr:street" v="Southeast Boise Street"/></node>
<node id="-40" lat="45.492164498" lon="-122.61972185" visible="true"><tag k="addr:housenumber" v="4104"/><tag k="addr:postcode" v="97202"/><tag k="addr:city" v="Portland"/><tag k="addr:street" v="Southeast Boise Street"/></node>
<node id="-41" lat="45.492710973" lon="-122.619776623" visible="true"><tag k="addr:housenumber" v="4109"/><tag k="addr:postcode" v="97202"/><tag k="addr:city" v="Portland"/><tag k="addr:street" v="Southeast Boise Street"/></node>
<node id="-42" lat="45.495623551" lon="-122.609837033" visible="true"><tag k="addr:housenumber" v="5121"/><tag k="addr:postcode" v="97206"/><tag k="addr:city" v="Portland"/><tag k="addr:street" v="Southeast Bush Street"/></node>
<node id="-43" lat="45.49563211" lon="-122.609844742" visible="true"><tag k="addr:housenumber" v="5123"/><tag k="addr:postcode" v="97206"/><tag k="addr:city" v="Portland"/><tag k="addr:street" v="Southeast Bush Street"/></node>
<node id="-44" lat="45.49562338" lon="-122.609838292" visible="true"><tag k="addr:housenumber" v="5125"/><tag k="addr:postcode" v="97206"/><tag k="addr:city" v="Portland"/><tag k="addr:street" v="Southeast Bush Street"/></node>
<node id="-45" lat="45.497270211" lon="-122.610414215" visible="true"><tag k="addr:housenumber" v="5038"/><tag k="addr:postcode" v="97206"/><tag k="addr:city" v="Portland"/><tag k="addr:street" v="Southeast Carlton Street"/></node>
<node id="-46" lat="45.494404155" lon="-122.618068968" visible="true"><tag k="addr:housenumber" v="4225"/><tag k="addr:postcode" v="97206"/><tag k="addr:city" v="Portland"/><tag k="addr:street" v="Southeast Center Street"/></node>
<node id="-47" lat="45.494404104" lon="-122.618069395" visible="true"><tag k="addr:housenumber" v="4227"/><tag k="addr:postcode" v="97206"/><tag k="addr:city" v="Portland"/><tag k="addr:street" v="Southeast Center Street"/></node>
<node id="-48" lat="45.491471566" lon="-122.620108925" visible="true"><tag k="addr:housenumber" v="4044"/><tag k="addr:postcode" v="97202"/><tag k="addr:city" v="Portland"/><tag k="addr:street" v="Southeast Cora Street"/></node>
<node id="-49" lat="45.491479991" lon="-122.62010913" visible="true"><tag k="addr:housenumber" v="4046"/><tag k="addr:postcode" v="97202"/><tag k="addr:city" v="Portland"/><tag k="addr:street" v="Southeast Cora Street"/></node>
<node id="-50" lat="45.495803453" lon="-122.609848465" visible="true"><tag k="addr:housenumber" v="5124"/><tag k="addr:postcode" v="97206"/><tag k="addr:city" v="Portland"/><tag k="addr:street" v="Southeast Foster Road"/></node>
<node id="-51" lat="45.495810366" lon="-122.609843888" visible="true"><tag k="addr:housenumber" v="5126"/><tag k="addr:postcode" v="97206"/><tag k="addr:city" v="Portland"/><tag k="addr:street" v="Southeast Foster Road"/></node>
<node id="-52" lat="45.495805641" lon="-122.609850623" visible="true"><tag k="addr:housenumber" v="5128"/><tag k="addr:postcode" v="97206"/><tag k="addr:city" v="Portland"/><tag k="addr:street" v="Southeast Foster Road"/></node>
<node id="-53" lat="45.495807724" lon="-122.609849025" visible="true"><tag k="addr:housenumber" v="5130"/><tag k="addr:postcode" v="97206"/><tag k="addr:city" v="Portland"/><tag k="addr:street" v="Southeast Foster Road"/></node>
<node id="-54" lat="45.49370549" lon="-122.620021536" visible="true"><tag k="addr:housenumber" v="4041"/><tag k="addr:postcode" v="97202"/><tag k="addr:city" v="Portland"/><tag k="addr:street" v="Southeast Gladstone Street"/></node>
<node id="-55" lat="45.493705514" lon="-122.620019555" visible="true"><tag k="addr:housenumber" v="4043"/><tag k="addr:postcode" v="97202"/><tag k="addr:city" v="Portland"/><tag k="addr:street" v="Southeast Gladstone Street"/></node>
<node id="-56" lat="45.493700495" lon="-122.62001475" visible="true"><tag k="addr:housenumber" v="4045"/><tag k="addr:postcode" v="97202"/><tag k="addr:city" v="Portland"/><tag k="addr:street" v="Southeast Gladstone Street"/></node>
<node id="-57" lat="45.493706664" lon="-122.620021583" visible="true"><tag k="addr:housenumber" v="4047"/><tag k="addr:postcode" v="97202"/><tag k="addr:city" v="Portland"/><tag k="addr:street" v="Southeast Gladstone Street"/></node>
<node id="-58" lat="45.49369904" lon="-122.620022201" visible="true"><tag k="addr:housenumber" v="4049"/><tag k="addr:postcode" v="97202"/><tag k="addr:city" v="Portland"/><tag k="addr:street" v="Southeast Gladstone Street"/></node>
<node id="-59" lat="45.49370524" lon="-122.62002104" visible="true"><tag k="addr:housenumber" v="4051"/><tag k="addr:postcode" v="97202"/><tag k="addr:city" v="Portland"/><tag k="addr:street" v="Southeast Gladstone Street"/></node>
<node id="-60" lat="45.493706654" lon="-122.620018864" visible="true"><tag k="addr:housenumber" v="4055"/><tag k="addr:postcode" v="97202"/><tag k="addr:city" v="Portland"/><tag k="addr:street" v="Southeast Gladstone Street"/></node>
<node id="-61" lat="45.493698586" lon="-122.620015305" visible="true"><tag k="addr:housenumber" v="4057"/><tag k="addr:postcode" v="97202"/><tag k="addr:city" v="Portland"/><tag k="addr:street" v="Southeast Gladstone Street"/></node>
<node id="-62" lat="45.493705535" lon="-122.619821571" visible="true"><tag k="addr:housenumber" v="4061"/><tag k="addr:postcode" v="97202"/><tag k="addr:city" v="Portland"/><tag k="addr:street" v="Southeast Gladstone Street"/></node>
<node id="-63" lat="45.49369768" lon="-122.619828971" visible="true"><tag k="addr:housenumber" v="4063"/><tag k="addr:postcode" v="97202"/><tag k="addr:city" v="Portland"/><tag k="addr:street" v="Southeast Gladstone Street"/></node>
<node id="-64" lat="45.493702119" lon="-122.619821625" visible="true"><tag k="addr:housenumber" v="4065"/><tag k="addr:postcode" v="97202"/><tag k="addr:city" v="Portland"/><tag k="addr:street" v="Southeast Gladstone Street"/></node>
<node id="-65" lat="45.493701881" lon="-122.61982448" visible="true"><tag k="addr:housenumber" v="4067"/><tag k="addr:postcode" v="97202"/><tag k="addr:city" v="Portland"/><tag k="addr:street" v="Southeast Gladstone Street"/></node>
<node id="-66" lat="45.493703917" lon="-122.619826861" visible="true"><tag k="addr:housenumber" v="4069"/><tag k="addr:postcode" v="97202"/><tag k="addr:city" v="Portland"/><tag k="addr:street" v="Southeast Gladstone Street"/></node>
<node id="-67" lat="45.493705784" lon="-122.61982261" visible="true"><tag k="addr:housenumber" v="4071"/><tag k="addr:postcode" v="97202"/><tag k="addr:city" v="Portland"/><tag k="addr:street" v="Southeast Gladstone Street"/></node>
<node id="-68" lat="45.493699153" lon="-122.619823956" visible="true"><tag k="addr:housenumber" v="4073"/><tag k="addr:postcode" v="97202"/><tag k="addr:city" v="Portland"/><tag k="addr:street" v="Southeast Gladstone Street"/></node>
<node id="-69" lat="45.493698284" lon="-122.619828317" visible="true"><tag k="addr:housenumber" v="4075"/><tag k="addr:postcode" v="97202"/><tag k="addr:city" v="Portland"/><tag k="addr:street" v="Southeast Gladstone Street"/></node>
<node id="-70" lat="45.493701444" lon="-122.619821692" visible="true"><tag k="addr:housenumber" v="4077"/><tag k="addr:postcode" v="97202"/><tag k="addr:city" v="Portland"/><tag k="addr:street" v="Southeast Gladstone Street"/></node>
<node id="-71" lat="45.490511536" lon="-122.619936442" visible="true"><tag k="addr:housenumber" v="4071"/><tag k="addr:postcode" v="97202"/><tag k="addr:city" v="Portland"/><tag k="addr:street" v="Southeast Holgate Boulevard"/></node>
<node id="-72" lat="45.490517629" lon="-122.619938949" visible="true"><tag k="addr:housenumber" v="4073"/><tag k="addr:postcode" v="97202"/><tag k="addr:city" v="Portland"/><tag k="addr:street" v="Southeast Holgate Boulevard"/></node>
<node id="-73" lat="45.490513534" lon="-122.619939333" visible="true"><tag k="addr:housenumber" v="4075"/><tag k="addr:postcode" v="97202"/><tag k="addr:city" v="Portland"/><tag k="addr:street" v="Southeast Holgate Boulevard"/></node>
<node id="-74" lat="45.490511209" lon="-122.6197601" visible="true"><tag k="addr:housenumber" v="4085"/><tag k="addr:postcode" v="97202"/><tag k="addr:city" v="Portland"/><tag k="addr:street" v="Southeast Holgate Boulevard"/></node>
<node id="-75" lat="45.490513873" lon="-122.619763581" visible="true"><tag k="addr:housenumber" v="4087"/><tag k="addr:postcode" v="97202"/><tag k="addr:city" v="Portland"/><tag k="addr:street" v="Southeast Holgate Boulevard"/></node>
<node id="-76" lat="45.490563879" lon="-122.619505523" visible="true"><tag k="addr:housenumber" v="4107"/><tag k="addr:postcode" v="97202"/><tag k="addr:city" v="Portland"/><tag k="addr:street" v="Southeast Holgate Boulevard"/></node>
<node id="-77" lat="45.490567022" lon="-122.619509665" visible="true"><tag k="addr:housenumber" v="4109"/><tag k="addr:postcode" v="97202"/><tag k="addr:city" v="Portland"/><tag k="addr:street" v="Southeast Holgate Boulevard"/></node>
<node id="-78" lat="45.49056724" lon="-122.619509792" visible="true"><tag k="addr:housenumber" v="4111"/><tag k="addr:postcode" v="97202"/><tag k="addr:city" v="Portland"/><tag k="addr:street" v="Southeast Holgate Boulevard"/></node>
<node id="-79" lat="45.490565753" lon="-122.61950555" visible="true"><tag k="addr:housenumber" v="4117"/><tag k="addr:postcode" v="97202"/><tag k="addr:city" v="Portland"/><tag k="addr:street" v="Southeast Holgate Boulevard"/></node>
<node id="-80" lat="45.490516498" lon="-122.618372239" visible="true"><tag k="addr:housenumber" v="4227"/><tag k="addr:postcode" v="97206"/><tag k="addr:city" v="Portland"/><tag k="addr:street" v="Southeast Holgate Boulevard"/></node>
<node id="-81" lat="45.490513122" lon="-122.618368571" visible="true"><tag k="addr:housenumber" v="4229"/><tag k="addr:postcode" v="97206"/><tag k="addr:city" v="Portland"/><tag k="addr:street" v="Southeast Holgate Boulevard"/></node>
<node id="-82" lat="45.495946191" lon="-122.612223804" visible="true"><tag k="addr:housenumber" v="4914"/><tag k="addr:postcode" v="97206"/><tag k="addr:city" v="Portland"/><tag k="addr:street" v="Southeast Ivon Street"/></node>
<node id="-83" lat="45.496008749" lon="-122.611604111" visible="true"><tag k="addr:housenumber" v="4942"/><tag k="addr:postcode" v="97206"/><tag k="addr:city" v="Portland"/><tag k="addr:street" v="Southeast Ivon Street"/></node>
<node id="-84" lat="45.497036569" lon="-122.610024944" visible="true"><tag k="addr:housenumber" v="5047"/><tag k="addr:postcode" v="97206"/><tag k="addr:city" v="Portland"/><tag k="addr:street" v="Southeast Lafayette Street"/></node>
<node id="-85" lat="45.497042236" lon="-122.610029615" visible="true"><tag k="addr:housenumber" v="5055"/><tag k="addr:postcode" v="97206"/><tag k="addr:city" v="Portland"/><tag k="addr:street" v="Southeast Lafayette Street"/></node>
<node id="-86" lat="45.496987063" lon="-122.609851157" visible="true"><tag k="addr:housenumber" v="5105"/><tag k="addr:postcode" v="97206"/><tag k="addr:city" v="Portland"/><tag k="addr:street" v="Southeast Lafayette Street"/></node>
<node id="-87" lat="45.496994949" lon="-122.609851411" visible="true"><tag k="addr:housenumber" v="5111"/><tag k="addr:postcode" v="97206"/><tag k="addr:city" v="Portland"/><tag k="addr:street" v="Southeast Lafayette Street"/></node>
<node id="-88" lat="45.491203846" lon="-122.620047305" visible="true"><tag k="addr:housenumber" v="4041"/><tag k="addr:postcode" v="97202"/><tag k="addr:city" v="Portland"/><tag k="addr:street" v="Southeast Mall Street"/></node>
<node id="-89" lat="45.491205141" lon="-122.620043623" visible="true"><tag k="addr:housenumber" v="4043"/><tag k="addr:postcode" v="97202"/><tag k="addr:city" v="Portland"/><tag k="addr:street" v="Southeast Mall Street"/></node>
<node id="-90" lat="45.491196822" lon="-122.620048537" visible="true"><tag k="addr:housenumber" v="4045"/><tag k="addr:postcode" v="97202"/><tag k="addr:city" v="Portland"/><tag k="addr:street" v="Southeast Mall Street"/></node>
<node id="-91" lat="45.49119736" lon="-122.620049498" visible="true"><tag k="addr:housenumber" v="4047"/><tag k="addr:postcode" v="97202"/><tag k="addr:city" v="Portland"/><tag k="addr:street" v="Southeast Mall Street"/></node>
<node id="-92" lat="45.490785649" lon="-122.619450286" visible="true"><tag k="addr:housenumber" v="4110"/><tag k="addr:postcode" v="97202"/><tag k="addr:city" v="Portland"/><tag k="addr:street" v="Southeast Mall Street"/></node>
<node id="-93" lat="45.490787664" lon="-122.619452762" visible="true"><tag k="addr:housenumber" v="4112"/><tag k="addr:postcode" v="97202"/><tag k="addr:city" v="Portland"/><tag k="addr:street" v="Southeast Mall Street"/></node>
<node id="-94" lat="45.497267176" lon="-122.610419924" visible="true"><tag k="addr:housenumber" v="5038"/><tag k="addr:postcode" v="97206"/><tag k="addr:city" v="Portland"/><tag k="addr:street" v="Southeast Powell Boulevard"/></node>
<node id="-95" lat="45.496247263" lon="-122.618277779" visible="true"><tag k="addr:housenumber" v="4220"/><tag k="addr:postcode" v="97206"/><tag k="addr:city" v="Portland"/><tag k="addr:street" v="Southeast Rhone Street"/></node>
<node id="-96" lat="45.49595181" lon="-122.612220173" visible="true"><tag k="addr:housenumber" v="4914"/><tag k="addr:postcode" v="97206"/><tag k="addr:city" v="Portland"/><tag k="addr:street" v="Southeast Rhone Street"/></node>
<node id="-97" lat="45.496009696" lon="-122.611609991" visible="true"><tag k="addr:housenumber" v="4942"/><tag k="addr:postcode" v="97206"/><tag k="addr:city" v="Portland"/><tag k="addr:street" v="Southeast Rhone Street"/></node>
</osm>