<?xml version="1.0"?>
<osm version="0.6" upload="false" generator="uvmogr2osm">
<node id="-1" lat="45.445407575" lon="-122.580205292" visible="true"><tag k="addr:housenumber" v="10723"/><tag k="addr:postcode" v="97222"/><tag k="addr:city" v="Milwaukie"/><tag k="addr:street" v="Southeast Fuller Road"/></node>
<node id="-2" lat="45.445369124" lon="-122.580226774" visible="true"><tag k="addr:housenumber" v="10725"/><tag k="addr:postcode" v="97222"/><tag k="addr:city" v="Milwaukie"/><tag k="addr:street" v="Southeast Fuller Road"/></node>
<node id="-3" lat="45.445325895" lon="-122.580251037" visible="true"><tag k="addr:housenumber" v="10727"/><tag k="addr:postcode" v="97222"/><tag k="addr:city" v="Milwaukie"/><tag k="addr:street" v="Southeast Fuller Road"/></node>
<node id="-4" lat="45.445276847" lon="-122.580281091" visible="true"><tag k="addr:housenumber" v="10729"/><tag k="addr:postcode" v="97222"/><tag k="addr:city" v="Milwaukie"/><tag k="addr:street" v="Southeast Fuller Road"/></node>
<node id="-5" lat="45.445194263" lon="-122.580319439" visible="true"><tag k="addr:housenumber" v="10735"/><tag k="addr:postcode" v="97222"/><tag k="addr:city" v="Milwaukie"/><tag k="addr:street" v="Southeast Fuller Road"/></node>
<node id="-6" lat="45.445151915" lon="-122.580338307" visible="true"><tag k="addr:housenumber" v="10737"/><tag k="addr:postcode" v="97222"/><tag k="addr:city" v="Milwaukie"/><tag k="addr:street" v="Southeast Fuller Road"/></node>
<node id="-7" lat="45.445104709" lon="-122.580364159" visible="true"><tag k="addr:housenumber" v="10739"/><tag k="addr:postcode" v="97222"/><tag k="addr:city" v="Milwaukie"/><tag k="addr:street" v="Southeast Fuller Road"/></node>
<node id="-8" lat="45.445063129" lon="-122.580384438" visible="true"><tag k="addr:housenumber" v="10741"/><tag k="addr:postcode" v="97222"/><tag k="addr:city" v="Milwaukie"/><tag k="addr:street" v="Southeast Fuller Road"/></node>
<node id="-9" lat="45.444974223" lon="-122.580455856" visible="true"><tag k="addr:housenumber" v="10747"/><tag k="addr:postcode" v="97222"/><tag k="addr:city" v="Milwaukie"/><tag k="addr:street" v="Southeast Fuller Road"/></node>
<node id="-10" lat="45.444924571" lon="-122.58046622" visible="true"><tag k="addr:housenumber" v="10749"/><tag k="addr:postcode" v="97222"/><tag k="addr:city" v="Milwaukie"/><tag k="addr:street" v="Southeast Fuller Road"/></node>
<node id="-11" lat="45.44488168" lon="-122.580491023" visible="true"><tag k="addr:housenumber" v="10751"/><tag k="addr:postcode" v="97222"/><tag k="addr:city" v="Milwaukie"/><tag k="addr:street" v="Southeast Fuller Road"/></node>
<node id="-12" lat="45.444836791" lon="-122.580517952" visible="true"><tag k="addr:housenumber" v="10753"/><tag k="addr:postcode" v="97222"/><tag k="addr:city" v="Milwaukie"/><tag k="addr:street" v="Southeast Fuller Road"/></node>
<node id="-13" lat="45.451699538" lon="-122.576340095" visible="true"><tag k="addr:housenumber" v="9872"/><tag k="addr:postcode" v="97086"/><tag k="addr:city" v="Happy Valley"/><tag k="addr:street" v="Southeast Fuller Road"/></node>
<node id="-14" lat="45.451584245" lon="-122.576339691" visible="true"><tag k="addr:housenumber" v="9878"/><tag k="addr:postcode" v="97086"/><tag k="addr:city" v="Happy Valley"/><tag k="addr:street" v="Southeast Fuller Road"/></node>
<node id="-15" lat="45.440546509" lon="-122.585730707" visible="true"><tag k="addr:housenumber" v="11387"/><tag k="addr:postcode" v="97222"/><tag k="addr:city" v="Milwaukie"/><tag k="addr:street" v="Southeast Vivian Lane"/></node>
<node id="-16" lat="45.44049967" lon="-122.585727011" visible="true"><tag k="addr:housenumber" v="11389"/><tag k="addr:postcode" v="97222"/><tag k="addr:city" v="Milwaukie"/><tag k="addr:street" v="Southeast Vivian Lane"/></node>
</osm>