<?xml version="1.0"?>
<osm version="0.6" upload="false" generator="uvmogr2osm">
<node id="-1" lat="45.518663557" lon="-122.555287914" visible="true"><tag k="addr:housenumber" v="500"/><tag k="addr:postcode" v="97216"/><tag k="addr:city" v="Portland"/><tag k="addr:street" v="Southeast 105th Avenue"/></node>
<node id="-2" lat="45.506086848" lon="-122.553988545" visible="true"><tag k="addr:housenumber" v="2247"/><tag k="addr:postcode" v="97216"/><tag k="addr:city" v="Portland"/><tag k="addr:street" v="Southeast 106th Avenue"/></node>
<node id="-3" lat="45.50608209" lon="-122.553988514" visible="true"><tag k="addr:housenumber" v="2302"/><tag k="addr:postcode" v="97216"/><tag k="addr:city" v="Portland"/><tag k="addr:street" v="Southeast 106th Avenue"/></node>
<node id="-4" lat="45.505126303" lon="-122.554013349" visible="true"><tag k="addr:housenumber" v="2412"/><tag k="addr:postcode" v="97216"/><tag k="addr:city" v="Portland"/><tag k="addr:street" v="Southeast 106th Avenue"/></node>
<node id="-5" lat="45.505130648" lon="-122.554008945" visible="true"><tag k="addr:housenumber" v="2416"/><tag k="addr:postcode" v="97216"/><tag k="addr:city" v="Portland"/><tag k="addr:street" v="Southeast 106th Avenue"/></node>
<node id="-6" lat="45.505730873" lon="-122.549473493" visible="true"><tag k="addr:housenumber" v="2328"/><tag k="addr:postcode" v="97216"/><tag k="addr:city" v="Portland"/><tag k="addr:street" v="Southeast 110th Avenue"/></node>
<node id="-7" lat="45.505738305" lon="-122.549473197" visible="true"><tag k="addr:housenumber" v="2330"/><tag k="addr:postcode" v="97216"/><tag k="addr:city" v="Portland"/><tag k="addr:street" v="Southeast 110th Avenue"/></node>
<node id="-8" lat="45.505477225" lon="-122.549413865" visible="true"><tag k="addr:housenumber" v="2334"/><tag k="addr:postcode" v="97216"/><tag k="addr:city" v="Portland"/><tag k="addr:street" v="Southeast 110th Avenue"/></node>
<node id="-9" lat="45.505479736" lon="-122.549410646" visible="true"><tag k="addr:housenumber" v="2336"/><tag k="addr:postcode" v="97216"/><tag k="addr:city" v="Portland"/><tag k="addr:street" v="Southeast 110th Avenue"/></node>
<node id="-10" lat="45.506413859" lon="-122.548373726" visible="true"><tag k="addr:housenumber" v="2230"/><tag k="addr:postcode" v="97216"/><tag k="addr:city" v="Portland"/><tag k="addr:street" v="Southeast 112th Avenue"/></node>
<node id="-11" lat="45.506412914" lon="-122.548380311" visible="true"><tag k="addr:housenumber" v="2231"/><tag k="addr:postcode" v="97216"/><tag k="addr:city" v="Portland"/><tag k="addr:street" v="Southeast 112th Avenue"/></node>
<node id="-12" lat="45.504520296" lon="-122.554371825" visible="true"><tag k="addr:housenumber" v="10535"/><tag k="addr:postcode" v="97266"/><tag k="addr:city" v="Portland"/><tag k="addr:street" v="Southeast Division Street"/></node>
<node id="-13" lat="45.504514701" lon="-122.554368782" visible="true"><tag k="addr:housenumber" v="10555"/><tag k="addr:postcode" v="97266"/><tag k="addr:city" v="Portland"/><tag k="addr:street" v="Southeast Division Street"/></node>
<node id="-14" lat="45.504446702" lon="-122.548622136" visible="true"><tag k="addr:housenumber" v="11119"/><tag k="addr:postcode" v="97266"/><tag k="addr:city" v="Portland"/><tag k="addr:street" v="Southeast Division Street"/></node>
<node id="-15" lat="45.504444634" lon="-122.548626554" visible="true"><tag k="addr:housenumber" v="11121"/><tag k="addr:postcode" v="97266"/><tag k="addr:city" v="Portland"/><tag k="addr:street" v="Southeast Division Street"/></node>
<node id="-16" lat="45.511374538" lon="-122.557713593" visible="true"><tag k="addr:housenumber" v="10230"/><tag k="addr:postcode" v="97216"/><tag k="addr:city" v="Portland"/><tag k="addr:street" v="Southeast Market Drive"/></node>
<node id="-17" lat="45.511370599" lon="-122.557718853" visible="true"><tag k="addr:housenumber" v="10231"/><tag k="addr:postcode" v="97216"/><tag k="addr:city" v="Portland"/><tag k="addr:street" v="Southeast Market Drive"/></node>
<node id="-18" lat="45.511377901" lon="-122.55771775" visible="true"><tag k="addr:housenumber" v="10231"/><tag k="addr:postcode" v="97216"/><tag k="addr:city" v="Portland"/><tag k="addr:street" v="Southeast Market Street"/></node>
<node id="-19" lat="45.518662311" lon="-122.555288801" visible="true"><tag k="addr:housenumber" v="10502"/><tag k="addr:postcode" v="97216"/><tag k="addr:city" v="Portland"/><tag k="addr:street" v="Southeast Stark Street"/></node>
<node id="-20" lat="45.51780506" lon="-122.558018447" visible="true"><tag k="addr:housenumber" v="10220"/><tag k="addr:postcode" v="97216"/><tag k="addr:city" v="Portland"/><tag k="addr:street" v="Southeast Washington Street"/></node>
<node id="-21" lat="45.517805809" lon="-122.55801169" visible="true"><tag k="addr:housenumber" v="10230"/><tag k="addr:postcode" v="97216"/><tag k="addr:city" v="Portland"/><tag k="addr:street" v="Southeast Washington Street"/></node>
<node id="-22" lat="45.518624263" lon="-122.552470713" visible="true"><tag k="addr:housenumber" v="10802"/><tag k="addr:postcode" v="97216"/><tag k="addr:city" v="Portland"/><tag k="addr:street" v="Southeast Washington Street"/></node>
<node id="-23" lat="45.51862438" lon="-122.552473757" visible="true"><tag k="addr:housenumber" v="10804"/><tag k="addr:postcode" v="97216"/><tag k="addr:city" v="Portland"/><tag k="addr:street" v="Southeast Washington Street"/></node>
<node id="-24" lat="45.51862951" lon="-122.552477745" visible="true"><tag k="addr:housenumber" v="10806"/><tag k="addr:postcode" v="97216"/><tag k="addr:city" v="Portland"/><tag k="addr:street" v="Southeast Washington Street"/></node>
<node id="-25" lat="45.518624282" lon="-122.552472448" visible="true"><tag k="addr:housenumber" v="10808"/><tag k="addr:postcode" v="97216"/><tag k="addr:city" v="Portland"/><tag k="addr:street" v="Southeast Washington Street"/></node>
</osm>