<?xml version="1.0"?>
<osm version="0.6" upload="false" generator="uvmogr2osm">
<node id="-1" lat="45.484290681" lon="-122.555890832" visible="true"><tag k="addr:housenumber" v="5233"/><tag k="addr:postcode" v="97266"/><tag k="addr:city" v="Portland"/><tag k="addr:street" v="Southeast 104th Avenue"/></node>
<node id="-2" lat="45.484296406" lon="-122.555895593" visible="true"><tag k="addr:housenumber" v="5237"/><tag k="addr:postcode" v="97266"/><tag k="addr:city" v="Portland"/><tag k="addr:street" v="Southeast 104th Avenue"/></node>
<node id="-3" lat="45.488595085" lon="-122.554749669" visible="true"><tag k="addr:housenumber" v="4575"/><tag k="addr:postcode" v="97266"/><tag k="addr:city" v="Portland"/><tag k="addr:street" v="Southeast 105th Avenue"/></node>
<node id="-4" lat="45.488591816" lon="-122.554749946" visible="true"><tag k="addr:housenumber" v="4577"/><tag k="addr:postcode" v="97266"/><tag k="addr:city" v="Portland"/><tag k="addr:street" v="Southeast 105th Avenue"/></node>
<node id="-5" lat="45.486614497" lon="-122.551110173" visible="true"><tag k="addr:housenumber" v="4910"/><tag k="addr:postcode" v="97266"/><tag k="addr:city" v="Portland"/><tag k="addr:street" v="Southeast 109th Avenue"/></node>
<node id="-6" lat="45.486218341" lon="-122.55088302" visible="true"><tag k="addr:housenumber" v="4918"/><tag k="addr:postcode" v="97266"/><tag k="addr:city" v="Portland"/><tag k="addr:street" v="Southeast 109th Avenue"/></node>
<node id="-7" lat="45.486196358" lon="-122.55086572" visible="true"><tag k="addr:housenumber" v="4928"/><tag k="addr:postcode" v="97266"/><tag k="addr:city" v="Portland"/><tag k="addr:street" v="Southeast 109th Avenue"/></node>
<node id="-8" lat="45.485740271" lon="-122.550990062" visible="true"><tag k="addr:housenumber" v="5002"/><tag k="addr:postcode" v="97266"/><tag k="addr:city" v="Portland"/><tag k="addr:street" v="Southeast 109th Avenue"/></node>
<node id="-9" lat="45.485741217" lon="-122.550988429" visible="true"><tag k="addr:housenumber" v="5010"/><tag k="addr:postcode" v="97266"/><tag k="addr:city" v="Portland"/><tag k="addr:street" v="Southeast 109th Avenue"/></node>
<node id="-10" lat="45.485793069" lon="-122.548714965" visible="true"><tag k="addr:housenumber" v="5002"/><tag k="addr:postcode" v="97266"/><tag k="addr:city" v="Portland"/><tag k="addr:street" v="Southeast 111th Avenue"/></node>
<node id="-11" lat="45.484791707" lon="-122.548857961" visible="true"><tag k="addr:housenumber" v="5208"/><tag k="addr:postcode" v="97266"/><tag k="addr:city" v="Portland"/><tag k="addr:street" v="Southeast 111th Avenue"/></node>
<node id="-12" lat="45.48479163" lon="-122.548860696" visible="true"><tag k="addr:housenumber" v="5212"/><tag k="addr:postcode" v="97266"/><tag k="addr:city" v="Portland"/><tag k="addr:street" v="Southeast 111th Avenue"/></node>
<node id="-13" lat="45.4828488" lon="-122.556843638" visible="true"><tag k="addr:housenumber" v="10305"/><tag k="addr:postcode" v="97266"/><tag k="addr:city" v="Portland"/><tag k="addr:street" v="Southeast Harold Street"/></node>
<node id="-14" lat="45.482854645" lon="-122.556851815" visible="true"><tag k="addr:housenumber" v="10307"/><tag k="addr:postcode" v="97266"/><tag k="addr:city" v="Portland"/><tag k="addr:street" v="Southeast Harold Street"/></node>
<node id="-15" lat="45.482807284" lon="-122.55666687" visible="true"><tag k="addr:housenumber" v="10315"/><tag k="addr:postcode" v="97266"/><tag k="addr:city" v="Portland"/><tag k="addr:street" v="Southeast Harold Street"/></node>
<node id="-16" lat="45.482803164" lon="-122.556668059" visible="true"><tag k="addr:housenumber" v="10317"/><tag k="addr:postcode" v="97266"/><tag k="addr:city" v="Portland"/><tag k="addr:street" v="Southeast Harold Street"/></node>
<node id="-17" lat="45.483031218" lon="-122.554104043" visible="true"><tag k="addr:housenumber" v="10505"/><tag k="addr:postcode" v="97266"/><tag k="addr:city" v="Portland"/><tag k="addr:street" v="Southeast Harold Street"/></node>
<node id="-18" lat="45.489451482" lon="-122.556599627" visible="true"><tag k="addr:housenumber" v="10318"/><tag k="addr:postcode" v="97266"/><tag k="addr:city" v="Portland"/><tag k="addr:street" v="Southeast Holgate Boulevard"/></node>
<node id="-19" lat="45.489455497" lon="-122.556599703" visible="true"><tag k="addr:housenumber" v="10320"/><tag k="addr:postcode" v="97266"/><tag k="addr:city" v="Portland"/><tag k="addr:street" v="Southeast Holgate Boulevard"/></node>
<node id="-20" lat="45.489456406" lon="-122.556601818" visible="true"><tag k="addr:housenumber" v="10322"/><tag k="addr:postcode" v="97266"/><tag k="addr:city" v="Portland"/><tag k="addr:street" v="Southeast Holgate Boulevard"/></node>
<node id="-21" lat="45.489451118" lon="-122.556598188" visible="true"><tag k="addr:housenumber" v="10324"/><tag k="addr:postcode" v="97266"/><tag k="addr:city" v="Portland"/><tag k="addr:street" v="Southeast Holgate Boulevard"/></node>
<node id="-22" lat="45.489490897" lon="-122.556154068" visible="true"><tag k="addr:housenumber" v="10350"/><tag k="addr:postcode" v="97266"/><tag k="addr:city" v="Portland"/><tag k="addr:street" v="Southeast Holgate Boulevard"/></node>
<node id="-23" lat="45.489487738" lon="-122.556149443" visible="true"><tag k="addr:housenumber" v="10354"/><tag k="addr:postcode" v="97266"/><tag k="addr:city" v="Portland"/><tag k="addr:street" v="Southeast Holgate Boulevard"/></node>
<node id="-24" lat="45.489541562" lon="-122.555096587" visible="true"><tag k="addr:housenumber" v="10430"/><tag k="addr:postcode" v="97266"/><tag k="addr:city" v="Portland"/><tag k="addr:street" v="Southeast Holgate Boulevard"/></node>
<node id="-25" lat="45.489538873" lon="-122.555101196" visible="true"><tag k="addr:housenumber" v="10432"/><tag k="addr:postcode" v="97266"/><tag k="addr:city" v="Portland"/><tag k="addr:street" v="Southeast Holgate Boulevard"/></node>
<node id="-26" lat="45.489446703" lon="-122.550421064" visible="true"><tag k="addr:housenumber" v="10922"/><tag k="addr:postcode" v="97266"/><tag k="addr:city" v="Portland"/><tag k="addr:street" v="Southeast Holgate Boulevard"/></node>
<node id="-27" lat="45.489454883" lon="-122.550415733" visible="true"><tag k="addr:housenumber" v="10924"/><tag k="addr:postcode" v="97266"/><tag k="addr:city" v="Portland"/><tag k="addr:street" v="Southeast Holgate Boulevard"/></node>
<node id="-28" lat="45.489454033" lon="-122.550414725" visible="true"><tag k="addr:housenumber" v="10926"/><tag k="addr:postcode" v="97266"/><tag k="addr:city" v="Portland"/><tag k="addr:street" v="Southeast Holgate Boulevard"/></node>
<node id="-29" lat="45.489517311" lon="-122.548701216" visible="true"><tag k="addr:housenumber" v="11106"/><tag k="addr:postcode" v="97266"/><tag k="addr:city" v="Portland"/><tag k="addr:street" v="Southeast Holgate Boulevard"/></node>
<node id="-30" lat="45.489518216" lon="-122.548700371" visible="true"><tag k="addr:housenumber" v="11110"/><tag k="addr:postcode" v="97266"/><tag k="addr:city" v="Portland"/><tag k="addr:street" v="Southeast Holgate Boulevard"/></node>
<node id="-31" lat="45.489522506" lon="-122.548700316" visible="true"><tag k="addr:housenumber" v="11114"/><tag k="addr:postcode" v="97266"/><tag k="addr:city" v="Portland"/><tag k="addr:street" v="Southeast Holgate Boulevard"/></node>
<node id="-32" lat="45.483030899" lon="-122.554104834" visible="true"><tag k="addr:housenumber" v="10508"/><tag k="addr:postcode" v="97266"/><tag k="addr:city" v="Portland"/><tag k="addr:street" v="Southeast Insley Place"/></node>
<node id="-33" lat="45.483536205" lon="-122.558176696" visible="true"><tag k="addr:housenumber" v="10203"/><tag k="addr:postcode" v="97266"/><tag k="addr:city" v="Portland"/><tag k="addr:street" v="Southeast Insley Street"/></node>
<node id="-34" lat="45.483537695" lon="-122.558176741" visible="true"><tag k="addr:housenumber" v="10209"/><tag k="addr:postcode" v="97266"/><tag k="addr:city" v="Portland"/><tag k="addr:street" v="Southeast Insley Street"/></node>
<node id="-35" lat="45.486620105" lon="-122.551101315" visible="true"><tag k="addr:housenumber" v="10905"/><tag k="addr:postcode" v="97266"/><tag k="addr:city" v="Portland"/><tag k="addr:street" v="Southeast Liebe Court"/></node>
<node id="-36" lat="45.488199781" lon="-122.555960673" visible="true"><tag k="addr:housenumber" v="10345"/><tag k="addr:postcode" v="97266"/><tag k="addr:city" v="Portland"/><tag k="addr:street" v="Southeast Long Street"/></node>
<node id="-37" lat="45.488200998" lon="-122.555967252" visible="true"><tag k="addr:housenumber" v="10349"/><tag k="addr:postcode" v="97266"/><tag k="addr:city" v="Portland"/><tag k="addr:street" v="Southeast Long Street"/></node>
<node id="-38" lat="45.485795615" lon="-122.548705706" visible="true"><tag k="addr:housenumber" v="11116"/><tag k="addr:postcode" v="97266"/><tag k="addr:city" v="Portland"/><tag k="addr:street" v="Southeast Melania Court"/></node>
<node id="-39" lat="45.484986077" lon="-122.551751921" visible="true"><tag k="addr:housenumber" v="10825"/><tag k="addr:postcode" v="97266"/><tag k="addr:city" v="Portland"/><tag k="addr:street" v="Southeast Mitchell Street"/></node>
<node id="-40" lat="45.484993499" lon="-122.551755409" visible="true"><tag k="addr:housenumber" v="10835"/><tag k="addr:postcode" v="97266"/><tag k="addr:city" v="Portland"/><tag k="addr:street" v="Southeast Mitchell Street"/></node>
<node id="-41" lat="45.488497575" lon="-122.556958171" visible="true"><tag k="addr:housenumber" v="10310"/><tag k="addr:postcode" v="97266"/><tag k="addr:city" v="Portland"/><tag k="addr:street" v="Southeast Pardee Street"/></node>
<node id="-42" lat="45.488498663" lon="-122.556958008" visible="true"><tag k="addr:housenumber" v="10330"/><tag k="addr:postcode" v="97266"/><tag k="addr:city" v="Portland"/><tag k="addr:street" v="Southeast Pardee Street"/></node>
<node id="-43" lat="45.485579707" lon="-122.556959383" visible="true"><tag k="addr:housenumber" v="10300"/><tag k="addr:postcode" v="97266"/><tag k="addr:city" v="Portland"/><tag k="addr:street" v="Southeast Raymond Street"/></node>
<node id="-44" lat="45.485509355" lon="-122.556926236" visible="true"><tag k="addr:housenumber" v="10304"/><tag k="addr:postcode" v="97266"/><tag k="addr:city" v="Portland"/><tag k="addr:street" v="Southeast Raymond Street"/></node>
<node id="-45" lat="45.487499599" lon="-122.558160357" visible="true"><tag k="addr:housenumber" v="10205"/><tag k="addr:postcode" v="97266"/><tag k="addr:city" v="Portland"/><tag k="addr:street" v="Southeast Schiller Street"/></node>
<node id="-46" lat="45.487499112" lon="-122.55816121" visible="true"><tag k="addr:housenumber" v="10208"/><tag k="addr:postcode" v="97266"/><tag k="addr:city" v="Portland"/><tag k="addr:street" v="Southeast Schiller Street"/></node>
<node id="-47" lat="45.484580213" lon="-122.554120131" visible="true"><tag k="addr:housenumber" v="10507"/><tag k="addr:postcode" v="97266"/><tag k="addr:city" v="Portland"/><tag k="addr:street" v="Southeast Steele Street"/></node>
<node id="-48" lat="45.484579127" lon="-122.554119132" visible="true"><tag k="addr:housenumber" v="10509"/><tag k="addr:postcode" v="97266"/><tag k="addr:city" v="Portland"/><tag k="addr:street" v="Southeast Steele Street"/></node>
</osm>