<?xml version="1.0"?>
<osm version="0.6" upload="false" generator="uvmogr2osm">
<node id="-1" lat="45.473058438" lon="-122.609943368" visible="true"><tag k="addr:housenumber" v="6903"/><tag k="addr:postcode" v="97206"/><tag k="addr:city" v="Portland"/><tag k="addr:street" v="Southeast 52nd Avenue"/></node>
<node id="-2" lat="45.473057388" lon="-122.609943819" visible="true"><tag k="addr:housenumber" v="6905"/><tag k="addr:postcode" v="97206"/><tag k="addr:city" v="Portland"/><tag k="addr:street" v="Southeast 52nd Avenue"/></node>
<node id="-3" lat="45.472145273" lon="-122.609607334" visible="true"><tag k="addr:housenumber" v="7026"/><tag k="addr:postcode" v="97206"/><tag k="addr:city" v="Portland"/><tag k="addr:street" v="Southeast 52nd Avenue"/></node>
<node id="-4" lat="45.472143097" lon="-122.609605059" visible="true"><tag k="addr:housenumber" v="7028"/><tag k="addr:postcode" v="97206"/><tag k="addr:city" v="Portland"/><tag k="addr:street" v="Southeast 52nd Avenue"/></node>
<node id="-5" lat="45.47214663" lon="-122.609603943" visible="true"><tag k="addr:housenumber" v="7032"/><tag k="addr:postcode" v="97206"/><tag k="addr:city" v="Portland"/><tag k="addr:street" v="Southeast 52nd Avenue"/></node>
<node id="-6" lat="45.472181283" lon="-122.609408113" visible="true"><tag k="addr:housenumber" v="7036"/><tag k="addr:postcode" v="97206"/><tag k="addr:city" v="Portland"/><tag k="addr:street" v="Southeast 52nd Avenue"/></node>
<node id="-7" lat="45.474297286" lon="-122.606224749" visible="true"><tag k="addr:housenumber" v="6703"/><tag k="addr:postcode" v="97206"/><tag k="addr:city" v="Portland"/><tag k="addr:street" v="Southeast 56th Avenue"/></node>
<node id="-8" lat="45.474258178" lon="-122.60622364" visible="true"><tag k="addr:housenumber" v="6705"/><tag k="addr:postcode" v="97206"/><tag k="addr:city" v="Portland"/><tag k="addr:street" v="Southeast 56th Avenue"/></node>
<node id="-9" lat="45.474295723" lon="-122.606231768" visible="true"><tag k="addr:housenumber" v="6707"/><tag k="addr:postcode" v="97206"/><tag k="addr:city" v="Portland"/><tag k="addr:street" v="Southeast 56th Avenue"/></node>
<node id="-10" lat="45.475582254" lon="-122.605019432" visible="true"><tag k="addr:housenumber" v="6505"/><tag k="addr:postcode" v="97206"/><tag k="addr:city" v="Portland"/><tag k="addr:street" v="Southeast 57th Avenue"/></node>
<node id="-11" lat="45.475499067" lon="-122.604566953" visible="true"><tag k="addr:housenumber" v="6506"/><tag k="addr:postcode" v="97206"/><tag k="addr:city" v="Portland"/><tag k="addr:street" v="Southeast 57th Avenue"/></node>
<node id="-12" lat="45.475582348" lon="-122.605024978" visible="true"><tag k="addr:housenumber" v="6507"/><tag k="addr:postcode" v="97206"/><tag k="addr:city" v="Portland"/><tag k="addr:street" v="Southeast 57th Avenue"/></node>
<node id="-13" lat="45.475584599" lon="-122.605020926" visible="true"><tag k="addr:housenumber" v="6509"/><tag k="addr:postcode" v="97206"/><tag k="addr:city" v="Portland"/><tag k="addr:street" v="Southeast 57th Avenue"/></node>
<node id="-14" lat="45.475496262" lon="-122.604568785" visible="true"><tag k="addr:housenumber" v="6512"/><tag k="addr:postcode" v="97206"/><tag k="addr:city" v="Portland"/><tag k="addr:street" v="Southeast 57th Avenue"/></node>
<node id="-15" lat="45.475495862" lon="-122.604573423" visible="true"><tag k="addr:housenumber" v="6518"/><tag k="addr:postcode" v="97206"/><tag k="addr:city" v="Portland"/><tag k="addr:street" v="Southeast 57th Avenue"/></node>
<node id="-16" lat="45.475495482" lon="-122.604573714" visible="true"><tag k="addr:housenumber" v="6524"/><tag k="addr:postcode" v="97206"/><tag k="addr:city" v="Portland"/><tag k="addr:street" v="Southeast 57th Avenue"/></node>
<node id="-17" lat="45.47549517" lon="-122.604571702" visible="true"><tag k="addr:housenumber" v="6530"/><tag k="addr:postcode" v="97206"/><tag k="addr:city" v="Portland"/><tag k="addr:street" v="Southeast 57th Avenue"/></node>
<node id="-18" lat="45.474123015" lon="-122.605125013" visible="true"><tag k="addr:housenumber" v="6711"/><tag k="addr:postcode" v="97206"/><tag k="addr:city" v="Portland"/><tag k="addr:street" v="Southeast 57th Avenue"/></node>
<node id="-19" lat="45.47412004" lon="-122.605131359" visible="true"><tag k="addr:housenumber" v="6715"/><tag k="addr:postcode" v="97206"/><tag k="addr:city" v="Portland"/><tag k="addr:street" v="Southeast 57th Avenue"/></node>
<node id="-20" lat="45.469818353" lon="-122.604532414" visible="true"><tag k="addr:housenumber" v="7300"/><tag k="addr:postcode" v="97206"/><tag k="addr:city" v="Portland"/><tag k="addr:street" v="Southeast 57th Avenue"/></node>
<node id="-21" lat="45.475632958" lon="-122.603946159" visible="true"><tag k="addr:housenumber" v="6514"/><tag k="addr:postcode" v="97206"/><tag k="addr:city" v="Portland"/><tag k="addr:street" v="Southeast 57th Place"/></node>
<node id="-22" lat="45.475236969" lon="-122.602950996" visible="true"><tag k="addr:housenumber" v="6534"/><tag k="addr:postcode" v="97206"/><tag k="addr:city" v="Portland"/><tag k="addr:street" v="Southeast 58th Avenue"/></node>
<node id="-23" lat="45.475236572" lon="-122.602951197" visible="true"><tag k="addr:housenumber" v="6536"/><tag k="addr:postcode" v="97206"/><tag k="addr:city" v="Portland"/><tag k="addr:street" v="Southeast 58th Avenue"/></node>
<node id="-24" lat="45.468780825" lon="-122.602444099" visible="true"><tag k="addr:housenumber" v="7241"/><tag k="addr:postcode" v="97206"/><tag k="addr:city" v="Portland"/><tag k="addr:street" v="Southeast 60th Avenue"/></node>
<node id="-25" lat="45.470509027" lon="-122.602758499" visible="true"><tag k="addr:housenumber" v="7253"/><tag k="addr:postcode" v="97206"/><tag k="addr:city" v="Portland"/><tag k="addr:street" v="Southeast 60th Avenue"/></node>
<node id="-26" lat="45.470179274" lon="-122.602455643" visible="true"><tag k="addr:housenumber" v="7275"/><tag k="addr:postcode" v="97206"/><tag k="addr:city" v="Portland"/><tag k="addr:street" v="Southeast 60th Avenue"/></node>
<node id="-27" lat="45.468786831" lon="-122.602447157" visible="true"><tag k="addr:housenumber" v="7421"/><tag k="addr:postcode" v="97206"/><tag k="addr:city" v="Portland"/><tag k="addr:street" v="Southeast 60th Avenue"/></node>
<node id="-28" lat="45.475530503" lon="-122.599870501" visible="true"><tag k="addr:housenumber" v="6521"/><tag k="addr:postcode" v="97206"/><tag k="addr:city" v="Portland"/><tag k="addr:street" v="Southeast 62nd Avenue"/></node>
<node id="-29" lat="45.475535373" lon="-122.599863079" visible="true"><tag k="addr:housenumber" v="6525"/><tag k="addr:postcode" v="97206"/><tag k="addr:city" v="Portland"/><tag k="addr:street" v="Southeast 62nd Avenue"/></node>
<node id="-30" lat="45.475184279" lon="-122.599955217" visible="true"><tag k="addr:housenumber" v="6539"/><tag k="addr:postcode" v="97206"/><tag k="addr:city" v="Portland"/><tag k="addr:street" v="Southeast 62nd Avenue"/></node>
<node id="-31" lat="45.475185103" lon="-122.599957453" visible="true"><tag k="addr:housenumber" v="6541"/><tag k="addr:postcode" v="97206"/><tag k="addr:city" v="Portland"/><tag k="addr:street" v="Southeast 62nd Avenue"/></node>
<node id="-32" lat="45.472843602" lon="-122.607828258" visible="true"><tag k="addr:housenumber" v="5337"/><tag k="addr:postcode" v="97206"/><tag k="addr:city" v="Portland"/><tag k="addr:street" v="Southeast Bybee Boulevard"/></node>
<node id="-33" lat="45.472841332" lon="-122.607830523" visible="true"><tag k="addr:housenumber" v="5345"/><tag k="addr:postcode" v="97206"/><tag k="addr:city" v="Portland"/><tag k="addr:street" v="Southeast Bybee Boulevard"/></node>
<node id="-34" lat="45.473418678" lon="-122.606382858" visible="true"><tag k="addr:housenumber" v="5502"/><tag k="addr:postcode" v="97206"/><tag k="addr:city" v="Portland"/><tag k="addr:street" v="Southeast Cooper Street"/></node>
<node id="-35" lat="45.473426178" lon="-122.606390868" visible="true"><tag k="addr:housenumber" v="5512"/><tag k="addr:postcode" v="97206"/><tag k="addr:city" v="Portland"/><tag k="addr:street" v="Southeast Cooper Street"/></node>
<node id="-36" lat="45.475636186" lon="-122.603943684" visible="true"><tag k="addr:housenumber" v="5742"/><tag k="addr:postcode" v="97206"/><tag k="addr:city" v="Portland"/><tag k="addr:street" v="Southeast Duke Street"/></node>
<node id="-37" lat="45.475685584" lon="-122.600393619" visible="true"><tag k="addr:housenumber" v="6126"/><tag k="addr:postcode" v="97206"/><tag k="addr:city" v="Portland"/><tag k="addr:street" v="Southeast Duke Street"/></node>
<node id="-38" lat="45.475683687" lon="-122.600391536" visible="true"><tag k="addr:housenumber" v="6130"/><tag k="addr:postcode" v="97206"/><tag k="addr:city" v="Portland"/><tag k="addr:street" v="Southeast Duke Street"/></node>
<node id="-39" lat="45.475530029" lon="-122.599871795" visible="true"><tag k="addr:housenumber" v="6150"/><tag k="addr:postcode" v="97206"/><tag k="addr:city" v="Portland"/><tag k="addr:street" v="Southeast Duke Street"/></node>
<node id="-40" lat="45.468871975" lon="-122.609039016" visible="true"><tag k="addr:housenumber" v="5241"/><tag k="addr:postcode" v="97206"/><tag k="addr:city" v="Portland"/><tag k="addr:street" v="Southeast Flavel Street"/></node>
<node id="-41" lat="45.468871372" lon="-122.609038133" visible="true"><tag k="addr:housenumber" v="5243"/><tag k="addr:postcode" v="97206"/><tag k="addr:city" v="Portland"/><tag k="addr:street" v="Southeast Flavel Street"/></node>
<node id="-42" lat="45.468872298" lon="-122.608456344" visible="true"><tag k="addr:housenumber" v="5309"/><tag k="addr:postcode" v="97206"/><tag k="addr:city" v="Portland"/><tag k="addr:street" v="Southeast Flavel Street"/></node>
<node id="-43" lat="45.468864091" lon="-122.608452776" visible="true"><tag k="addr:housenumber" v="5311"/><tag k="addr:postcode" v="97206"/><tag k="addr:city" v="Portland"/><tag k="addr:street" v="Southeast Flavel Street"/></node>
<node id="-44" lat="45.468860745" lon="-122.606404583" visible="true"><tag k="addr:housenumber" v="5503"/><tag k="addr:postcode" v="97206"/><tag k="addr:city" v="Portland"/><tag k="addr:street" v="Southeast Flavel Street"/></node>
<node id="-45" lat="45.468862904" lon="-122.606410658" visible="true"><tag k="addr:housenumber" v="5505"/><tag k="addr:postcode" v="97206"/><tag k="addr:city" v="Portland"/><tag k="addr:street" v="Southeast Flavel Street"/></node>
<node id="-46" lat="45.468818928" lon="-122.603313189" visible="true"><tag k="addr:housenumber" v="5816"/><tag k="addr:postcode" v="97206"/><tag k="addr:city" v="Portland"/><tag k="addr:street" v="Southeast Flavel Street"/></node>
<node id="-47" lat="45.468813865" lon="-122.603319063" visible="true"><tag k="addr:housenumber" v="5819"/><tag k="addr:postcode" v="97206"/><tag k="addr:city" v="Portland"/><tag k="addr:street" v="Southeast Flavel Street"/></node>
<node id="-48" lat="45.468814594" lon="-122.603317151" visible="true"><tag k="addr:housenumber" v="5821"/><tag k="addr:postcode" v="97206"/><tag k="addr:city" v="Portland"/><tag k="addr:street" v="Southeast Flavel Street"/></node>
<node id="-49" lat="45.468815598" lon="-122.603316984" visible="true"><tag k="addr:housenumber" v="5825"/><tag k="addr:postcode" v="97206"/><tag k="addr:city" v="Portland"/><tag k="addr:street" v="Southeast Flavel Street"/></node>
<node id="-50" lat="45.468852031" lon="-122.603139074" visible="true"><tag k="addr:housenumber" v="5835"/><tag k="addr:postcode" v="97206"/><tag k="addr:city" v="Portland"/><tag k="addr:street" v="Southeast Flavel Street"/></node>
<node id="-51" lat="45.468855989" lon="-122.603139217" visible="true"><tag k="addr:housenumber" v="5837"/><tag k="addr:postcode" v="97206"/><tag k="addr:city" v="Portland"/><tag k="addr:street" v="Southeast Flavel Street"/></node>
<node id="-52" lat="45.468780307" lon="-122.602447039" visible="true"><tag k="addr:housenumber" v="5927"/><tag k="addr:postcode" v="97206"/><tag k="addr:city" v="Portland"/><tag k="addr:street" v="Southeast Flavel Street"/></node>
<node id="-53" lat="45.468836028" lon="-122.600170891" visible="true"><tag k="addr:housenumber" v="6127"/><tag k="addr:postcode" v="97206"/><tag k="addr:city" v="Portland"/><tag k="addr:street" v="Southeast Flavel Street"/></node>
<node id="-54" lat="45.468831366" lon="-122.600168418" visible="true"><tag k="addr:housenumber" v="6141"/><tag k="addr:postcode" v="97206"/><tag k="addr:city" v="Portland"/><tag k="addr:street" v="Southeast Flavel Street"/></node>
<node id="-55" lat="45.469548514" lon="-122.609622908" visible="true"><tag k="addr:housenumber" v="5215"/><tag k="addr:postcode" v="97206"/><tag k="addr:city" v="Portland"/><tag k="addr:street" v="Southeast Henderson Street"/></node>
<node id="-56" lat="45.469552195" lon="-122.609627755" visible="true"><tag k="addr:housenumber" v="5217"/><tag k="addr:postcode" v="97206"/><tag k="addr:city" v="Portland"/><tag k="addr:street" v="Southeast Henderson Street"/></node>
<node id="-57" lat="45.469132484" lon="-122.607796177" visible="true"><tag k="addr:housenumber" v="5332"/><tag k="addr:postcode" v="97206"/><tag k="addr:city" v="Portland"/><tag k="addr:street" v="Southeast Henderson Street"/></node>
<node id="-58" lat="45.469134822" lon="-122.607792405" visible="true"><tag k="addr:housenumber" v="5342"/><tag k="addr:postcode" v="97206"/><tag k="addr:city" v="Portland"/><tag k="addr:street" v="Southeast Henderson Street"/></node>
<node id="-59" lat="45.469549024" lon="-122.60582882" visible="true"><tag k="addr:housenumber" v="5535"/><tag k="addr:postcode" v="97206"/><tag k="addr:city" v="Portland"/><tag k="addr:street" v="Southeast Henderson Street"/></node>
<node id="-60" lat="45.469548602" lon="-122.605830915" visible="true"><tag k="addr:housenumber" v="5537"/><tag k="addr:postcode" v="97206"/><tag k="addr:city" v="Portland"/><tag k="addr:street" v="Southeast Henderson Street"/></node>
<node id="-61" lat="45.469544969" lon="-122.602766306" visible="true"><tag k="addr:housenumber" v="5915"/><tag k="addr:postcode" v="97206"/><tag k="addr:city" v="Portland"/><tag k="addr:street" v="Southeast Henderson Street"/></node>
<node id="-62" lat="45.469541928" lon="-122.602762442" visible="true"><tag k="addr:housenumber" v="5919"/><tag k="addr:postcode" v="97206"/><tag k="addr:city" v="Portland"/><tag k="addr:street" v="Southeast Henderson Street"/></node>
<node id="-63" lat="45.469819792" lon="-122.608653466" visible="true"><tag k="addr:housenumber" v="5252"/><tag k="addr:postcode" v="97206"/><tag k="addr:city" v="Portland"/><tag k="addr:street" v="Southeast Knapp Street"/></node>
<node id="-64" lat="45.469824427" lon="-122.608647911" visible="true"><tag k="addr:housenumber" v="5256"/><tag k="addr:postcode" v="97206"/><tag k="addr:city" v="Portland"/><tag k="addr:street" v="Southeast Knapp Street"/></node>
<node id="-65" lat="45.469826417" lon="-122.608648072" visible="true"><tag k="addr:housenumber" v="5260"/><tag k="addr:postcode" v="97206"/><tag k="addr:city" v="Portland"/><tag k="addr:street" v="Southeast Knapp Street"/></node>
<node id="-66" lat="45.469820219" lon="-122.60865266" visible="true"><tag k="addr:housenumber" v="5302"/><tag k="addr:postcode" v="97206"/><tag k="addr:city" v="Portland"/><tag k="addr:street" v="Southeast Knapp Street"/></node>
<node id="-67" lat="45.469824537" lon="-122.608651217" visible="true"><tag k="addr:housenumber" v="5306"/><tag k="addr:postcode" v="97206"/><tag k="addr:city" v="Portland"/><tag k="addr:street" v="Southeast Knapp Street"/></node>
<node id="-68" lat="45.469825522" lon="-122.608214169" visible="true"><tag k="addr:housenumber" v="5316"/><tag k="addr:postcode" v="97206"/><tag k="addr:city" v="Portland"/><tag k="addr:street" v="Southeast Knapp Street"/></node>
<node id="-69" lat="45.469818814" lon="-122.608210783" visible="true"><tag k="addr:housenumber" v="5320"/><tag k="addr:postcode" v="97206"/><tag k="addr:city" v="Portland"/><tag k="addr:street" v="Southeast Knapp Street"/></node>
<node id="-70" lat="45.469820056" lon="-122.606116963" visible="true"><tag k="addr:housenumber" v="5510"/><tag k="addr:postcode" v="97206"/><tag k="addr:city" v="Portland"/><tag k="addr:street" v="Southeast Knapp Street"/></node>
<node id="-71" lat="45.469815325" lon="-122.606117094" visible="true"><tag k="addr:housenumber" v="5520"/><tag k="addr:postcode" v="97206"/><tag k="addr:city" v="Portland"/><tag k="addr:street" v="Southeast Knapp Street"/></node>
<node id="-72" lat="45.46981753" lon="-122.604530211" visible="true"><tag k="addr:housenumber" v="5708"/><tag k="addr:postcode" v="97206"/><tag k="addr:city" v="Portland"/><tag k="addr:street" v="Southeast Knapp Street"/></node>
<node id="-73" lat="45.469820383" lon="-122.604260272" visible="true"><tag k="addr:housenumber" v="5720"/><tag k="addr:postcode" v="97206"/><tag k="addr:city" v="Portland"/><tag k="addr:street" v="Southeast Knapp Street"/></node>
<node id="-74" lat="45.469814116" lon="-122.604259582" visible="true"><tag k="addr:housenumber" v="5722"/><tag k="addr:postcode" v="97206"/><tag k="addr:city" v="Portland"/><tag k="addr:street" v="Southeast Knapp Street"/></node>
<node id="-75" lat="45.469821234" lon="-122.60426627" visible="true"><tag k="addr:housenumber" v="5724"/><tag k="addr:postcode" v="97206"/><tag k="addr:city" v="Portland"/><tag k="addr:street" v="Southeast Knapp Street"/></node>
<node id="-76" lat="45.470186813" lon="-122.603781386" visible="true"><tag k="addr:housenumber" v="5801"/><tag k="addr:postcode" v="97206"/><tag k="addr:city" v="Portland"/><tag k="addr:street" v="Southeast Knapp Street"/></node>
<node id="-77" lat="45.470182582" lon="-122.603782662" visible="true"><tag k="addr:housenumber" v="5805"/><tag k="addr:postcode" v="97206"/><tag k="addr:city" v="Portland"/><tag k="addr:street" v="Southeast Knapp Street"/></node>
<node id="-78" lat="45.470244318" lon="-122.602697246" visible="true"><tag k="addr:housenumber" v="5911"/><tag k="addr:postcode" v="97206"/><tag k="addr:city" v="Portland"/><tag k="addr:street" v="Southeast Knapp Street"/></node>
<node id="-79" lat="45.470239635" lon="-122.602700943" visible="true"><tag k="addr:housenumber" v="5917"/><tag k="addr:postcode" v="97206"/><tag k="addr:city" v="Portland"/><tag k="addr:street" v="Southeast Knapp Street"/></node>
<node id="-80" lat="45.47017803" lon="-122.602456397" visible="true"><tag k="addr:housenumber" v="5933"/><tag k="addr:postcode" v="97206"/><tag k="addr:city" v="Portland"/><tag k="addr:street" v="Southeast Knapp Street"/></node>
<node id="-81" lat="45.470490948" lon="-122.60280789" visible="true"><tag k="addr:housenumber" v="5920"/><tag k="addr:postcode" v="97206"/><tag k="addr:city" v="Portland"/><tag k="addr:street" v="Southeast Ogden Court"/></node>
<node id="-82" lat="45.471681029" lon="-122.6057913" visible="true"><tag k="addr:housenumber" v="5528"/><tag k="addr:postcode" v="97206"/><tag k="addr:city" v="Portland"/><tag k="addr:street" v="Southeast Rural Street"/></node>
<node id="-83" lat="45.4716795" lon="-122.605796612" visible="true"><tag k="addr:housenumber" v="5530"/><tag k="addr:postcode" v="97206"/><tag k="addr:city" v="Portland"/><tag k="addr:street" v="Southeast Rural Street"/></node>
</osm>