<?xml version="1.0"?>
<osm version="0.6" upload="false" generator="uvmogr2osm">
<node id="-1" lat="45.466722429" lon="-122.598478931" visible="true"><tag k="addr:housenumber" v="7826"/><tag k="addr:postcode" v="97206"/><tag k="addr:city" v="Portland"/><tag k="addr:street" v="Southeast 62nd Avenue"/></node>
<node id="-2" lat="45.466729449" lon="-122.598480266" visible="true"><tag k="addr:housenumber" v="7828"/><tag k="addr:postcode" v="97206"/><tag k="addr:city" v="Portland"/><tag k="addr:street" v="Southeast 62nd Avenue"/></node>
<node id="-3" lat="45.467167475" lon="-122.597625417" visible="true"><tag k="addr:housenumber" v="7814"/><tag k="addr:postcode" v="97206"/><tag k="addr:city" v="Portland"/><tag k="addr:street" v="Southeast 64th Avenue"/></node>
<node id="-4" lat="45.467166268" lon="-122.597624878" visible="true"><tag k="addr:housenumber" v="7816"/><tag k="addr:postcode" v="97206"/><tag k="addr:city" v="Portland"/><tag k="addr:street" v="Southeast 64th Avenue"/></node>
<node id="-5" lat="45.466965979" lon="-122.597532379" visible="true"><tag k="addr:housenumber" v="7824"/><tag k="addr:postcode" v="97206"/><tag k="addr:city" v="Portland"/><tag k="addr:street" v="Southeast 64th Avenue"/></node>
<node id="-6" lat="45.466960882" lon="-122.59752554" visible="true"><tag k="addr:housenumber" v="7924"/><tag k="addr:postcode" v="97206"/><tag k="addr:city" v="Portland"/><tag k="addr:street" v="Southeast 64th Avenue"/></node>
<node id="-7" lat="45.464955957" lon="-122.59796416" visible="true"><tag k="addr:housenumber" v="8021"/><tag k="addr:postcode" v="97206"/><tag k="addr:city" v="Portland"/><tag k="addr:street" v="Southeast 64th Avenue"/></node>
<node id="-8" lat="45.464962183" lon="-122.597960356" visible="true"><tag k="addr:housenumber" v="8025"/><tag k="addr:postcode" v="97206"/><tag k="addr:city" v="Portland"/><tag k="addr:street" v="Southeast 64th Avenue"/></node>
<node id="-9" lat="45.462519053" lon="-122.597876485" visible="true"><tag k="addr:housenumber" v="8447"/><tag k="addr:postcode" v="97206"/><tag k="addr:city" v="Portland"/><tag k="addr:street" v="Southeast 64th Avenue"/></node>
<node id="-10" lat="45.467546153" lon="-122.596613759" visible="true"><tag k="addr:housenumber" v="7730"/><tag k="addr:postcode" v="97206"/><tag k="addr:city" v="Portland"/><tag k="addr:street" v="Southeast 65th Avenue"/></node>
<node id="-11" lat="45.467542043" lon="-122.596613702" visible="true"><tag k="addr:housenumber" v="7734"/><tag k="addr:postcode" v="97206"/><tag k="addr:city" v="Portland"/><tag k="addr:street" v="Southeast 65th Avenue"/></node>
<node id="-12" lat="45.466829087" lon="-122.595584015" visible="true"><tag k="addr:housenumber" v="7826"/><tag k="addr:postcode" v="97206"/><tag k="addr:city" v="Portland"/><tag k="addr:street" v="Southeast 66th Avenue"/></node>
<node id="-13" lat="45.466828284" lon="-122.595584127" visible="true"><tag k="addr:housenumber" v="7830"/><tag k="addr:postcode" v="97206"/><tag k="addr:city" v="Portland"/><tag k="addr:street" v="Southeast 66th Avenue"/></node>
<node id="-14" lat="45.466562312" lon="-122.594199664" visible="true"><tag k="addr:housenumber" v="7852"/><tag k="addr:postcode" v="97206"/><tag k="addr:city" v="Portland"/><tag k="addr:street" v="Southeast 67th Avenue"/></node>
<node id="-15" lat="45.466562536" lon="-122.594199133" visible="true"><tag k="addr:housenumber" v="7856"/><tag k="addr:postcode" v="97206"/><tag k="addr:city" v="Portland"/><tag k="addr:street" v="Southeast 67th Avenue"/></node>
<node id="-16" lat="45.466205988" lon="-122.594209111" visible="true"><tag k="addr:housenumber" v="7910"/><tag k="addr:postcode" v="97206"/><tag k="addr:city" v="Portland"/><tag k="addr:street" v="Southeast 67th Avenue"/></node>
<node id="-17" lat="45.466203209" lon="-122.594206278" visible="true"><tag k="addr:housenumber" v="7912"/><tag k="addr:postcode" v="97206"/><tag k="addr:city" v="Portland"/><tag k="addr:street" v="Southeast 67th Avenue"/></node>
<node id="-18" lat="45.466793589" lon="-122.593477064" visible="true"><tag k="addr:housenumber" v="7835"/><tag k="addr:postcode" v="97206"/><tag k="addr:city" v="Portland"/><tag k="addr:street" v="Southeast 68th Avenue"/></node>
<node id="-19" lat="45.466796556" lon="-122.593485068" visible="true"><tag k="addr:housenumber" v="7841"/><tag k="addr:postcode" v="97206"/><tag k="addr:city" v="Portland"/><tag k="addr:street" v="Southeast 68th Avenue"/></node>
<node id="-20" lat="45.467639475" lon="-122.591060295" visible="true"><tag k="addr:housenumber" v="7710"/><tag k="addr:postcode" v="97206"/><tag k="addr:city" v="Portland"/><tag k="addr:street" v="Southeast 70th Avenue"/></node>
<node id="-21" lat="45.467640406" lon="-122.591042698" visible="true"><tag k="addr:housenumber" v="7722"/><tag k="addr:postcode" v="97206"/><tag k="addr:city" v="Portland"/><tag k="addr:street" v="Southeast 70th Avenue"/></node>
<node id="-22" lat="45.468135771" lon="-122.589965721" visible="true"><tag k="addr:housenumber" v="7610"/><tag k="addr:postcode" v="97206"/><tag k="addr:city" v="Portland"/><tag k="addr:street" v="Southeast 71st Avenue"/></node>
<node id="-23" lat="45.468134608" lon="-122.589960707" visible="true"><tag k="addr:housenumber" v="7618"/><tag k="addr:postcode" v="97206"/><tag k="addr:city" v="Portland"/><tag k="addr:street" v="Southeast 71st Avenue"/></node>
<node id="-24" lat="45.468134963" lon="-122.589965831" visible="true"><tag k="addr:housenumber" v="7626"/><tag k="addr:postcode" v="97206"/><tag k="addr:city" v="Portland"/><tag k="addr:street" v="Southeast 71st Avenue"/></node>
<node id="-25" lat="45.468138388" lon="-122.589958723" visible="true"><tag k="addr:housenumber" v="7642"/><tag k="addr:postcode" v="97206"/><tag k="addr:city" v="Portland"/><tag k="addr:street" v="Southeast 71st Avenue"/></node>
<node id="-26" lat="45.46813543" lon="-122.589963364" visible="true"><tag k="addr:housenumber" v="7613"/><tag k="addr:postcode" v="97206"/><tag k="addr:city" v="Portland"/><tag k="addr:street" v="Southeast 72nd Avenue"/></node>
<node id="-27" lat="45.468142125" lon="-122.589964705" visible="true"><tag k="addr:housenumber" v="7621"/><tag k="addr:postcode" v="97206"/><tag k="addr:city" v="Portland"/><tag k="addr:street" v="Southeast 72nd Avenue"/></node>
<node id="-28" lat="45.468135311" lon="-122.589958867" visible="true"><tag k="addr:housenumber" v="7627"/><tag k="addr:postcode" v="97206"/><tag k="addr:city" v="Portland"/><tag k="addr:street" v="Southeast 72nd Avenue"/></node>
<node id="-29" lat="45.466929295" lon="-122.590117673" visible="true"><tag k="addr:housenumber" v="7771"/><tag k="addr:postcode" v="97206"/><tag k="addr:city" v="Portland"/><tag k="addr:street" v="Southeast 72nd Avenue"/></node>
<node id="-30" lat="45.466926369" lon="-122.590117521" visible="true"><tag k="addr:housenumber" v="7773"/><tag k="addr:postcode" v="97206"/><tag k="addr:city" v="Portland"/><tag k="addr:street" v="Southeast 72nd Avenue"/></node>
<node id="-31" lat="45.466560309" lon="-122.589658433" visible="true"><tag k="addr:housenumber" v="7857"/><tag k="addr:postcode" v="97206"/><tag k="addr:city" v="Portland"/><tag k="addr:street" v="Southeast 72nd Avenue"/></node>
<node id="-32" lat="45.466560122" lon="-122.589664621" visible="true"><tag k="addr:housenumber" v="7858"/><tag k="addr:postcode" v="97206"/><tag k="addr:city" v="Portland"/><tag k="addr:street" v="Southeast 72nd Avenue"/></node>
<node id="-33" lat="45.461727575" lon="-122.597413798" visible="true"><tag k="addr:housenumber" v="6403"/><tag k="addr:postcode" v="97206"/><tag k="addr:city" v="Portland"/><tag k="addr:street" v="Southeast Clatsop Street"/></node>
<node id="-34" lat="45.461728223" lon="-122.597408737" visible="true"><tag k="addr:housenumber" v="6407"/><tag k="addr:postcode" v="97206"/><tag k="addr:city" v="Portland"/><tag k="addr:street" v="Southeast Clatsop Street"/></node>
<node id="-35" lat="45.468143143" lon="-122.589966162" visible="true"><tag k="addr:housenumber" v="7120"/><tag k="addr:postcode" v="97206"/><tag k="addr:city" v="Portland"/><tag k="addr:street" v="Southeast Flavel Street"/></node>
<node id="-36" lat="45.468144042" lon="-122.589961544" visible="true"><tag k="addr:housenumber" v="7128"/><tag k="addr:postcode" v="97206"/><tag k="addr:city" v="Portland"/><tag k="addr:street" v="Southeast Flavel Street"/></node>
<node id="-37" lat="45.468134615" lon="-122.589962493" visible="true"><tag k="addr:housenumber" v="7136"/><tag k="addr:postcode" v="97206"/><tag k="addr:city" v="Portland"/><tag k="addr:street" v="Southeast Flavel Street"/></node>
<node id="-38" lat="45.468144124" lon="-122.58995813" visible="true"><tag k="addr:housenumber" v="7140"/><tag k="addr:postcode" v="97206"/><tag k="addr:city" v="Portland"/><tag k="addr:street" v="Southeast Flavel Street"/></node>
<node id="-39" lat="45.463097481" lon="-122.590783595" visible="true"><tag k="addr:housenumber" v="7048"/><tag k="addr:postcode" v="97206"/><tag k="addr:city" v="Portland"/><tag k="addr:street" v="Southeast Harney Street"/></node>
<node id="-40" lat="45.463098138" lon="-122.59078962" visible="true"><tag k="addr:housenumber" v="7052"/><tag k="addr:postcode" v="97206"/><tag k="addr:city" v="Portland"/><tag k="addr:street" v="Southeast Harney Street"/></node>
<node id="-41" lat="45.467167508" lon="-122.597621559" visible="true"><tag k="addr:housenumber" v="6408"/><tag k="addr:postcode" v="97206"/><tag k="addr:city" v="Portland"/><tag k="addr:street" v="Southeast Lambert Street"/></node>
<node id="-42" lat="45.462513972" lon="-122.597880893" visible="true"><tag k="addr:housenumber" v="6333"/><tag k="addr:postcode" v="97206"/><tag k="addr:city" v="Portland"/><tag k="addr:street" v="Southeast Sherrett Street"/></node>
<node id="-43" lat="45.462547414" lon="-122.59155524" visible="true"><tag k="addr:housenumber" v="7017"/><tag k="addr:postcode" v="97206"/><tag k="addr:city" v="Portland"/><tag k="addr:street" v="Southeast Sherrett Street"/></node>
<node id="-44" lat="45.462548999" lon="-122.591563557" visible="true"><tag k="addr:housenumber" v="7019"/><tag k="addr:postcode" v="97206"/><tag k="addr:city" v="Portland"/><tag k="addr:street" v="Southeast Sherrett Street"/></node>
<node id="-45" lat="45.462207938" lon="-122.589978332" visible="true"><tag k="addr:housenumber" v="7110"/><tag k="addr:postcode" v="97206"/><tag k="addr:city" v="Portland"/><tag k="addr:street" v="Southeast Sherrett Street"/></node>
<node id="-46" lat="45.46221194" lon="-122.5899759" visible="true"><tag k="addr:housenumber" v="7116"/><tag k="addr:postcode" v="97206"/><tag k="addr:city" v="Portland"/><tag k="addr:street" v="Southeast Sherrett Street"/></node>
<node id="-47" lat="45.464378443" lon="-122.590524615" visible="true"><tag k="addr:housenumber" v="7033"/><tag k="addr:postcode" v="97206"/><tag k="addr:city" v="Portland"/><tag k="addr:street" v="Southeast Tenino Street"/></node>
<node id="-48" lat="45.464380794" lon="-122.590523918" visible="true"><tag k="addr:housenumber" v="7035"/><tag k="addr:postcode" v="97206"/><tag k="addr:city" v="Portland"/><tag k="addr:street" v="Southeast Tenino Street"/></node>
<node id="-49" lat="45.464377285" lon="-122.590259205" visible="true"><tag k="addr:housenumber" v="7047"/><tag k="addr:postcode" v="97206"/><tag k="addr:city" v="Portland"/><tag k="addr:street" v="Southeast Tenino Street"/></node>
<node id="-50" lat="45.464382157" lon="-122.590262936" visible="true"><tag k="addr:housenumber" v="7049"/><tag k="addr:postcode" v="97206"/><tag k="addr:city" v="Portland"/><tag k="addr:street" v="Southeast Tenino Street"/></node>
</osm>