<?xml version="1.0"?>
<osm version="0.6" upload="false" generator="uvmogr2osm">
<node id="-1" lat="45.504285357" lon="-122.615164947" visible="true"><tag k="addr:housenumber" v="4603"/><tag k="addr:postcode" v="97206"/><tag k="addr:city" v="Portland"/><tag k="addr:street" v="Northeast 10th Avenue"/></node>
<node id="-2" lat="45.504285837" lon="-122.614972376" visible="true"><tag k="addr:housenumber" v="4613"/><tag k="addr:postcode" v="97206"/><tag k="addr:city" v="Portland"/><tag k="addr:street" v="Northeast 10th Avenue"/></node>
<node id="-3" lat="45.498504655" lon="-122.609812467" visible="true"><tag k="addr:housenumber" v="1326"/><tag k="addr:postcode" v="97214"/><tag k="addr:city" v="Portland"/><tag k="addr:street" v="Southeast 39th Avenue"/></node>
<node id="-4" lat="45.497769952" lon="-122.616128032" visible="true"><tag k="addr:housenumber" v="3428"/><tag k="addr:postcode" v="97206"/><tag k="addr:city" v="Portland"/><tag k="addr:street" v="Southeast 45th Avenue"/></node>
<node id="-5" lat="45.497772038" lon="-122.616130878" visible="true"><tag k="addr:housenumber" v="3430"/><tag k="addr:postcode" v="97206"/><tag k="addr:city" v="Portland"/><tag k="addr:street" v="Southeast 45th Avenue"/></node>
<node id="-6" lat="45.497778335" lon="-122.616129122" visible="true"><tag k="addr:housenumber" v="3432"/><tag k="addr:postcode" v="97206"/><tag k="addr:city" v="Portland"/><tag k="addr:street" v="Southeast 45th Avenue"/></node>
<node id="-7" lat="45.497773927" lon="-122.616132773" visible="true"><tag k="addr:housenumber" v="3434"/><tag k="addr:postcode" v="97206"/><tag k="addr:city" v="Portland"/><tag k="addr:street" v="Southeast 45th Avenue"/></node>
<node id="-8" lat="45.501975249" lon="-122.613703612" visible="true"><tag k="addr:housenumber" v="2835"/><tag k="addr:postcode" v="97206"/><tag k="addr:city" v="Portland"/><tag k="addr:street" v="Southeast 47th Avenue"/></node>
<node id="-9" lat="45.501974918" lon="-122.613705174" visible="true"><tag k="addr:housenumber" v="2836"/><tag k="addr:postcode" v="97206"/><tag k="addr:city" v="Portland"/><tag k="addr:street" v="Southeast 47th Avenue"/></node>
<node id="-10" lat="45.503265364" lon="-122.611711096" visible="true"><tag k="addr:housenumber" v="2407"/><tag k="addr:postcode" v="97206"/><tag k="addr:city" v="Portland"/><tag k="addr:street" v="Southeast 49th Avenue"/></node>
<node id="-11" lat="45.503261433" lon="-122.611714053" visible="true"><tag k="addr:housenumber" v="2704"/><tag k="addr:postcode" v="97206"/><tag k="addr:city" v="Portland"/><tag k="addr:street" v="Southeast 49th Avenue"/></node>
<node id="-12" lat="45.501990244" lon="-122.610699006" visible="true"><tag k="addr:housenumber" v="2832"/><tag k="addr:postcode" v="97206"/><tag k="addr:city" v="Portland"/><tag k="addr:street" v="Southeast 50th Avenue"/></node>
<node id="-13" lat="45.501988215" lon="-122.610707319" visible="true"><tag k="addr:housenumber" v="2834"/><tag k="addr:postcode" v="97206"/><tag k="addr:city" v="Portland"/><tag k="addr:street" v="Southeast 50th Avenue"/></node>
<node id="-14" lat="45.501986343" lon="-122.610703052" visible="true"><tag k="addr:housenumber" v="2836"/><tag k="addr:postcode" v="97206"/><tag k="addr:city" v="Portland"/><tag k="addr:street" v="Southeast 50th Avenue"/></node>
<node id="-15" lat="45.501845854" lon="-122.610689847" visible="true"><tag k="addr:housenumber" v="2850"/><tag k="addr:postcode" v="97206"/><tag k="addr:city" v="Portland"/><tag k="addr:street" v="Southeast 50th Avenue"/></node>
<node id="-16" lat="45.501851383" lon="-122.610686465" visible="true"><tag k="addr:housenumber" v="2852"/><tag k="addr:postcode" v="97206"/><tag k="addr:city" v="Portland"/><tag k="addr:street" v="Southeast 50th Avenue"/></node>
<node id="-17" lat="45.501157179" lon="-122.610926641" visible="true"><tag k="addr:housenumber" v="2920"/><tag k="addr:postcode" v="97206"/><tag k="addr:city" v="Portland"/><tag k="addr:street" v="Southeast 50th Avenue"/></node>
<node id="-18" lat="45.501155617" lon="-122.610924836" visible="true"><tag k="addr:housenumber" v="2934"/><tag k="addr:postcode" v="97206"/><tag k="addr:city" v="Portland"/><tag k="addr:street" v="Southeast 50th Avenue"/></node>
<node id="-19" lat="45.500157727" lon="-122.61102127" visible="true"><tag k="addr:housenumber" v="3108"/><tag k="addr:postcode" v="97206"/><tag k="addr:city" v="Portland"/><tag k="addr:street" v="Southeast 50th Avenue"/></node>
<node id="-20" lat="45.500151608" lon="-122.611015092" visible="true"><tag k="addr:housenumber" v="3110"/><tag k="addr:postcode" v="97206"/><tag k="addr:city" v="Portland"/><tag k="addr:street" v="Southeast 50th Avenue"/></node>
<node id="-21" lat="45.499816399" lon="-122.61111984" visible="true"><tag k="addr:housenumber" v="3120"/><tag k="addr:postcode" v="97206"/><tag k="addr:city" v="Portland"/><tag k="addr:street" v="Southeast 50th Avenue"/></node>
<node id="-22" lat="45.499812297" lon="-122.611116167" visible="true"><tag k="addr:housenumber" v="3124"/><tag k="addr:postcode" v="97206"/><tag k="addr:city" v="Portland"/><tag k="addr:street" v="Southeast 50th Avenue"/></node>
<node id="-23" lat="45.499400222" lon="-122.61112118" visible="true"><tag k="addr:housenumber" v="3210"/><tag k="addr:postcode" v="97206"/><tag k="addr:city" v="Portland"/><tag k="addr:street" v="Southeast 50th Avenue"/></node>
<node id="-24" lat="45.499398361" lon="-122.611114744" visible="true"><tag k="addr:housenumber" v="3214"/><tag k="addr:postcode" v="97206"/><tag k="addr:city" v="Portland"/><tag k="addr:street" v="Southeast 50th Avenue"/></node>
<node id="-25" lat="45.500013429" lon="-122.609805759" visible="true"><tag k="addr:housenumber" v="3110"/><tag k="addr:postcode" v="97206"/><tag k="addr:city" v="Portland"/><tag k="addr:street" v="Southeast 51st Avenue"/></node>
<node id="-26" lat="45.50002014" lon="-122.609800252" visible="true"><tag k="addr:housenumber" v="3112"/><tag k="addr:postcode" v="97206"/><tag k="addr:city" v="Portland"/><tag k="addr:street" v="Southeast 51st Avenue"/></node>
<node id="-27" lat="45.498505089" lon="-122.609806061" visible="true"><tag k="addr:housenumber" v="3320"/><tag k="addr:postcode" v="97206"/><tag k="addr:city" v="Portland"/><tag k="addr:street" v="Southeast 51st Avenue"/></node>
<node id="-28" lat="45.501153119" lon="-122.615168597" visible="true"><tag k="addr:housenumber" v="4545 A"/><tag k="addr:postcode" v="97206"/><tag k="addr:city" v="Portland"/><tag k="addr:street" v="Southeast Brooklyn Street"/></node>
<node id="-29" lat="45.501164196" lon="-122.615336873" visible="true"><tag k="addr:housenumber" v="4545 B"/><tag k="addr:postcode" v="97206"/><tag k="addr:city" v="Portland"/><tag k="addr:street" v="Southeast Brooklyn Street"/></node>
<node id="-30" lat="45.501154208" lon="-122.613312229" visible="true"><tag k="addr:housenumber" v="4813"/><tag k="addr:postcode" v="97206"/><tag k="addr:city" v="Portland"/><tag k="addr:street" v="Southeast Brooklyn Street"/></node>
<node id="-31" lat="45.501150279" lon="-122.613313951" visible="true"><tag k="addr:housenumber" v="4815"/><tag k="addr:postcode" v="97206"/><tag k="addr:city" v="Portland"/><tag k="addr:street" v="Southeast Brooklyn Street"/></node>
<node id="-32" lat="45.501185579" lon="-122.612366382" visible="true"><tag k="addr:housenumber" v="4905"/><tag k="addr:postcode" v="97206"/><tag k="addr:city" v="Portland"/><tag k="addr:street" v="Southeast Brooklyn Street"/></node>
<node id="-33" lat="45.501179436" lon="-122.612368328" visible="true"><tag k="addr:housenumber" v="4907"/><tag k="addr:postcode" v="97206"/><tag k="addr:city" v="Portland"/><tag k="addr:street" v="Southeast Brooklyn Street"/></node>
<node id="-34" lat="45.501183213" lon="-122.61216995" visible="true"><tag k="addr:housenumber" v="4915"/><tag k="addr:postcode" v="97206"/><tag k="addr:city" v="Portland"/><tag k="addr:street" v="Southeast Brooklyn Street"/></node>
<node id="-35" lat="45.501177126" lon="-122.612174788" visible="true"><tag k="addr:housenumber" v="4917"/><tag k="addr:postcode" v="97206"/><tag k="addr:city" v="Portland"/><tag k="addr:street" v="Southeast Brooklyn Street"/></node>
<node id="-36" lat="45.501158752" lon="-122.610921784" visible="true"><tag k="addr:housenumber" v="5001"/><tag k="addr:postcode" v="97206"/><tag k="addr:city" v="Portland"/><tag k="addr:street" v="Southeast Brooklyn Street"/></node>
<node id="-37" lat="45.497773499" lon="-122.614054124" visible="true"><tag k="addr:housenumber" v="4717"/><tag k="addr:postcode" v="97206"/><tag k="addr:city" v="Portland"/><tag k="addr:street" v="Southeast Carlton Street"/></node>
<node id="-38" lat="45.497749377" lon="-122.609676298" visible="true"><tag k="addr:housenumber" v="5117"/><tag k="addr:postcode" v="97206"/><tag k="addr:city" v="Portland"/><tag k="addr:street" v="Southeast Carlton Street"/></node>
<node id="-39" lat="45.504603795" lon="-122.619190204" visible="true"><tag k="addr:housenumber" v="4160"/><tag k="addr:postcode" v="97202"/><tag k="addr:city" v="Portland"/><tag k="addr:street" v="Southeast Division Street"/></node>
<node id="-40" lat="45.504598925" lon="-122.619188134" visible="true"><tag k="addr:housenumber" v="4162"/><tag k="addr:postcode" v="97202"/><tag k="addr:city" v="Portland"/><tag k="addr:street" v="Southeast Division Street"/></node>
<node id="-41" lat="45.504323161" lon="-122.619189604" visible="true"><tag k="addr:housenumber" v="4153"/><tag k="addr:postcode" v="97202"/><tag k="addr:city" v="Portland"/><tag k="addr:street" v="Southeast Ivon Street"/></node>
<node id="-42" lat="45.504327284" lon="-122.619186099" visible="true"><tag k="addr:housenumber" v="4155"/><tag k="addr:postcode" v="97202"/><tag k="addr:city" v="Portland"/><tag k="addr:street" v="Southeast Ivon Street"/></node>
<node id="-43" lat="45.504325789" lon="-122.61918812" visible="true"><tag k="addr:housenumber" v="4157"/><tag k="addr:postcode" v="97202"/><tag k="addr:city" v="Portland"/><tag k="addr:street" v="Southeast Ivon Street"/></node>
<node id="-44" lat="45.504327347" lon="-122.619195656" visible="true"><tag k="addr:housenumber" v="4159"/><tag k="addr:postcode" v="97202"/><tag k="addr:city" v="Portland"/><tag k="addr:street" v="Southeast Ivon Street"/></node>
<node id="-45" lat="45.503863264" lon="-122.61871204" visible="true"><tag k="addr:housenumber" v="4218"/><tag k="addr:postcode" v="97206"/><tag k="addr:city" v="Portland"/><tag k="addr:street" v="Southeast Ivon Street"/></node>
<node id="-46" lat="45.50386089" lon="-122.618708326" visible="true"><tag k="addr:housenumber" v="4220"/><tag k="addr:postcode" v="97206"/><tag k="addr:city" v="Portland"/><tag k="addr:street" v="Southeast Ivon Street"/></node>
<node id="-47" lat="45.504288284" lon="-122.616525766" visible="true"><tag k="addr:housenumber" v="4423"/><tag k="addr:postcode" v="97206"/><tag k="addr:city" v="Portland"/><tag k="addr:street" v="Southeast Ivon Street"/></node>
<node id="-48" lat="45.504289738" lon="-122.616529432" visible="true"><tag k="addr:housenumber" v="4425"/><tag k="addr:postcode" v="97206"/><tag k="addr:city" v="Portland"/><tag k="addr:street" v="Southeast Ivon Street"/></node>
<node id="-49" lat="45.50428696" lon="-122.615168603" visible="true"><tag k="addr:housenumber" v="4603"/><tag k="addr:postcode" v="97206"/><tag k="addr:city" v="Portland"/><tag k="addr:street" v="Southeast Ivon Street"/></node>
<node id="-50" lat="45.504283155" lon="-122.61497519" visible="true"><tag k="addr:housenumber" v="4613"/><tag k="addr:postcode" v="97206"/><tag k="addr:city" v="Portland"/><tag k="addr:street" v="Southeast Ivon Street"/></node>
<node id="-51" lat="45.499815133" lon="-122.613528591" visible="true"><tag k="addr:housenumber" v="4803"/><tag k="addr:postcode" v="97206"/><tag k="addr:city" v="Portland"/><tag k="addr:street" v="Southeast Kelly Street"/></node>
<node id="-52" lat="45.499816337" lon="-122.613529591" visible="true"><tag k="addr:housenumber" v="4807"/><tag k="addr:postcode" v="97206"/><tag k="addr:city" v="Portland"/><tag k="addr:street" v="Southeast Kelly Street"/></node>
<node id="-53" lat="45.497775497" lon="-122.614056359" visible="true"><tag k="addr:housenumber" v="4717"/><tag k="addr:postcode" v="97206"/><tag k="addr:city" v="Portland"/><tag k="addr:street" v="Southeast Powell Boulevard"/></node>
<node id="-54" lat="45.497698241" lon="-122.610490408" visible="true"><tag k="addr:housenumber" v="5031"/><tag k="addr:postcode" v="97206"/><tag k="addr:city" v="Portland"/><tag k="addr:street" v="Southeast Powell Boulevard"/></node>
<node id="-55" lat="45.497696377" lon="-122.610483458" visible="true"><tag k="addr:housenumber" v="5037"/><tag k="addr:postcode" v="97206"/><tag k="addr:city" v="Portland"/><tag k="addr:street" v="Southeast Powell Boulevard"/></node>
<node id="-56" lat="45.497752506" lon="-122.609670788" visible="true"><tag k="addr:housenumber" v="5117"/><tag k="addr:postcode" v="97206"/><tag k="addr:city" v="Portland"/><tag k="addr:street" v="Southeast Powell Boulevard"/></node>
<node id="-57" lat="45.502873088" lon="-122.619785012" visible="true"><tag k="addr:housenumber" v="4123"/><tag k="addr:postcode" v="97202"/><tag k="addr:city" v="Portland"/><tag k="addr:street" v="Southeast Taggart Street"/></node>
<node id="-58" lat="45.50287524" lon="-122.619791475" visible="true"><tag k="addr:housenumber" v="4125"/><tag k="addr:postcode" v="97202"/><tag k="addr:city" v="Portland"/><tag k="addr:street" v="Southeast Taggart Street"/></node>
<node id="-59" lat="45.500787765" lon="-122.616877687" visible="true"><tag k="addr:housenumber" v="4421"/><tag k="addr:postcode" v="97206"/><tag k="addr:city" v="Portland"/><tag k="addr:street" v="Southeast Tibbetts Street"/></node>
<node id="-60" lat="45.500782932" lon="-122.616882555" visible="true"><tag k="addr:housenumber" v="4429"/><tag k="addr:postcode" v="97206"/><tag k="addr:city" v="Portland"/><tag k="addr:street" v="Southeast Tibbetts Street"/></node>
<node id="-61" lat="45.500502362" lon="-122.611778468" visible="true"><tag k="addr:housenumber" v="4925"/><tag k="addr:postcode" v="97206"/><tag k="addr:city" v="Portland"/><tag k="addr:street" v="Southeast Tibbetts Street"/></node>
<node id="-62" lat="45.500502044" lon="-122.611783051" visible="true"><tag k="addr:housenumber" v="4927"/><tag k="addr:postcode" v="97206"/><tag k="addr:city" v="Portland"/><tag k="addr:street" v="Southeast Tibbetts Street"/></node>
<node id="-63" lat="45.500498027" lon="-122.611781811" visible="true"><tag k="addr:housenumber" v="4933"/><tag k="addr:postcode" v="97206"/><tag k="addr:city" v="Portland"/><tag k="addr:street" v="Southeast Tibbetts Street"/></node>
<node id="-64" lat="45.500435694" lon="-122.609802552" visible="true"><tag k="addr:housenumber" v="5105"/><tag k="addr:postcode" v="97206"/><tag k="addr:city" v="Portland"/><tag k="addr:street" v="Southeast Tibbetts Street"/></node>
<node id="-65" lat="45.500429877" lon="-122.609800741" visible="true"><tag k="addr:housenumber" v="5109"/><tag k="addr:postcode" v="97206"/><tag k="addr:city" v="Portland"/><tag k="addr:street" v="Southeast Tibbetts Street"/></node>
<node id="-66" lat="45.501716772" lon="-122.615965396" visible="true"><tag k="addr:housenumber" v="4514"/><tag k="addr:postcode" v="97206"/><tag k="addr:city" v="Portland"/><tag k="addr:street" v="Southeast Woodward Street"/></node>
<node id="-67" lat="45.501716653" lon="-122.615968512" visible="true"><tag k="addr:housenumber" v="4516"/><tag k="addr:postcode" v="97206"/><tag k="addr:city" v="Portland"/><tag k="addr:street" v="Southeast Woodward Street"/></node>
<node id="-68" lat="45.501445781" lon="-122.612369515" visible="true"><tag k="addr:housenumber" v="4822"/><tag k="addr:postcode" v="97206"/><tag k="addr:city" v="Portland"/><tag k="addr:street" v="Southeast Woodward Street"/></node>
<node id="-69" lat="45.50144825" lon="-122.612367463" visible="true"><tag k="addr:housenumber" v="4824"/><tag k="addr:postcode" v="97206"/><tag k="addr:city" v="Portland"/><tag k="addr:street" v="Southeast Woodward Street"/></node>
<node id="-70" lat="45.501452095" lon="-122.612169816" visible="true"><tag k="addr:housenumber" v="4832"/><tag k="addr:postcode" v="97206"/><tag k="addr:city" v="Portland"/><tag k="addr:street" v="Southeast Woodward Street"/></node>
<node id="-71" lat="45.501452711" lon="-122.61217102" visible="true"><tag k="addr:housenumber" v="4834"/><tag k="addr:postcode" v="97206"/><tag k="addr:city" v="Portland"/><tag k="addr:street" v="Southeast Woodward Street"/></node>
<node id="-72" lat="45.501340214" lon="-122.61079477" visible="true"><tag k="addr:housenumber" v="5002"/><tag k="addr:postcode" v="97206"/><tag k="addr:city" v="Portland"/><tag k="addr:street" v="Southeast Woodward Street"/></node>
<node id="-73" lat="45.501342376" lon="-122.61079017" visible="true"><tag k="addr:housenumber" v="5004"/><tag k="addr:postcode" v="97206"/><tag k="addr:city" v="Portland"/><tag k="addr:street" v="Southeast Woodward Street"/></node>
<node id="-74" lat="45.501712572" lon="-122.610700026" visible="true"><tag k="addr:housenumber" v="5005"/><tag k="addr:postcode" v="97206"/><tag k="addr:city" v="Portland"/><tag k="addr:street" v="Southeast Woodward Street"/></node>
<node id="-75" lat="45.501716362" lon="-122.610701184" visible="true"><tag k="addr:housenumber" v="5007"/><tag k="addr:postcode" v="97206"/><tag k="addr:city" v="Portland"/><tag k="addr:street" v="Southeast Woodward Street"/></node>
</osm>