<?xml version="1.0"?>
<osm version="0.6" upload="false" generator="uvmogr2osm">
<node id="-1" lat="45.471323734" lon="-122.352873091" visible="true"><tag k="addr:housenumber" v="7125"/><tag k="addr:postcode" v="97080"/><tag k="addr:city" v="Gresham"/><tag k="addr:street" v="Southeast 302nd Avenue"/></node>
<node id="-2" lat="45.471330225" lon="-122.352878683" visible="true"><tag k="addr:housenumber" v="30064"/><tag k="addr:postcode" v="97080"/><tag k="addr:city" v="Gresham"/><tag k="addr:street" v="Southeast Harris Place"/></node>
<node id="-3" lat="45.470248929" lon="-122.332890301" visible="true"><tag k="addr:housenumber" v="32048"/><tag k="addr:postcode" v="97080"/><tag k="addr:city" v="Gresham"/><tag k="addr:street" v="Southeast Mally Road"/></node>
<node id="-4" lat="45.470249142" lon="-122.332890165" visible="true"><tag k="addr:housenumber" v="32043"/><tag k="addr:postcode" v="97080"/><tag k="addr:city" v="Gresham"/><tag k="addr:street" v="Southeast Proctor Street"/></node>
</osm>