<?xml version="1.0"?>
<osm version="0.6" upload="false" generator="uvmogr2osm">
<node id="-1" lat="45.588065852" lon="-122.705098065" visible="true"><tag k="addr:housenumber" v="3737"/><tag k="addr:postcode" v="97217"/><tag k="addr:city" v="Portland"/><tag k="addr:street" v="North Alaska Street"/></node>
<node id="-2" lat="45.588065687" lon="-122.705092083" visible="true"><tag k="addr:housenumber" v="9010"/><tag k="addr:postcode" v="97217"/><tag k="addr:city" v="Portland"/><tag k="addr:street" v="North Chautauqua Boulevard"/></node>
<node id="-3" lat="45.591372189" lon="-122.703604707" visible="true"><tag k="addr:housenumber" v="3591"/><tag k="addr:postcode" v="97217"/><tag k="addr:city" v="Portland"/><tag k="addr:street" v="North Columbia Boulevard"/></node>
<node id="-4" lat="45.591375118" lon="-122.703607467" visible="true"><tag k="addr:housenumber" v="3607"/><tag k="addr:postcode" v="97217"/><tag k="addr:city" v="Portland"/><tag k="addr:street" v="North Columbia Boulevard"/></node>
<node id="-5" lat="45.594356218" lon="-122.719525853" visible="true"><tag k="addr:housenumber" v="5050"/><tag k="addr:postcode" v="97203"/><tag k="addr:city" v="Portland"/><tag k="addr:street" v="North Columbia Boulevard"/></node>
<node id="-6" lat="45.594359847" lon="-122.719526291" visible="true"><tag k="addr:housenumber" v="5050"/><tag k="addr:postcode" v="97203"/><tag k="addr:city" v="Portland"/><tag k="addr:street" v="North Columbia Court"/></node>
<node id="-7" lat="45.585953218" lon="-122.712699257" visible="true"><tag k="addr:housenumber" v="8727"/><tag k="addr:postcode" v="97203"/><tag k="addr:city" v="Portland"/><tag k="addr:street" v="North Dana Avenue"/></node>
<node id="-8" lat="45.585952768" lon="-122.71270758" visible="true"><tag k="addr:housenumber" v="8737"/><tag k="addr:postcode" v="97203"/><tag k="addr:city" v="Portland"/><tag k="addr:street" v="North Dana Avenue"/></node>
<node id="-9" lat="45.607800885" lon="-122.694418568" visible="true"><tag k="addr:housenumber" v="11645"/><tag k="addr:postcode" v="97217"/><tag k="addr:city" v="Portland"/><tag k="addr:street" v="North Force Avenue"/></node>
<node id="-10" lat="45.607800599" lon="-122.69442069" visible="true"><tag k="addr:housenumber" v="11699"/><tag k="addr:postcode" v="97217"/><tag k="addr:city" v="Portland"/><tag k="addr:street" v="North Force Avenue"/></node>
<node id="-11" lat="45.615774697" lon="-122.691634566" visible="true"><tag k="addr:housenumber" v="2404"/><tag k="addr:postcode" v="97217"/><tag k="addr:city" v="Portland"/><tag k="addr:street" v="North Hayden Island Drive"/></node>
<node id="-12" lat="45.615777905" lon="-122.69163009" visible="true"><tag k="addr:housenumber" v="2408"/><tag k="addr:postcode" v="97217"/><tag k="addr:city" v="Portland"/><tag k="addr:street" v="North Hayden Island Drive"/></node>
<node id="-13" lat="45.615779338" lon="-122.691631178" visible="true"><tag k="addr:housenumber" v="2410"/><tag k="addr:postcode" v="97217"/><tag k="addr:city" v="Portland"/><tag k="addr:street" v="North Hayden Island Drive"/></node>
<node id="-14" lat="45.61577672" lon="-122.691634488" visible="true"><tag k="addr:housenumber" v="2412"/><tag k="addr:postcode" v="97217"/><tag k="addr:city" v="Portland"/><tag k="addr:street" v="North Hayden Island Drive"/></node>
<node id="-15" lat="45.615774505" lon="-122.691627557" visible="true"><tag k="addr:housenumber" v="2416"/><tag k="addr:postcode" v="97217"/><tag k="addr:city" v="Portland"/><tag k="addr:street" v="North Hayden Island Drive"/></node>
<node id="-16" lat="45.615772871" lon="-122.691630997" visible="true"><tag k="addr:housenumber" v="2420"/><tag k="addr:postcode" v="97217"/><tag k="addr:city" v="Portland"/><tag k="addr:street" v="North Hayden Island Drive"/></node>
<node id="-17" lat="45.617223501" lon="-122.692500502" visible="true"><tag k="addr:housenumber" v="2701"/><tag k="addr:postcode" v="97217"/><tag k="addr:city" v="Portland"/><tag k="addr:street" v="North Hayden Island Drive"/></node>
<node id="-18" lat="45.617221574" lon="-122.69250088" visible="true"><tag k="addr:housenumber" v="2705"/><tag k="addr:postcode" v="97217"/><tag k="addr:city" v="Portland"/><tag k="addr:street" v="North Hayden Island Drive"/></node>
<node id="-19" lat="45.617217789" lon="-122.692499879" visible="true"><tag k="addr:housenumber" v="2707"/><tag k="addr:postcode" v="97217"/><tag k="addr:city" v="Portland"/><tag k="addr:street" v="North Hayden Island Drive"/></node>
<node id="-20" lat="45.617224651" lon="-122.69250555" visible="true"><tag k="addr:housenumber" v="2709"/><tag k="addr:postcode" v="97217"/><tag k="addr:city" v="Portland"/><tag k="addr:street" v="North Hayden Island Drive"/></node>
<node id="-21" lat="45.617219192" lon="-122.692499396" visible="true"><tag k="addr:housenumber" v="2711"/><tag k="addr:postcode" v="97217"/><tag k="addr:city" v="Portland"/><tag k="addr:street" v="North Hayden Island Drive"/></node>
<node id="-22" lat="45.617221523" lon="-122.692502437" visible="true"><tag k="addr:housenumber" v="2715"/><tag k="addr:postcode" v="97217"/><tag k="addr:city" v="Portland"/><tag k="addr:street" v="North Hayden Island Drive"/></node>
<node id="-23" lat="45.617216707" lon="-122.692500512" visible="true"><tag k="addr:housenumber" v="2717"/><tag k="addr:postcode" v="97217"/><tag k="addr:city" v="Portland"/><tag k="addr:street" v="North Hayden Island Drive"/></node>
<node id="-24" lat="45.617216889" lon="-122.692502136" visible="true"><tag k="addr:housenumber" v="2719"/><tag k="addr:postcode" v="97217"/><tag k="addr:city" v="Portland"/><tag k="addr:street" v="North Hayden Island Drive"/></node>
<node id="-25" lat="45.584928265" lon="-122.709525023" visible="true"><tag k="addr:housenumber" v="8605"/><tag k="addr:postcode" v="97203"/><tag k="addr:city" v="Portland"/><tag k="addr:street" v="North Hurst Avenue"/></node>
<node id="-26" lat="45.584936033" lon="-122.709523326" visible="true"><tag k="addr:housenumber" v="8607"/><tag k="addr:postcode" v="97203"/><tag k="addr:city" v="Portland"/><tag k="addr:street" v="North Hurst Avenue"/></node>
<node id="-27" lat="45.584932713" lon="-122.709522815" visible="true"><tag k="addr:housenumber" v="8609"/><tag k="addr:postcode" v="97203"/><tag k="addr:city" v="Portland"/><tag k="addr:street" v="North Hurst Avenue"/></node>
<node id="-28" lat="45.590982829" lon="-122.707574261" visible="true"><tag k="addr:housenumber" v="3917"/><tag k="addr:postcode" v="97217"/><tag k="addr:city" v="Portland"/><tag k="addr:street" v="North Juneau Street"/></node>
<node id="-29" lat="45.590982121" lon="-122.707576258" visible="true"><tag k="addr:housenumber" v="3919"/><tag k="addr:postcode" v="97217"/><tag k="addr:city" v="Portland"/><tag k="addr:street" v="North Juneau Street"/></node>
<node id="-30" lat="45.590984539" lon="-122.707577228" visible="true"><tag k="addr:housenumber" v="3921"/><tag k="addr:postcode" v="97217"/><tag k="addr:city" v="Portland"/><tag k="addr:street" v="North Juneau Street"/></node>
<node id="-31" lat="45.590984132" lon="-122.707574005" visible="true"><tag k="addr:housenumber" v="3923"/><tag k="addr:postcode" v="97217"/><tag k="addr:city" v="Portland"/><tag k="addr:street" v="North Juneau Street"/></node>
<node id="-32" lat="45.590987325" lon="-122.707574383" visible="true"><tag k="addr:housenumber" v="3927"/><tag k="addr:postcode" v="97217"/><tag k="addr:city" v="Portland"/><tag k="addr:street" v="North Juneau Street"/></node>
<node id="-33" lat="45.590990204" lon="-122.707569551" visible="true"><tag k="addr:housenumber" v="3931"/><tag k="addr:postcode" v="97217"/><tag k="addr:city" v="Portland"/><tag k="addr:street" v="North Juneau Street"/></node>
<node id="-34" lat="45.610600217" lon="-122.697563539" visible="true"><tag k="addr:housenumber" v="2932"/><tag k="addr:postcode" v="97217"/><tag k="addr:city" v="Portland"/><tag k="addr:street" v="North Marine Drive"/></node>
<node id="-35" lat="45.610598867" lon="-122.697563742" visible="true"><tag k="addr:housenumber" v="2985"/><tag k="addr:postcode" v="97217"/><tag k="addr:city" v="Portland"/><tag k="addr:street" v="North Marine Drive"/></node>
<node id="-36" lat="45.615201374" lon="-122.707462683" visible="true"><tag k="addr:housenumber" v="3939"/><tag k="addr:postcode" v="97217"/><tag k="addr:city" v="Portland"/><tag k="addr:street" v="North Marine Drive"/></node>
<node id="-37" lat="45.615786796" lon="-122.716163602" visible="true"><tag k="addr:housenumber" v="4949"/><tag k="addr:postcode" v="97203"/><tag k="addr:city" v="Portland"/><tag k="addr:street" v="North Marine Drive"/></node>
<node id="-38" lat="45.617922976" lon="-122.719619983" visible="true"><tag k="addr:housenumber" v="5235"/><tag k="addr:postcode" v="97203"/><tag k="addr:city" v="Portland"/><tag k="addr:street" v="North Marine Drive"/></node>
<node id="-39" lat="45.617922796" lon="-122.719617893" visible="true"><tag k="addr:housenumber" v="5250"/><tag k="addr:postcode" v="97217"/><tag k="addr:city" v="Portland"/><tag k="addr:street" v="North Marine Drive"/></node>
<node id="-40" lat="45.615788439" lon="-122.716164769" visible="true"><tag k="addr:housenumber" v="5300"/><tag k="addr:postcode" v="97203"/><tag k="addr:city" v="Portland"/><tag k="addr:street" v="North Marine Drive"/></node>
<node id="-41" lat="45.593368938" lon="-122.72133707" visible="true"><tag k="addr:housenumber" v="9739"/><tag k="addr:postcode" v="97203"/><tag k="addr:city" v="Portland"/><tag k="addr:street" v="North Portsmouth Avenue"/></node>
<node id="-42" lat="45.593364685" lon="-122.721327685" visible="true"><tag k="addr:housenumber" v="9743"/><tag k="addr:postcode" v="97203"/><tag k="addr:city" v="Portland"/><tag k="addr:street" v="North Portsmouth Avenue"/></node>
<node id="-43" lat="45.615208043" lon="-122.707466049" visible="true"><tag k="addr:housenumber" v="3939"/><tag k="addr:postcode" v="97217"/><tag k="addr:city" v="Portland"/><tag k="addr:street" v="North Suttle Road"/></node>
<node id="-44" lat="45.585949867" lon="-122.711626877" visible="true"><tag k="addr:housenumber" v="8733"/><tag k="addr:postcode" v="97203"/><tag k="addr:city" v="Portland"/><tag k="addr:street" v="North Wayland Avenue"/></node>
<node id="-45" lat="45.585955571" lon="-122.711623971" visible="true"><tag k="addr:housenumber" v="8737"/><tag k="addr:postcode" v="97203"/><tag k="addr:city" v="Portland"/><tag k="addr:street" v="North Wayland Avenue"/></node>
</osm>