<?xml version="1.0"?>
<osm version="0.6" upload="false" generator="uvmogr2osm">
<node id="-1" lat="45.515136469" lon="-122.210799354" visible="true"><tag k="addr:housenumber" v="43999"/><tag k="addr:postcode" v="97019"/><tag k="addr:city" v="Corbett"/><tag k="addr:street" v="East Larch Mountain Road"/></node>
<node id="-2" lat="45.515140966" lon="-122.210797552" visible="true"><tag k="addr:housenumber" v="45201"/><tag k="addr:postcode" v="97019"/><tag k="addr:city" v="Corbett"/><tag k="addr:street" v="East Larch Mountain Road"/></node>
<node id="-3" lat="45.607236591" lon="-122.036909549" visible="true"><tag k="addr:housenumber" v="60758"/><tag k="addr:postcode" v="97014"/><tag k="addr:city" v="Bridal Veil"/><tag k="addr:street" v="Northeast Enquist Place"/></node>
<node id="-4" lat="45.607241338" lon="-122.036904968" visible="true"><tag k="addr:housenumber" v="60790"/><tag k="addr:postcode" v="97014"/><tag k="addr:city" v="Bridal Veil"/><tag k="addr:street" v="Northeast Enquist Place"/></node>
<node id="-5" lat="45.60629013" lon="-122.035136206" visible="true"><tag k="addr:housenumber" v="60980"/><tag k="addr:postcode" v="97014"/><tag k="addr:city" v="Bridal Veil"/><tag k="addr:street" v="Northeast Frontage Road"/></node>
<node id="-6" lat="45.60628302" lon="-122.035133593" visible="true"><tag k="addr:housenumber" v="60992"/><tag k="addr:postcode" v="97014"/><tag k="addr:city" v="Bridal Veil"/><tag k="addr:street" v="Northeast Frontage Road"/></node>
<node id="-7" lat="45.610874572" lon="-122.028469605" visible="true"><tag k="addr:housenumber" v="61703"/><tag k="addr:postcode" v="97014"/><tag k="addr:city" v="Cascade Locks"/><tag k="addr:street" v="Northeast Tumalt Road"/></node>
<node id="-8" lat="45.610874789" lon="-122.028467124" visible="true"><tag k="addr:housenumber" v="61711"/><tag k="addr:postcode" v="97014"/><tag k="addr:city" v="Cascade Locks"/><tag k="addr:street" v="Northeast Tumalt Road"/></node>
<node id="-9" lat="45.480344541" lon="-122.212533041" visible="true"><tag k="addr:housenumber" v="43700"/><tag k="addr:postcode" v="97019"/><tag k="addr:city" v="Corbett"/><tag k="addr:street" v="Southeast Trout Creek Road"/></node>
<node id="-10" lat="45.480344491" lon="-122.212540511" visible="true"><tag k="addr:housenumber" v="43800"/><tag k="addr:postcode" v="97019"/><tag k="addr:city" v="Corbett"/><tag k="addr:street" v="Southeast Trout Creek Road"/></node>
<node id="-11" lat="45.48034542" lon="-122.212531456" visible="true"><tag k="addr:housenumber" v="43900"/><tag k="addr:postcode" v="97019"/><tag k="addr:city" v="Corbett"/><tag k="addr:street" v="Southeast Trout Creek Road"/></node>
</osm>