<?xml version="1.0"?>
<osm version="0.6" upload="false" generator="uvmogr2osm">
<node id="-1" lat="45.448057654" lon="-122.685776189" visible="true"><tag k="addr:housenumber" v="10711"/><tag k="addr:postcode" v="97219"/><tag k="addr:city" v="Portland"/><tag k="addr:street" v="Southwest 6th Place"/></node>
<node id="-2" lat="45.448051654" lon="-122.68577499" visible="true"><tag k="addr:housenumber" v="10654"/><tag k="addr:postcode" v="97219"/><tag k="addr:city" v="Portland"/><tag k="addr:street" v="Southwest Boones Ferry Road"/></node>
<node id="-3" lat="45.447514564" lon="-122.685885324" visible="true"><tag k="addr:housenumber" v="10722"/><tag k="addr:postcode" v="97219"/><tag k="addr:city" v="Portland"/><tag k="addr:street" v="Southwest Boones Ferry Road"/></node>
<node id="-4" lat="45.444051357" lon="-122.686977672" visible="true"><tag k="addr:housenumber" v="11231"/><tag k="addr:postcode" v="97219"/><tag k="addr:city" v="Portland"/><tag k="addr:street" v="Southwest Boones Ferry Road"/></node>
<node id="-5" lat="45.447518115" lon="-122.685876616" visible="true"><tag k="addr:housenumber" v="626"/><tag k="addr:postcode" v="97219"/><tag k="addr:city" v="Portland"/><tag k="addr:street" v="Southwest Comus Court"/></node>
<node id="-6" lat="45.453283683" lon="-122.68458874" visible="true"><tag k="addr:housenumber" v="541"/><tag k="addr:postcode" v="97219"/><tag k="addr:city" v="Portland"/><tag k="addr:street" v="Southwest Maplecrest Court"/></node>
<node id="-7" lat="45.453287464" lon="-122.684581352" visible="true"><tag k="addr:housenumber" v="545"/><tag k="addr:postcode" v="97219"/><tag k="addr:city" v="Portland"/><tag k="addr:street" v="Southwest Maplecrest Court"/></node>
<node id="-8" lat="45.444046369" lon="-122.686986059" visible="true"><tag k="addr:housenumber" v="828"/><tag k="addr:postcode" v="97219"/><tag k="addr:city" v="Portland"/><tag k="addr:street" v="Southwest Trillium Lane"/></node>
</osm>