<?xml version="1.0"?>
<osm version="0.6" upload="false" generator="uvmogr2osm">
<node id="-1" lat="45.420521413" lon="-122.672406957" visible="true"><tag k="addr:housenumber" v="765"/><tag k="addr:postcode" v="97034"/><tag k="addr:city" v="Lake Oswego"/><tag k="addr:street" v="A Avenue"/></node>
<node id="-2" lat="45.420546834" lon="-122.67258898" visible="true"><tag k="addr:housenumber" v="785"/><tag k="addr:postcode" v="97034"/><tag k="addr:city" v="Lake Oswego"/><tag k="addr:street" v="A Avenue"/></node>
<node id="-3" lat="45.431209273" lon="-122.680330146" visible="true"><tag k="addr:housenumber" v="1500"/><tag k="addr:postcode" v="97034"/><tag k="addr:city" v="Lake Oswego"/><tag k="addr:street" v="Boca Ratan Drive"/></node>
<node id="-4" lat="45.431210815" lon="-122.680322913" visible="true"><tag k="addr:housenumber" v="3000"/><tag k="addr:postcode" v="97034"/><tag k="addr:city" v="Lake Oswego"/><tag k="addr:street" v="Boca Ratan Drive"/></node>
<node id="-5" lat="45.428260942" lon="-122.680271128" visible="true"><tag k="addr:housenumber" v="728"/><tag k="addr:postcode" v="97034"/><tag k="addr:city" v="Lake Oswego"/><tag k="addr:street" v="Boca Ratan Drive"/></node>
<node id="-6" lat="45.428205231" lon="-122.680270176" visible="true"><tag k="addr:housenumber" v="730"/><tag k="addr:postcode" v="97034"/><tag k="addr:city" v="Lake Oswego"/><tag k="addr:street" v="Boca Ratan Drive"/></node>
<node id="-7" lat="45.423321014" lon="-122.675846741" visible="true"><tag k="addr:housenumber" v="1057"/><tag k="addr:postcode" v="97034"/><tag k="addr:city" v="Lake Oswego"/><tag k="addr:street" v="C Avenue"/></node>
<node id="-8" lat="45.423366547" lon="-122.675960245" visible="true"><tag k="addr:housenumber" v="1059"/><tag k="addr:postcode" v="97034"/><tag k="addr:city" v="Lake Oswego"/><tag k="addr:street" v="C Avenue"/></node>
</osm>