<?xml version="1.0"?>
<osm version="0.6" upload="false" generator="uvmogr2osm">
<node id="-1" lat="45.414859049" lon="-122.568059472" visible="true"><tag k="addr:housenumber" v="14940"/><tag k="addr:postcode" v="97015"/><tag k="addr:city" v="Clackamas"/><tag k="addr:street" v="Southeast 82nd Drive"/></node>
<node id="-2" lat="45.414747936" lon="-122.567996578" visible="true"><tag k="addr:housenumber" v="14942"/><tag k="addr:postcode" v="97015"/><tag k="addr:city" v="Clackamas"/><tag k="addr:street" v="Southeast 82nd Drive"/></node>
<node id="-3" lat="45.414585734" lon="-122.567928676" visible="true"><tag k="addr:housenumber" v="14944"/><tag k="addr:postcode" v="97015"/><tag k="addr:city" v="Clackamas"/><tag k="addr:street" v="Southeast 82nd Drive"/></node>
<node id="-4" lat="45.408297486" lon="-122.563202757" visible="true"><tag k="addr:housenumber" v="15877"/><tag k="addr:postcode" v="97015"/><tag k="addr:city" v="Clackamas"/><tag k="addr:street" v="Southeast 98th Avenue"/></node>
<node id="-5" lat="45.408295929" lon="-122.563208284" visible="true"><tag k="addr:housenumber" v="15885"/><tag k="addr:postcode" v="97015"/><tag k="addr:city" v="Clackamas"/><tag k="addr:street" v="Southeast 98th Avenue"/></node>
<node id="-6" lat="45.406295051" lon="-122.562002419" visible="true"><tag k="addr:housenumber" v="16100"/><tag k="addr:postcode" v="97015"/><tag k="addr:city" v="Clackamas"/><tag k="addr:street" v="Southeast 98th Avenue"/></node>
<node id="-7" lat="45.406192311" lon="-122.562079698" visible="true"><tag k="addr:housenumber" v="16160"/><tag k="addr:postcode" v="97015"/><tag k="addr:city" v="Clackamas"/><tag k="addr:street" v="Southeast 98th Avenue"/></node>
<node id="-8" lat="45.406769732" lon="-122.565254552" visible="true"><tag k="addr:housenumber" v="16179"/><tag k="addr:postcode" v="97015"/><tag k="addr:city" v="Clackamas"/><tag k="addr:street" v="Southeast 98th Avenue"/></node>
<node id="-9" lat="45.406457303" lon="-122.565307612" visible="true"><tag k="addr:housenumber" v="16185"/><tag k="addr:postcode" v="97015"/><tag k="addr:city" v="Clackamas"/><tag k="addr:street" v="Southeast 98th Avenue"/></node>
<node id="-10" lat="45.40614606" lon="-122.565362332" visible="true"><tag k="addr:housenumber" v="16201"/><tag k="addr:postcode" v="97015"/><tag k="addr:city" v="Clackamas"/><tag k="addr:street" v="Southeast 98th Avenue"/></node>
<node id="-11" lat="45.405521978" lon="-122.564552376" visible="true"><tag k="addr:housenumber" v="16221"/><tag k="addr:postcode" v="97015"/><tag k="addr:city" v="Clackamas"/><tag k="addr:street" v="Southeast 98th Avenue"/></node>
<node id="-12" lat="45.405516885" lon="-122.564012683" visible="true"><tag k="addr:housenumber" v="16231"/><tag k="addr:postcode" v="97015"/><tag k="addr:city" v="Clackamas"/><tag k="addr:street" v="Southeast 98th Avenue"/></node>
<node id="-13" lat="45.405535815" lon="-122.563432995" visible="true"><tag k="addr:housenumber" v="16241"/><tag k="addr:postcode" v="97015"/><tag k="addr:city" v="Clackamas"/><tag k="addr:street" v="Southeast 98th Avenue"/></node>
<node id="-14" lat="45.40552877" lon="-122.562928589" visible="true"><tag k="addr:housenumber" v="16251"/><tag k="addr:postcode" v="97015"/><tag k="addr:city" v="Clackamas"/><tag k="addr:street" v="Southeast 98th Avenue"/></node>
<node id="-15" lat="45.405284677" lon="-122.560516796" visible="true"><tag k="addr:housenumber" v="16131"/><tag k="addr:postcode" v="97015"/><tag k="addr:city" v="Clackamas"/><tag k="addr:street" v="Southeast Evelyn Street"/></node>
<node id="-16" lat="45.40526409" lon="-122.559339836" visible="true"><tag k="addr:housenumber" v="16131"/><tag k="addr:postcode" v="97015"/><tag k="addr:city" v="Clackamas"/><tag k="addr:street" v="Southeast Harvard Street"/></node>
<node id="-17" lat="45.402825058" lon="-122.546841003" visible="true"><tag k="addr:housenumber" v="11340"/><tag k="addr:postcode" v="97015"/><tag k="addr:city" v="Clackamas"/><tag k="addr:street" v="Southeast Jennifer Street"/></node>
<node id="-18" lat="45.402821442" lon="-122.546840044" visible="true"><tag k="addr:housenumber" v="11348"/><tag k="addr:postcode" v="97015"/><tag k="addr:city" v="Clackamas"/><tag k="addr:street" v="Southeast Jennifer Street"/></node>
</osm>