<?xml version="1.0"?>
<osm version="0.6" upload="false" generator="uvmogr2osm">
<node id="-1" lat="45.409785518" lon="-122.545745479" visible="true"><tag k="addr:housenumber" v="15792"/><tag k="addr:postcode" v="97015"/><tag k="addr:city" v="Clackamas"/><tag k="addr:street" v="Southeast 114th Avenue"/></node>
<node id="-2" lat="45.409384515" lon="-122.545724793" visible="true"><tag k="addr:housenumber" v="15848"/><tag k="addr:postcode" v="97015"/><tag k="addr:city" v="Clackamas"/><tag k="addr:street" v="Southeast 114th Avenue"/></node>
<node id="-3" lat="45.405174048" lon="-122.531562969" visible="true"><tag k="addr:housenumber" v="16253"/><tag k="addr:postcode" v="97015"/><tag k="addr:city" v="Clackamas"/><tag k="addr:street" v="Southeast 130th Avenue"/></node>
<node id="-4" lat="45.404991579" lon="-122.530870607" visible="true"><tag k="addr:housenumber" v="16255"/><tag k="addr:postcode" v="97015"/><tag k="addr:city" v="Clackamas"/><tag k="addr:street" v="Southeast 130th Avenue"/></node>
<node id="-5" lat="45.404805813" lon="-122.530874294" visible="true"><tag k="addr:housenumber" v="16261"/><tag k="addr:postcode" v="97015"/><tag k="addr:city" v="Clackamas"/><tag k="addr:street" v="Southeast 130th Avenue"/></node>
<node id="-6" lat="45.402590052" lon="-122.527007238" visible="true"><tag k="addr:housenumber" v="16782"/><tag k="addr:postcode" v="97015"/><tag k="addr:city" v="Clackamas"/><tag k="addr:street" v="Southeast 130th Avenue"/></node>
<node id="-7" lat="45.399186929" lon="-122.536939295" visible="true"><tag k="addr:housenumber" v="12310"/><tag k="addr:postcode" v="97015"/><tag k="addr:city" v="Clackamas"/><tag k="addr:street" v="Southeast Capps Road"/></node>
<node id="-8" lat="45.399036267" lon="-122.536934855" visible="true"><tag k="addr:housenumber" v="12312"/><tag k="addr:postcode" v="97015"/><tag k="addr:city" v="Clackamas"/><tag k="addr:street" v="Southeast Capps Road"/></node>
<node id="-9" lat="45.398859359" lon="-122.536931082" visible="true"><tag k="addr:housenumber" v="12314"/><tag k="addr:postcode" v="97015"/><tag k="addr:city" v="Clackamas"/><tag k="addr:street" v="Southeast Capps Road"/></node>
<node id="-10" lat="45.398646999" lon="-122.536936519" visible="true"><tag k="addr:housenumber" v="12316"/><tag k="addr:postcode" v="97015"/><tag k="addr:city" v="Clackamas"/><tag k="addr:street" v="Southeast Capps Road"/></node>
<node id="-11" lat="45.398491509" lon="-122.536928483" visible="true"><tag k="addr:housenumber" v="12318"/><tag k="addr:postcode" v="97015"/><tag k="addr:city" v="Clackamas"/><tag k="addr:street" v="Southeast Capps Road"/></node>
<node id="-12" lat="45.40011255" lon="-122.535768775" visible="true"><tag k="addr:housenumber" v="12399"/><tag k="addr:postcode" v="97015"/><tag k="addr:city" v="Clackamas"/><tag k="addr:street" v="Southeast Capps Road"/></node>
<node id="-13" lat="45.398821499" lon="-122.5359033" visible="true"><tag k="addr:housenumber" v="12430"/><tag k="addr:postcode" v="97015"/><tag k="addr:city" v="Clackamas"/><tag k="addr:street" v="Southeast Capps Road"/></node>
<node id="-14" lat="45.398641524" lon="-122.535913986" visible="true"><tag k="addr:housenumber" v="12434"/><tag k="addr:postcode" v="97015"/><tag k="addr:city" v="Clackamas"/><tag k="addr:street" v="Southeast Capps Road"/></node>
<node id="-15" lat="45.398783726" lon="-122.534492812" visible="true"><tag k="addr:housenumber" v="12438"/><tag k="addr:postcode" v="97015"/><tag k="addr:city" v="Clackamas"/><tag k="addr:street" v="Southeast Capps Road"/></node>
<node id="-16" lat="45.398575879" lon="-122.534476393" visible="true"><tag k="addr:housenumber" v="12440"/><tag k="addr:postcode" v="97015"/><tag k="addr:city" v="Clackamas"/><tag k="addr:street" v="Southeast Capps Road"/></node>
<node id="-17" lat="45.397991056" lon="-122.537413505" visible="true"><tag k="addr:housenumber" v="12450"/><tag k="addr:postcode" v="97015"/><tag k="addr:city" v="Clackamas"/><tag k="addr:street" v="Southeast Capps Road"/></node>
<node id="-18" lat="45.397882059" lon="-122.537416701" visible="true"><tag k="addr:housenumber" v="12452"/><tag k="addr:postcode" v="97015"/><tag k="addr:city" v="Clackamas"/><tag k="addr:street" v="Southeast Capps Road"/></node>
<node id="-19" lat="45.397762106" lon="-122.537417841" visible="true"><tag k="addr:housenumber" v="12454"/><tag k="addr:postcode" v="97015"/><tag k="addr:city" v="Clackamas"/><tag k="addr:street" v="Southeast Capps Road"/></node>
<node id="-20" lat="45.397627618" lon="-122.537411315" visible="true"><tag k="addr:housenumber" v="12456"/><tag k="addr:postcode" v="97015"/><tag k="addr:city" v="Clackamas"/><tag k="addr:street" v="Southeast Capps Road"/></node>
<node id="-21" lat="45.397921061" lon="-122.536712599" visible="true"><tag k="addr:housenumber" v="12458"/><tag k="addr:postcode" v="97015"/><tag k="addr:city" v="Clackamas"/><tag k="addr:street" v="Southeast Capps Road"/></node>
<node id="-22" lat="45.397734654" lon="-122.536723232" visible="true"><tag k="addr:housenumber" v="12460"/><tag k="addr:postcode" v="97015"/><tag k="addr:city" v="Clackamas"/><tag k="addr:street" v="Southeast Capps Road"/></node>
<node id="-23" lat="45.397187062" lon="-122.535971988" visible="true"><tag k="addr:housenumber" v="12474"/><tag k="addr:postcode" v="97015"/><tag k="addr:city" v="Clackamas"/><tag k="addr:street" v="Southeast Capps Road"/></node>
<node id="-24" lat="45.396972408" lon="-122.535981517" visible="true"><tag k="addr:housenumber" v="12476"/><tag k="addr:postcode" v="97015"/><tag k="addr:city" v="Clackamas"/><tag k="addr:street" v="Southeast Capps Road"/></node>
<node id="-25" lat="45.397231511" lon="-122.53462195" visible="true"><tag k="addr:housenumber" v="12480"/><tag k="addr:postcode" v="97015"/><tag k="addr:city" v="Clackamas"/><tag k="addr:street" v="Southeast Capps Road"/></node>
<node id="-26" lat="45.396876006" lon="-122.534612782" visible="true"><tag k="addr:housenumber" v="12482"/><tag k="addr:postcode" v="97015"/><tag k="addr:city" v="Clackamas"/><tag k="addr:street" v="Southeast Capps Road"/></node>
<node id="-27" lat="45.401539685" lon="-122.535793558" visible="true"><tag k="addr:housenumber" v="12400"/><tag k="addr:postcode" v="97015"/><tag k="addr:city" v="Clackamas"/><tag k="addr:street" v="Southeast Carpenter Drive"/></node>
<node id="-28" lat="45.401187922" lon="-122.535789137" visible="true"><tag k="addr:housenumber" v="12404"/><tag k="addr:postcode" v="97015"/><tag k="addr:city" v="Clackamas"/><tag k="addr:street" v="Southeast Carpenter Drive"/></node>
<node id="-29" lat="45.400823758" lon="-122.535779344" visible="true"><tag k="addr:housenumber" v="12408"/><tag k="addr:postcode" v="97015"/><tag k="addr:city" v="Clackamas"/><tag k="addr:street" v="Southeast Carpenter Drive"/></node>
<node id="-30" lat="45.400478868" lon="-122.535772728" visible="true"><tag k="addr:housenumber" v="12420"/><tag k="addr:postcode" v="97015"/><tag k="addr:city" v="Clackamas"/><tag k="addr:street" v="Southeast Carpenter Drive"/></node>
<node id="-31" lat="45.402590978" lon="-122.527005911" visible="true"><tag k="addr:housenumber" v="13008"/><tag k="addr:postcode" v="97015"/><tag k="addr:city" v="Clackamas"/><tag k="addr:street" v="Southeast Jennifer Street"/></node>
<node id="-32" lat="45.408840819" lon="-122.537564451" visible="true"><tag k="addr:housenumber" v="12210"/><tag k="addr:postcode" v="97015"/><tag k="addr:city" v="Clackamas"/><tag k="addr:street" v="Southeast Knez Way"/></node>
<node id="-33" lat="45.408838167" lon="-122.537563011" visible="true"><tag k="addr:housenumber" v="12214"/><tag k="addr:postcode" v="97015"/><tag k="addr:city" v="Clackamas"/><tag k="addr:street" v="Southeast Knez Way"/></node>
</osm>