<?xml version="1.0"?>
<osm version="0.6" upload="false" generator="uvmogr2osm">
<node id="-1" lat="45.423303193" lon="-122.512137395" visible="true"><tag k="addr:housenumber" v="13698"/><tag k="addr:postcode" v="97015"/><tag k="addr:city" v="Clackamas"/><tag k="addr:street" v="Southeast 147th Avenue"/></node>
<node id="-2" lat="45.418667431" lon="-122.507565723" visible="true"><tag k="addr:housenumber" v="14361"/><tag k="addr:postcode" v="97015"/><tag k="addr:city" v="Clackamas"/><tag k="addr:street" v="Southeast 152nd Drive"/></node>
<node id="-3" lat="45.424522049" lon="-122.50944445" visible="true"><tag k="addr:housenumber" v="14985"/><tag k="addr:postcode" v="97015"/><tag k="addr:city" v="Clackamas"/><tag k="addr:street" v="Southeast Elm Park Drive"/></node>
<node id="-4" lat="45.424520532" lon="-122.509440538" visible="true"><tag k="addr:housenumber" v="14987"/><tag k="addr:postcode" v="97015"/><tag k="addr:city" v="Clackamas"/><tag k="addr:street" v="Southeast Elm Park Drive"/></node>
<node id="-5" lat="45.424518676" lon="-122.509062598" visible="true"><tag k="addr:housenumber" v="15017"/><tag k="addr:postcode" v="97015"/><tag k="addr:city" v="Clackamas"/><tag k="addr:street" v="Southeast Elm Park Drive"/></node>
<node id="-6" lat="45.424513695" lon="-122.509061584" visible="true"><tag k="addr:housenumber" v="15019"/><tag k="addr:postcode" v="97015"/><tag k="addr:city" v="Clackamas"/><tag k="addr:street" v="Southeast Elm Park Drive"/></node>
<node id="-7" lat="45.420258518" lon="-122.515254556" visible="true"><tag k="addr:housenumber" v="14126"/><tag k="addr:postcode" v="97015"/><tag k="addr:city" v="Clackamas"/><tag k="addr:street" v="Southeast Filbert Creek Drive"/></node>
<node id="-8" lat="45.420284553" lon="-122.514927334" visible="true"><tag k="addr:housenumber" v="14128"/><tag k="addr:postcode" v="97015"/><tag k="addr:city" v="Clackamas"/><tag k="addr:street" v="Southeast Filbert Creek Drive"/></node>
<node id="-9" lat="45.420217251" lon="-122.515251339" visible="true"><tag k="addr:housenumber" v="14134"/><tag k="addr:postcode" v="97015"/><tag k="addr:city" v="Clackamas"/><tag k="addr:street" v="Southeast Filbert Creek Drive"/></node>
<node id="-10" lat="45.420214512" lon="-122.514921048" visible="true"><tag k="addr:housenumber" v="14136"/><tag k="addr:postcode" v="97015"/><tag k="addr:city" v="Clackamas"/><tag k="addr:street" v="Southeast Filbert Creek Drive"/></node>
<node id="-11" lat="45.420082585" lon="-122.515255915" visible="true"><tag k="addr:housenumber" v="14152"/><tag k="addr:postcode" v="97015"/><tag k="addr:city" v="Clackamas"/><tag k="addr:street" v="Southeast Filbert Creek Drive"/></node>
<node id="-12" lat="45.420094465" lon="-122.514905931" visible="true"><tag k="addr:housenumber" v="14160"/><tag k="addr:postcode" v="97015"/><tag k="addr:city" v="Clackamas"/><tag k="addr:street" v="Southeast Filbert Creek Drive"/></node>
<node id="-13" lat="45.420033412" lon="-122.515259071" visible="true"><tag k="addr:housenumber" v="14168"/><tag k="addr:postcode" v="97015"/><tag k="addr:city" v="Clackamas"/><tag k="addr:street" v="Southeast Filbert Creek Drive"/></node>
<node id="-14" lat="45.420023674" lon="-122.514918254" visible="true"><tag k="addr:housenumber" v="14176"/><tag k="addr:postcode" v="97015"/><tag k="addr:city" v="Clackamas"/><tag k="addr:street" v="Southeast Filbert Creek Drive"/></node>
<node id="-15" lat="45.420252424" lon="-122.514158806" visible="true"><tag k="addr:housenumber" v="14507"/><tag k="addr:postcode" v="97015"/><tag k="addr:city" v="Clackamas"/><tag k="addr:street" v="Southeast Lone Pine Drive"/></node>
<node id="-16" lat="45.423182517" lon="-122.512130328" visible="true"><tag k="addr:housenumber" v="14755"/><tag k="addr:postcode" v="97015"/><tag k="addr:city" v="Clackamas"/><tag k="addr:street" v="Southeast Oregon Trail Drive"/></node>
<node id="-17" lat="45.423015412" lon="-122.51195095" visible="true"><tag k="addr:housenumber" v="14777"/><tag k="addr:postcode" v="97015"/><tag k="addr:city" v="Clackamas"/><tag k="addr:street" v="Southeast Oregon Trail Drive"/></node>
<node id="-18" lat="45.423001058" lon="-122.511815101" visible="true"><tag k="addr:housenumber" v="14779"/><tag k="addr:postcode" v="97015"/><tag k="addr:city" v="Clackamas"/><tag k="addr:street" v="Southeast Oregon Trail Drive"/></node>
<node id="-19" lat="45.422999941" lon="-122.511647397" visible="true"><tag k="addr:housenumber" v="14785"/><tag k="addr:postcode" v="97015"/><tag k="addr:city" v="Clackamas"/><tag k="addr:street" v="Southeast Oregon Trail Drive"/></node>
<node id="-20" lat="45.423000868" lon="-122.511488221" visible="true"><tag k="addr:housenumber" v="14807"/><tag k="addr:postcode" v="97015"/><tag k="addr:city" v="Clackamas"/><tag k="addr:street" v="Southeast Oregon Trail Drive"/></node>
<node id="-21" lat="45.422993921" lon="-122.511288507" visible="true"><tag k="addr:housenumber" v="14863"/><tag k="addr:postcode" v="97015"/><tag k="addr:city" v="Clackamas"/><tag k="addr:street" v="Southeast Oregon Trail Drive"/></node>
<node id="-22" lat="45.422686039" lon="-122.510376212" visible="true"><tag k="addr:housenumber" v="14878"/><tag k="addr:postcode" v="97015"/><tag k="addr:city" v="Clackamas"/><tag k="addr:street" v="Southeast Oregon Trail Drive"/></node>
<node id="-23" lat="45.422687367" lon="-122.510378501" visible="true"><tag k="addr:housenumber" v="14880"/><tag k="addr:postcode" v="97015"/><tag k="addr:city" v="Clackamas"/><tag k="addr:street" v="Southeast Oregon Trail Drive"/></node>
<node id="-24" lat="45.418663474" lon="-122.50756561" visible="true"><tag k="addr:housenumber" v="15160"/><tag k="addr:postcode" v="97015"/><tag k="addr:city" v="Clackamas"/><tag k="addr:street" v="Southeast Pioneer Drive"/></node>
<node id="-25" lat="45.418668988" lon="-122.507567537" visible="true"><tag k="addr:housenumber" v="15172"/><tag k="addr:postcode" v="97015"/><tag k="addr:city" v="Clackamas"/><tag k="addr:street" v="Southeast Pioneer Drive"/></node>
<node id="-26" lat="45.418669372" lon="-122.507572262" visible="true"><tag k="addr:housenumber" v="15184"/><tag k="addr:postcode" v="97015"/><tag k="addr:city" v="Clackamas"/><tag k="addr:street" v="Southeast Pioneer Drive"/></node>
<node id="-27" lat="45.420258088" lon="-122.514159359" visible="true"><tag k="addr:housenumber" v="14509"/><tag k="addr:postcode" v="97015"/><tag k="addr:city" v="Clackamas"/><tag k="addr:street" v="Southeast Sieben Park Way"/></node>
<node id="-28" lat="45.425364366" lon="-122.51353944" visible="true"><tag k="addr:housenumber" v="14669"/><tag k="addr:postcode" v="97015"/><tag k="addr:city" v="Clackamas"/><tag k="addr:street" v="Southeast Sunnyside Road"/></node>
<node id="-29" lat="45.425375096" lon="-122.513454139" visible="true"><tag k="addr:housenumber" v="14671"/><tag k="addr:postcode" v="97015"/><tag k="addr:city" v="Clackamas"/><tag k="addr:street" v="Southeast Sunnyside Road"/></node>
<node id="-30" lat="45.425362227" lon="-122.513348746" visible="true"><tag k="addr:housenumber" v="14673"/><tag k="addr:postcode" v="97015"/><tag k="addr:city" v="Clackamas"/><tag k="addr:street" v="Southeast Sunnyside Road"/></node>
<node id="-31" lat="45.420395056" lon="-122.512490982" visible="true"><tag k="addr:housenumber" v="14690"/><tag k="addr:postcode" v="97015"/><tag k="addr:city" v="Clackamas"/><tag k="addr:street" v="Southeast Territory Drive"/></node>
<node id="-32" lat="45.420380166" lon="-122.51232301" visible="true"><tag k="addr:housenumber" v="14692"/><tag k="addr:postcode" v="97015"/><tag k="addr:city" v="Clackamas"/><tag k="addr:street" v="Southeast Territory Drive"/></node>
</osm>