<?xml version="1.0"?>
<osm version="0.6" upload="false" generator="uvmogr2osm">
<node id="-1" lat="45.41962185" lon="-122.521870789" visible="true"><tag k="addr:housenumber" v="14225"/><tag k="addr:postcode" v="97015"/><tag k="addr:city" v="Clackamas"/><tag k="addr:street" v="Southeast 139th Avenue"/></node>
<node id="-2" lat="45.419613481" lon="-122.521873987" visible="true"><tag k="addr:housenumber" v="14313"/><tag k="addr:postcode" v="97015"/><tag k="addr:city" v="Clackamas"/><tag k="addr:street" v="Southeast 139th Avenue"/></node>
<node id="-3" lat="45.419618712" lon="-122.521869667" visible="true"><tag k="addr:housenumber" v="14343"/><tag k="addr:postcode" v="97015"/><tag k="addr:city" v="Clackamas"/><tag k="addr:street" v="Southeast 139th Avenue"/></node>
<node id="-4" lat="45.419621894" lon="-122.521868993" visible="true"><tag k="addr:housenumber" v="14373"/><tag k="addr:postcode" v="97015"/><tag k="addr:city" v="Clackamas"/><tag k="addr:street" v="Southeast 139th Avenue"/></node>
<node id="-5" lat="45.423356708" lon="-122.518194755" visible="true"><tag k="addr:housenumber" v="13641"/><tag k="addr:postcode" v="97015"/><tag k="addr:city" v="Clackamas"/><tag k="addr:street" v="Southeast 142nd Avenue"/></node>
<node id="-6" lat="45.423354472" lon="-122.518195382" visible="true"><tag k="addr:housenumber" v="13705"/><tag k="addr:postcode" v="97015"/><tag k="addr:city" v="Clackamas"/><tag k="addr:street" v="Southeast 142nd Avenue"/></node>
<node id="-7" lat="45.42334731" lon="-122.518191127" visible="true"><tag k="addr:housenumber" v="13751"/><tag k="addr:postcode" v="97015"/><tag k="addr:city" v="Clackamas"/><tag k="addr:street" v="Southeast 142nd Avenue"/></node>
<node id="-8" lat="45.423355807" lon="-122.518188365" visible="true"><tag k="addr:housenumber" v="14100"/><tag k="addr:postcode" v="97015"/><tag k="addr:city" v="Clackamas"/><tag k="addr:street" v="Southeast Sunnyside Road"/></node>
</osm>