<?xml version="1.0"?>
<osm version="0.6" upload="false" generator="uvmogr2osm">
<node id="-1" lat="45.35468457" lon="-122.59455172" visible="true"><tag k="addr:housenumber" v="1507"/><tag k="addr:postcode" v="97045"/><tag k="addr:city" v="Oregon City"/><tag k="addr:street" v="10th Street"/></node>
<node id="-2" lat="45.357469602" lon="-122.598361047" visible="true"><tag k="addr:housenumber" v="1003"/><tag k="addr:postcode" v="97045"/><tag k="addr:city" v="Oregon City"/><tag k="addr:street" v="11th Street"/></node>
<node id="-3" lat="45.357469711" lon="-122.598370161" visible="true"><tag k="addr:housenumber" v="1005"/><tag k="addr:postcode" v="97045"/><tag k="addr:city" v="Oregon City"/><tag k="addr:street" v="11th Street"/></node>
<node id="-4" lat="45.357104487" lon="-122.598613901" visible="true"><tag k="addr:housenumber" v="1010"/><tag k="addr:postcode" v="97045"/><tag k="addr:city" v="Oregon City"/><tag k="addr:street" v="11th Street"/></node>
<node id="-5" lat="45.357006226" lon="-122.598714712" visible="true"><tag k="addr:housenumber" v="1014"/><tag k="addr:postcode" v="97045"/><tag k="addr:city" v="Oregon City"/><tag k="addr:street" v="11th Street"/></node>
<node id="-6" lat="45.357078611" lon="-122.598565973" visible="true"><tag k="addr:housenumber" v="1020"/><tag k="addr:postcode" v="97045"/><tag k="addr:city" v="Oregon City"/><tag k="addr:street" v="11th Street"/></node>
<node id="-7" lat="45.356981998" lon="-122.598673134" visible="true"><tag k="addr:housenumber" v="1024"/><tag k="addr:postcode" v="97045"/><tag k="addr:city" v="Oregon City"/><tag k="addr:street" v="11th Street"/></node>
<node id="-8" lat="45.355325171" lon="-122.594035586" visible="true"><tag k="addr:housenumber" v="1505"/><tag k="addr:postcode" v="97045"/><tag k="addr:city" v="Oregon City"/><tag k="addr:street" v="11th Street"/></node>
<node id="-9" lat="45.355293969" lon="-122.593967703" visible="true"><tag k="addr:housenumber" v="1507"/><tag k="addr:postcode" v="97045"/><tag k="addr:city" v="Oregon City"/><tag k="addr:street" v="11th Street"/></node>
<node id="-10" lat="45.358830227" lon="-122.599697142" visible="true"><tag k="addr:housenumber" v="806"/><tag k="addr:postcode" v="97045"/><tag k="addr:city" v="Oregon City"/><tag k="addr:street" v="12th Street"/></node>
<node id="-11" lat="45.358764238" lon="-122.59957297" visible="true"><tag k="addr:housenumber" v="808"/><tag k="addr:postcode" v="97045"/><tag k="addr:city" v="Oregon City"/><tag k="addr:street" v="12th Street"/></node>
<node id="-12" lat="45.358504478" lon="-122.598149797" visible="true"><tag k="addr:housenumber" v="915"/><tag k="addr:postcode" v="97045"/><tag k="addr:city" v="Oregon City"/><tag k="addr:street" v="12th Street"/></node>
<node id="-13" lat="45.358481292" lon="-122.598087065" visible="true"><tag k="addr:housenumber" v="919"/><tag k="addr:postcode" v="97045"/><tag k="addr:city" v="Oregon City"/><tag k="addr:street" v="12th Street"/></node>
<node id="-14" lat="45.359579021" lon="-122.594472315" visible="true"><tag k="addr:housenumber" v="1114"/><tag k="addr:postcode" v="97045"/><tag k="addr:city" v="Oregon City"/><tag k="addr:street" v="15th Street"/></node>
<node id="-15" lat="45.359544587" lon="-122.594421293" visible="true"><tag k="addr:housenumber" v="1118"/><tag k="addr:postcode" v="97045"/><tag k="addr:city" v="Oregon City"/><tag k="addr:street" v="15th Street"/></node>
<node id="-16" lat="45.359164557" lon="-122.593668712" visible="true"><tag k="addr:housenumber" v="1216"/><tag k="addr:postcode" v="97045"/><tag k="addr:city" v="Oregon City"/><tag k="addr:street" v="15th Street"/></node>
<node id="-17" lat="45.359118754" lon="-122.593568533" visible="true"><tag k="addr:housenumber" v="1218"/><tag k="addr:postcode" v="97045"/><tag k="addr:city" v="Oregon City"/><tag k="addr:street" v="15th Street"/></node>
<node id="-18" lat="45.359701318" lon="-122.592529031" visible="true"><tag k="addr:housenumber" v="1302"/><tag k="addr:postcode" v="97045"/><tag k="addr:city" v="Oregon City"/><tag k="addr:street" v="16th Street"/></node>
<node id="-19" lat="45.35965422" lon="-122.592429939" visible="true"><tag k="addr:housenumber" v="1304"/><tag k="addr:postcode" v="97045"/><tag k="addr:city" v="Oregon City"/><tag k="addr:street" v="16th Street"/></node>
<node id="-20" lat="45.359015035" lon="-122.590173819" visible="true"><tag k="addr:housenumber" v="1517"/><tag k="addr:postcode" v="97045"/><tag k="addr:city" v="Oregon City"/><tag k="addr:street" v="16th Street"/></node>
<node id="-21" lat="45.358984135" lon="-122.590110663" visible="true"><tag k="addr:housenumber" v="1517 1/2"/><tag k="addr:postcode" v="97045"/><tag k="addr:city" v="Oregon City"/><tag k="addr:street" v="16th Street"/></node>
<node id="-22" lat="45.353827247" lon="-122.599543997" visible="true"><tag k="addr:housenumber" v="1203"/><tag k="addr:postcode" v="97045"/><tag k="addr:city" v="Oregon City"/><tag k="addr:street" v="7th Street"/></node>
<node id="-23" lat="45.353790138" lon="-122.599467563" visible="true"><tag k="addr:housenumber" v="1209"/><tag k="addr:postcode" v="97045"/><tag k="addr:city" v="Oregon City"/><tag k="addr:street" v="7th Street"/></node>
<node id="-24" lat="45.353708523" lon="-122.597023142" visible="true"><tag k="addr:housenumber" v="1403"/><tag k="addr:postcode" v="97045"/><tag k="addr:city" v="Oregon City"/><tag k="addr:street" v="8th Street"/></node>
<node id="-25" lat="45.353664217" lon="-122.596928173" visible="true"><tag k="addr:housenumber" v="1407"/><tag k="addr:postcode" v="97045"/><tag k="addr:city" v="Oregon City"/><tag k="addr:street" v="8th Street"/></node>
<node id="-26" lat="45.354359397" lon="-122.596114673" visible="true"><tag k="addr:housenumber" v="1415"/><tag k="addr:postcode" v="97045"/><tag k="addr:city" v="Oregon City"/><tag k="addr:street" v="9th Street"/></node>
<node id="-27" lat="45.354336581" lon="-122.596033954" visible="true"><tag k="addr:housenumber" v="1417"/><tag k="addr:postcode" v="97045"/><tag k="addr:city" v="Oregon City"/><tag k="addr:street" v="9th Street"/></node>
<node id="-28" lat="45.353490107" lon="-122.597900341" visible="true"><tag k="addr:housenumber" v="713"/><tag k="addr:postcode" v="97045"/><tag k="addr:city" v="Oregon City"/><tag k="addr:street" v="Harrison Street"/></node>
<node id="-29" lat="45.353456697" lon="-122.597946766" visible="true"><tag k="addr:housenumber" v="715"/><tag k="addr:postcode" v="97045"/><tag k="addr:city" v="Oregon City"/><tag k="addr:street" v="Harrison Street"/></node>
<node id="-30" lat="45.354655667" lon="-122.596663959" visible="true"><tag k="addr:housenumber" v="905"/><tag k="addr:postcode" v="97045"/><tag k="addr:city" v="Oregon City"/><tag k="addr:street" v="Harrison Street"/></node>
<node id="-31" lat="45.354724361" lon="-122.596594265" visible="true"><tag k="addr:housenumber" v="909"/><tag k="addr:postcode" v="97045"/><tag k="addr:city" v="Oregon City"/><tag k="addr:street" v="Harrison Street"/></node>
<node id="-32" lat="45.358503509" lon="-122.595499237" visible="true"><tag k="addr:housenumber" v="1303"/><tag k="addr:postcode" v="97045"/><tag k="addr:city" v="Oregon City"/><tag k="addr:street" v="Jackson Street"/></node>
<node id="-33" lat="45.35854386" lon="-122.595579768" visible="true"><tag k="addr:housenumber" v="1311"/><tag k="addr:postcode" v="97045"/><tag k="addr:city" v="Oregon City"/><tag k="addr:street" v="Jackson Street"/></node>
<node id="-34" lat="45.353948933" lon="-122.599385703" visible="true"><tag k="addr:housenumber" v="706"/><tag k="addr:postcode" v="97045"/><tag k="addr:city" v="Oregon City"/><tag k="addr:street" v="Jackson Street"/></node>
<node id="-35" lat="45.353982695" lon="-122.599350151" visible="true"><tag k="addr:housenumber" v="708"/><tag k="addr:postcode" v="97045"/><tag k="addr:city" v="Oregon City"/><tag k="addr:street" v="Jackson Street"/></node>
<node id="-36" lat="45.355132521" lon="-122.599541721" visible="true"><tag k="addr:housenumber" v="810"/><tag k="addr:postcode" v="97045"/><tag k="addr:city" v="Oregon City"/><tag k="addr:street" v="Jq Adams Street"/></node>
<node id="-37" lat="45.355171918" lon="-122.599497857" visible="true"><tag k="addr:housenumber" v="810 1/2"/><tag k="addr:postcode" v="97045"/><tag k="addr:city" v="Oregon City"/><tag k="addr:street" v="Jq Adams Street"/></node>
<node id="-38" lat="45.356247897" lon="-122.598983669" visible="true"><tag k="addr:housenumber" v="911"/><tag k="addr:postcode" v="97045"/><tag k="addr:city" v="Oregon City"/><tag k="addr:street" v="Jq Adams Street"/></node>
<node id="-39" lat="45.356300004" lon="-122.598940878" visible="true"><tag k="addr:housenumber" v="913"/><tag k="addr:postcode" v="97045"/><tag k="addr:city" v="Oregon City"/><tag k="addr:street" v="Jq Adams Street"/></node>
<node id="-40" lat="45.353976267" lon="-122.590940437" visible="true"><tag k="addr:housenumber" v="1105"/><tag k="addr:postcode" v="97045"/><tag k="addr:city" v="Oregon City"/><tag k="addr:street" v="Lincoln Street"/></node>
<node id="-41" lat="45.354027635" lon="-122.590889784" visible="true"><tag k="addr:housenumber" v="1107"/><tag k="addr:postcode" v="97045"/><tag k="addr:city" v="Oregon City"/><tag k="addr:street" v="Lincoln Street"/></node>
<node id="-42" lat="45.35848697" lon="-122.599305487" visible="true"><tag k="addr:housenumber" v="1117"/><tag k="addr:postcode" v="97045"/><tag k="addr:city" v="Oregon City"/><tag k="addr:street" v="Madison Street"/></node>
<node id="-43" lat="45.358565501" lon="-122.599229572" visible="true"><tag k="addr:housenumber" v="1121"/><tag k="addr:postcode" v="97045"/><tag k="addr:city" v="Oregon City"/><tag k="addr:street" v="Madison Street"/></node>
<node id="-44" lat="45.358825148" lon="-122.598371859" visible="true"><tag k="addr:housenumber" v="1212"/><tag k="addr:postcode" v="97045"/><tag k="addr:city" v="Oregon City"/><tag k="addr:street" v="Madison Street"/></node>
<node id="-45" lat="45.358906525" lon="-122.598284479" visible="true"><tag k="addr:housenumber" v="1214"/><tag k="addr:postcode" v="97045"/><tag k="addr:city" v="Oregon City"/><tag k="addr:street" v="Madison Street"/></node>
<node id="-46" lat="45.357038119" lon="-122.598862658" visible="true"><tag k="addr:housenumber" v="1008"/><tag k="addr:postcode" v="97045"/><tag k="addr:city" v="Oregon City"/><tag k="addr:street" v="Monroe Street"/></node>
<node id="-47" lat="45.357109803" lon="-122.598796945" visible="true"><tag k="addr:housenumber" v="1012"/><tag k="addr:postcode" v="97045"/><tag k="addr:city" v="Oregon City"/><tag k="addr:street" v="Monroe Street"/></node>
<node id="-48" lat="45.357158537" lon="-122.598742398" visible="true"><tag k="addr:housenumber" v="1016"/><tag k="addr:postcode" v="97045"/><tag k="addr:city" v="Oregon City"/><tag k="addr:street" v="Monroe Street"/></node>
<node id="-49" lat="45.357218928" lon="-122.598665911" visible="true"><tag k="addr:housenumber" v="1018"/><tag k="addr:postcode" v="97045"/><tag k="addr:city" v="Oregon City"/><tag k="addr:street" v="Monroe Street"/></node>
<node id="-50" lat="45.359209609" lon="-122.596616219" visible="true"><tag k="addr:housenumber" v="1308"/><tag k="addr:postcode" v="97045"/><tag k="addr:city" v="Oregon City"/><tag k="addr:street" v="Monroe Street"/></node>
<node id="-51" lat="45.359237864" lon="-122.596587292" visible="true"><tag k="addr:housenumber" v="1310"/><tag k="addr:postcode" v="97045"/><tag k="addr:city" v="Oregon City"/><tag k="addr:street" v="Monroe Street"/></node>
<node id="-52" lat="45.35628384" lon="-122.59955479" visible="true"><tag k="addr:housenumber" v="910"/><tag k="addr:postcode" v="97045"/><tag k="addr:city" v="Oregon City"/><tag k="addr:street" v="Monroe Street"/></node>
<node id="-53" lat="45.356311546" lon="-122.599525821" visible="true"><tag k="addr:housenumber" v="912"/><tag k="addr:postcode" v="97045"/><tag k="addr:city" v="Oregon City"/><tag k="addr:street" v="Monroe Street"/></node>
<node id="-54" lat="45.356477509" lon="-122.599474871" visible="true"><tag k="addr:housenumber" v="914"/><tag k="addr:postcode" v="97045"/><tag k="addr:city" v="Oregon City"/><tag k="addr:street" v="Monroe Street"/></node>
<node id="-55" lat="45.356515379" lon="-122.599432681" visible="true"><tag k="addr:housenumber" v="916"/><tag k="addr:postcode" v="97045"/><tag k="addr:city" v="Oregon City"/><tag k="addr:street" v="Monroe Street"/></node>
<node id="-56" lat="45.356470667" lon="-122.599396504" visible="true"><tag k="addr:housenumber" v="920"/><tag k="addr:postcode" v="97045"/><tag k="addr:city" v="Oregon City"/><tag k="addr:street" v="Monroe Street"/></node>
<node id="-57" lat="45.354687334" lon="-122.594553584" visible="true"><tag k="addr:housenumber" v="1002"/><tag k="addr:postcode" v="97045"/><tag k="addr:city" v="Oregon City"/><tag k="addr:street" v="Polk Street"/></node>
<node id="-58" lat="45.35372146" lon="-122.59569593" visible="true"><tag k="addr:housenumber" v="820"/><tag k="addr:postcode" v="97045"/><tag k="addr:city" v="Oregon City"/><tag k="addr:street" v="Polk Street"/></node>
<node id="-59" lat="45.353668772" lon="-122.595759146" visible="true"><tag k="addr:housenumber" v="822"/><tag k="addr:postcode" v="97045"/><tag k="addr:city" v="Oregon City"/><tag k="addr:street" v="Polk Street"/></node>
<node id="-60" lat="45.353696607" lon="-122.594506959" visible="true"><tag k="addr:housenumber" v="908"/><tag k="addr:postcode" v="97045"/><tag k="addr:city" v="Oregon City"/><tag k="addr:street" v="Taylor Street"/></node>
<node id="-61" lat="45.353649751" lon="-122.594426516" visible="true"><tag k="addr:housenumber" v="910"/><tag k="addr:postcode" v="97045"/><tag k="addr:city" v="Oregon City"/><tag k="addr:street" v="Taylor Street"/></node>
<node id="-62" lat="45.353987649" lon="-122.594247789" visible="true"><tag k="addr:housenumber" v="922"/><tag k="addr:postcode" v="97045"/><tag k="addr:city" v="Oregon City"/><tag k="addr:street" v="Taylor Street"/></node>
<node id="-63" lat="45.354080501" lon="-122.594157948" visible="true"><tag k="addr:housenumber" v="924"/><tag k="addr:postcode" v="97045"/><tag k="addr:city" v="Oregon City"/><tag k="addr:street" v="Taylor Street"/></node>
<node id="-64" lat="45.358998534" lon="-122.593677936" visible="true"><tag k="addr:housenumber" v="1415"/><tag k="addr:postcode" v="97045"/><tag k="addr:city" v="Oregon City"/><tag k="addr:street" v="Van Buren Street"/></node>
<node id="-65" lat="45.359059968" lon="-122.593774273" visible="true"><tag k="addr:housenumber" v="1417"/><tag k="addr:postcode" v="97045"/><tag k="addr:city" v="Oregon City"/><tag k="addr:street" v="Van Buren Street"/></node>
<node id="-66" lat="45.353523251" lon="-122.598578585" visible="true"><tag k="addr:housenumber" v="706"/><tag k="addr:postcode" v="97045"/><tag k="addr:city" v="Oregon City"/><tag k="addr:street" v="Van Buren Street"/></node>
<node id="-67" lat="45.353562401" lon="-122.598538848" visible="true"><tag k="addr:housenumber" v="708"/><tag k="addr:postcode" v="97045"/><tag k="addr:city" v="Oregon City"/><tag k="addr:street" v="Van Buren Street"/></node>
</osm>