<?xml version="1.0"?>
<osm version="0.6" upload="false" generator="uvmogr2osm">
<node id="-1" lat="45.401943205" lon="-122.271639365" visible="true"><tag k="addr:housenumber" v="16800"/><tag k="addr:postcode" v="97055"/><tag k="addr:city" v="Sandy"/><tag k="addr:street" v="Bluff Road"/></node>
<node id="-2" lat="45.401874145" lon="-122.271610328" visible="true"><tag k="addr:housenumber" v="16820"/><tag k="addr:postcode" v="97055"/><tag k="addr:city" v="Sandy"/><tag k="addr:street" v="Bluff Road"/></node>
<node id="-3" lat="45.397995415" lon="-122.276005567" visible="true"><tag k="addr:housenumber" v="37740"/><tag k="addr:postcode" v="97055"/><tag k="addr:city" v="Sandy"/><tag k="addr:street" v="Freightway Lane"/></node>
<node id="-4" lat="45.40185789" lon="-122.279327808" visible="true"><tag k="addr:housenumber" v="37333"/><tag k="addr:postcode" v="97055"/><tag k="addr:city" v="Sandy"/><tag k="addr:street" v="Highway 26"/></node>
<node id="-5" lat="45.401862377" lon="-122.279323004" visible="true"><tag k="addr:housenumber" v="37345"/><tag k="addr:postcode" v="97055"/><tag k="addr:city" v="Sandy"/><tag k="addr:street" v="Highway 26"/></node>
<node id="-6" lat="45.401858947" lon="-122.279328259" visible="true"><tag k="addr:housenumber" v="37357"/><tag k="addr:postcode" v="97055"/><tag k="addr:city" v="Sandy"/><tag k="addr:street" v="Highway 26"/></node>
<node id="-7" lat="45.401855275" lon="-122.279321246" visible="true"><tag k="addr:housenumber" v="37379"/><tag k="addr:postcode" v="97055"/><tag k="addr:city" v="Sandy"/><tag k="addr:street" v="Highway 26"/></node>
<node id="-8" lat="45.401857855" lon="-122.279324267" visible="true"><tag k="addr:housenumber" v="37383"/><tag k="addr:postcode" v="97055"/><tag k="addr:city" v="Sandy"/><tag k="addr:street" v="Highway 26"/></node>
<node id="-9" lat="45.401856819" lon="-122.279325553" visible="true"><tag k="addr:housenumber" v="37395"/><tag k="addr:postcode" v="97055"/><tag k="addr:city" v="Sandy"/><tag k="addr:street" v="Highway 26"/></node>
<node id="-10" lat="45.403090377" lon="-122.289642704" visible="true"><tag k="addr:housenumber" v="36303"/><tag k="addr:postcode" v="97055"/><tag k="addr:city" v="Sandy"/><tag k="addr:street" v="Industrial Way"/></node>
<node id="-11" lat="45.403403086" lon="-122.289442297" visible="true"><tag k="addr:housenumber" v="36315"/><tag k="addr:postcode" v="97055"/><tag k="addr:city" v="Sandy"/><tag k="addr:street" v="Industrial Way"/></node>
<node id="-12" lat="45.403184728" lon="-122.289573328" visible="true"><tag k="addr:housenumber" v="36327"/><tag k="addr:postcode" v="97055"/><tag k="addr:city" v="Sandy"/><tag k="addr:street" v="Industrial Way"/></node>
<node id="-13" lat="45.403305283" lon="-122.28950592" visible="true"><tag k="addr:housenumber" v="36339"/><tag k="addr:postcode" v="97055"/><tag k="addr:city" v="Sandy"/><tag k="addr:street" v="Industrial Way"/></node>
<node id="-14" lat="45.401461173" lon="-122.271527572" visible="true"><tag k="addr:housenumber" v="38080"/><tag k="addr:postcode" v="97055"/><tag k="addr:city" v="Sandy"/><tag k="addr:street" v="Marcy Street"/></node>
<node id="-15" lat="45.401521167" lon="-122.271478153" visible="true"><tag k="addr:housenumber" v="38100"/><tag k="addr:postcode" v="97055"/><tag k="addr:city" v="Sandy"/><tag k="addr:street" v="Marcy Street"/></node>
<node id="-16" lat="45.401454806" lon="-122.27108429" visible="true"><tag k="addr:housenumber" v="38130"/><tag k="addr:postcode" v="97055"/><tag k="addr:city" v="Sandy"/><tag k="addr:street" v="Marcy Street"/></node>
<node id="-17" lat="45.401419397" lon="-122.270902431" visible="true"><tag k="addr:housenumber" v="38150"/><tag k="addr:postcode" v="97055"/><tag k="addr:city" v="Sandy"/><tag k="addr:street" v="Marcy Street"/></node>
<node id="-18" lat="45.401408234" lon="-122.270675613" visible="true"><tag k="addr:housenumber" v="38190"/><tag k="addr:postcode" v="97055"/><tag k="addr:city" v="Sandy"/><tag k="addr:street" v="Marcy Street"/></node>
<node id="-19" lat="45.401398627" lon="-122.270599273" visible="true"><tag k="addr:housenumber" v="38200"/><tag k="addr:postcode" v="97055"/><tag k="addr:city" v="Sandy"/><tag k="addr:street" v="Marcy Street"/></node>
<node id="-20" lat="45.400568552" lon="-122.273028387" visible="true"><tag k="addr:housenumber" v="37955"/><tag k="addr:postcode" v="97055"/><tag k="addr:city" v="Sandy"/><tag k="addr:street" v="Meeker Street"/></node>
<node id="-21" lat="45.400586567" lon="-122.272928131" visible="true"><tag k="addr:housenumber" v="37965"/><tag k="addr:postcode" v="97055"/><tag k="addr:city" v="Sandy"/><tag k="addr:street" v="Meeker Street"/></node>
<node id="-22" lat="45.400745415" lon="-122.27255953" visible="true"><tag k="addr:housenumber" v="37987"/><tag k="addr:postcode" v="97055"/><tag k="addr:city" v="Sandy"/><tag k="addr:street" v="Meeker Street"/></node>
<node id="-23" lat="45.400684896" lon="-122.27255927" visible="true"><tag k="addr:housenumber" v="37991"/><tag k="addr:postcode" v="97055"/><tag k="addr:city" v="Sandy"/><tag k="addr:street" v="Meeker Street"/></node>
<node id="-24" lat="45.40060977" lon="-122.272548806" visible="true"><tag k="addr:housenumber" v="37995"/><tag k="addr:postcode" v="97055"/><tag k="addr:city" v="Sandy"/><tag k="addr:street" v="Meeker Street"/></node>
<node id="-25" lat="45.400537112" lon="-122.272545063" visible="true"><tag k="addr:housenumber" v="37999"/><tag k="addr:postcode" v="97055"/><tag k="addr:city" v="Sandy"/><tag k="addr:street" v="Meeker Street"/></node>
<node id="-26" lat="45.400749355" lon="-122.272125083" visible="true"><tag k="addr:housenumber" v="38005"/><tag k="addr:postcode" v="97055"/><tag k="addr:city" v="Sandy"/><tag k="addr:street" v="Meeker Street"/></node>
<node id="-27" lat="45.400681562" lon="-122.272116183" visible="true"><tag k="addr:housenumber" v="38009"/><tag k="addr:postcode" v="97055"/><tag k="addr:city" v="Sandy"/><tag k="addr:street" v="Meeker Street"/></node>
<node id="-28" lat="45.400608738" lon="-122.272115292" visible="true"><tag k="addr:housenumber" v="38013"/><tag k="addr:postcode" v="97055"/><tag k="addr:city" v="Sandy"/><tag k="addr:street" v="Meeker Street"/></node>
<node id="-29" lat="45.400552412" lon="-122.272107007" visible="true"><tag k="addr:housenumber" v="38017"/><tag k="addr:postcode" v="97055"/><tag k="addr:city" v="Sandy"/><tag k="addr:street" v="Meeker Street"/></node>
<node id="-30" lat="45.397614487" lon="-122.275920707" visible="true"><tag k="addr:housenumber" v="37750"/><tag k="addr:postcode" v="97055"/><tag k="addr:city" v="Sandy"/><tag k="addr:street" v="Ruben Lane"/></node>
<node id="-31" lat="45.399858693" lon="-122.274669862" visible="true"><tag k="addr:housenumber" v="17045"/><tag k="addr:postcode" v="97055"/><tag k="addr:city" v="Sandy"/><tag k="addr:street" v="University Avenue"/></node>
<node id="-32" lat="45.399805856" lon="-122.274661829" visible="true"><tag k="addr:housenumber" v="17059"/><tag k="addr:postcode" v="97055"/><tag k="addr:city" v="Sandy"/><tag k="addr:street" v="University Avenue"/></node>
<node id="-33" lat="45.399750245" lon="-122.274665414" visible="true"><tag k="addr:housenumber" v="17065"/><tag k="addr:postcode" v="97055"/><tag k="addr:city" v="Sandy"/><tag k="addr:street" v="University Avenue"/></node>
</osm>