<?xml version="1.0"?>
<osm version="0.6" upload="false" generator="uvmogr2osm">
<node id="-1" lat="45.31574689" lon="-122.567945461" visible="true"><tag k="addr:housenumber" v="14355"/><tag k="addr:postcode" v="97045"/><tag k="addr:city" v="Oregon City"/><tag k="addr:street" v="Brittany Terrace"/></node>
<node id="-2" lat="45.315749071" lon="-122.567871786" visible="true"><tag k="addr:housenumber" v="14359"/><tag k="addr:postcode" v="97045"/><tag k="addr:city" v="Oregon City"/><tag k="addr:street" v="Brittany Terrace"/></node>
<node id="-3" lat="45.334763458" lon="-122.569065621" visible="true"><tag k="addr:housenumber" v="18740"/><tag k="addr:postcode" v="97045"/><tag k="addr:city" v="Oregon City"/><tag k="addr:street" v="Elder Road"/></node>
<node id="-4" lat="45.330752511" lon="-122.578196178" visible="true"><tag k="addr:housenumber" v="14181"/><tag k="addr:postcode" v="97045"/><tag k="addr:city" v="Oregon City"/><tag k="addr:street" v="Fir Street"/></node>
<node id="-5" lat="45.330743677" lon="-122.578519994" visible="true"><tag k="addr:housenumber" v="14189"/><tag k="addr:postcode" v="97045"/><tag k="addr:city" v="Oregon City"/><tag k="addr:street" v="Fir Street"/></node>
<node id="-6" lat="45.315765611" lon="-122.567265444" visible="true"><tag k="addr:housenumber" v="20027"/><tag k="addr:postcode" v="97045"/><tag k="addr:city" v="Oregon City"/><tag k="addr:street" v="Mossy Meadows Avenue"/></node>
<node id="-7" lat="45.315847853" lon="-122.567275417" visible="true"><tag k="addr:housenumber" v="20029"/><tag k="addr:postcode" v="97045"/><tag k="addr:city" v="Oregon City"/><tag k="addr:street" v="Mossy Meadows Avenue"/></node>
<node id="-8" lat="45.334762407" lon="-122.56895219" visible="true"><tag k="addr:housenumber" v="14516"/><tag k="addr:postcode" v="97045"/><tag k="addr:city" v="Oregon City"/><tag k="addr:street" v="Sugarpine Street"/></node>
<node id="-9" lat="45.315269156" lon="-122.568373916" visible="true"><tag k="addr:housenumber" v="20073"/><tag k="addr:postcode" v="97045"/><tag k="addr:city" v="Oregon City"/><tag k="addr:street" v="Tad Place"/></node>
<node id="-10" lat="45.315335384" lon="-122.568358606" visible="true"><tag k="addr:housenumber" v="20077"/><tag k="addr:postcode" v="97045"/><tag k="addr:city" v="Oregon City"/><tag k="addr:street" v="Tad Place"/></node>
</osm>