<?xml version="1.0"?>
<osm version="0.6" upload="false" generator="uvmogr2osm">
<node id="-1" lat="45.343522587" lon="-122.594561204" visible="true"><tag k="addr:housenumber" v="600"/><tag k="addr:postcode" v="97045"/><tag k="addr:city" v="Oregon City"/><tag k="addr:street" v="Barclay Hills Drive"/></node>
<node id="-2" lat="45.343402907" lon="-122.5945584" visible="true"><tag k="addr:housenumber" v="602"/><tag k="addr:postcode" v="97045"/><tag k="addr:city" v="Oregon City"/><tag k="addr:street" v="Barclay Hills Drive"/></node>
<node id="-3" lat="45.339699708" lon="-122.595035901" visible="true"><tag k="addr:housenumber" v="1031"/><tag k="addr:postcode" v="97045"/><tag k="addr:city" v="Oregon City"/><tag k="addr:street" v="Bullard Street"/></node>
<node id="-4" lat="45.339657729" lon="-122.595003207" visible="true"><tag k="addr:housenumber" v="1033"/><tag k="addr:postcode" v="97045"/><tag k="addr:city" v="Oregon City"/><tag k="addr:street" v="Bullard Street"/></node>
<node id="-5" lat="45.340831118" lon="-122.592662111" visible="true"><tag k="addr:housenumber" v="425"/><tag k="addr:postcode" v="97045"/><tag k="addr:city" v="Oregon City"/><tag k="addr:street" v="Harris Lane"/></node>
<node id="-6" lat="45.340831874" lon="-122.592589781" visible="true"><tag k="addr:housenumber" v="427"/><tag k="addr:postcode" v="97045"/><tag k="addr:city" v="Oregon City"/><tag k="addr:street" v="Harris Lane"/></node>
<node id="-7" lat="45.340823591" lon="-122.59251779" visible="true"><tag k="addr:housenumber" v="429"/><tag k="addr:postcode" v="97045"/><tag k="addr:city" v="Oregon City"/><tag k="addr:street" v="Harris Lane"/></node>
<node id="-8" lat="45.340824163" lon="-122.592450903" visible="true"><tag k="addr:housenumber" v="431"/><tag k="addr:postcode" v="97045"/><tag k="addr:city" v="Oregon City"/><tag k="addr:street" v="Harris Lane"/></node>
<node id="-9" lat="45.340527548" lon="-122.591401405" visible="true"><tag k="addr:housenumber" v="462"/><tag k="addr:postcode" v="97045"/><tag k="addr:city" v="Oregon City"/><tag k="addr:street" v="Harris Lane"/></node>
<node id="-10" lat="45.340575226" lon="-122.591405248" visible="true"><tag k="addr:housenumber" v="464"/><tag k="addr:postcode" v="97045"/><tag k="addr:city" v="Oregon City"/><tag k="addr:street" v="Harris Lane"/></node>
<node id="-11" lat="45.340730603" lon="-122.591293041" visible="true"><tag k="addr:housenumber" v="466"/><tag k="addr:postcode" v="97045"/><tag k="addr:city" v="Oregon City"/><tag k="addr:street" v="Harris Lane"/></node>
<node id="-12" lat="45.340796095" lon="-122.591311103" visible="true"><tag k="addr:housenumber" v="468"/><tag k="addr:postcode" v="97045"/><tag k="addr:city" v="Oregon City"/><tag k="addr:street" v="Harris Lane"/></node>
<node id="-13" lat="45.340954825" lon="-122.591319972" visible="true"><tag k="addr:housenumber" v="470"/><tag k="addr:postcode" v="97045"/><tag k="addr:city" v="Oregon City"/><tag k="addr:street" v="Harris Lane"/></node>
<node id="-14" lat="45.341015264" lon="-122.591354586" visible="true"><tag k="addr:housenumber" v="472"/><tag k="addr:postcode" v="97045"/><tag k="addr:city" v="Oregon City"/><tag k="addr:street" v="Harris Lane"/></node>
<node id="-15" lat="45.341176" lon="-122.591442855" visible="true"><tag k="addr:housenumber" v="474"/><tag k="addr:postcode" v="97045"/><tag k="addr:city" v="Oregon City"/><tag k="addr:street" v="Harris Lane"/></node>
<node id="-16" lat="45.34118529" lon="-122.591562372" visible="true"><tag k="addr:housenumber" v="476"/><tag k="addr:postcode" v="97045"/><tag k="addr:city" v="Oregon City"/><tag k="addr:street" v="Harris Lane"/></node>
<node id="-17" lat="45.342673305" lon="-122.594980488" visible="true"><tag k="addr:housenumber" v="404"/><tag k="addr:postcode" v="97045"/><tag k="addr:city" v="Oregon City"/><tag k="addr:street" v="Hilda Street"/></node>
<node id="-18" lat="45.342699968" lon="-122.594910939" visible="true"><tag k="addr:housenumber" v="408"/><tag k="addr:postcode" v="97045"/><tag k="addr:city" v="Oregon City"/><tag k="addr:street" v="Hilda Street"/></node>
<node id="-19" lat="45.34271623" lon="-122.594835494" visible="true"><tag k="addr:housenumber" v="410"/><tag k="addr:postcode" v="97045"/><tag k="addr:city" v="Oregon City"/><tag k="addr:street" v="Hilda Street"/></node>
<node id="-20" lat="45.342323763" lon="-122.59560541" visible="true"><tag k="addr:housenumber" v="706"/><tag k="addr:postcode" v="97045"/><tag k="addr:city" v="Oregon City"/><tag k="addr:street" v="Holmes Lane"/></node>
<node id="-21" lat="45.338239318" lon="-122.595993143" visible="true"><tag k="addr:housenumber" v="1125"/><tag k="addr:postcode" v="97045"/><tag k="addr:city" v="Oregon City"/><tag k="addr:street" v="Kamm Street"/></node>
<node id="-22" lat="45.338194331" lon="-122.595986872" visible="true"><tag k="addr:housenumber" v="1127"/><tag k="addr:postcode" v="97045"/><tag k="addr:city" v="Oregon City"/><tag k="addr:street" v="Kamm Street"/></node>
<node id="-23" lat="45.338139591" lon="-122.595979095" visible="true"><tag k="addr:housenumber" v="1129"/><tag k="addr:postcode" v="97045"/><tag k="addr:city" v="Oregon City"/><tag k="addr:street" v="Kamm Street"/></node>
<node id="-24" lat="45.338102492" lon="-122.595979061" visible="true"><tag k="addr:housenumber" v="1131"/><tag k="addr:postcode" v="97045"/><tag k="addr:city" v="Oregon City"/><tag k="addr:street" v="Kamm Street"/></node>
<node id="-25" lat="45.337704188" lon="-122.596019236" visible="true"><tag k="addr:housenumber" v="1141"/><tag k="addr:postcode" v="97045"/><tag k="addr:city" v="Oregon City"/><tag k="addr:street" v="Kamm Street"/></node>
<node id="-26" lat="45.337650411" lon="-122.596023421" visible="true"><tag k="addr:housenumber" v="1143"/><tag k="addr:postcode" v="97045"/><tag k="addr:city" v="Oregon City"/><tag k="addr:street" v="Kamm Street"/></node>
<node id="-27" lat="45.340514524" lon="-122.595725346" visible="true"><tag k="addr:housenumber" v="382"/><tag k="addr:postcode" v="97045"/><tag k="addr:city" v="Oregon City"/><tag k="addr:street" v="May Street"/></node>
<node id="-28" lat="45.340540811" lon="-122.595655051" visible="true"><tag k="addr:housenumber" v="384"/><tag k="addr:postcode" v="97045"/><tag k="addr:city" v="Oregon City"/><tag k="addr:street" v="May Street"/></node>
<node id="-29" lat="45.340686173" lon="-122.595283446" visible="true"><tag k="addr:housenumber" v="390"/><tag k="addr:postcode" v="97045"/><tag k="addr:city" v="Oregon City"/><tag k="addr:street" v="May Street"/></node>
<node id="-30" lat="45.340703057" lon="-122.595214372" visible="true"><tag k="addr:housenumber" v="392"/><tag k="addr:postcode" v="97045"/><tag k="addr:city" v="Oregon City"/><tag k="addr:street" v="May Street"/></node>
<node id="-31" lat="45.33948073" lon="-122.592588618" visible="true"><tag k="addr:housenumber" v="1115"/><tag k="addr:postcode" v="97045"/><tag k="addr:city" v="Oregon City"/><tag k="addr:street" v="Molalla Avenue"/></node>
<node id="-32" lat="45.339447104" lon="-122.592553815" visible="true"><tag k="addr:housenumber" v="1117"/><tag k="addr:postcode" v="97045"/><tag k="addr:city" v="Oregon City"/><tag k="addr:street" v="Molalla Avenue"/></node>
<node id="-33" lat="45.338736826" lon="-122.591592695" visible="true"><tag k="addr:housenumber" v="1143"/><tag k="addr:postcode" v="97045"/><tag k="addr:city" v="Oregon City"/><tag k="addr:street" v="Molalla Avenue"/></node>
<node id="-34" lat="45.338710329" lon="-122.591553558" visible="true"><tag k="addr:housenumber" v="1145"/><tag k="addr:postcode" v="97045"/><tag k="addr:city" v="Oregon City"/><tag k="addr:street" v="Molalla Avenue"/></node>
<node id="-35" lat="45.338041933" lon="-122.591397411" visible="true"><tag k="addr:housenumber" v="1161"/><tag k="addr:postcode" v="97045"/><tag k="addr:city" v="Oregon City"/><tag k="addr:street" v="Molalla Avenue"/></node>
<node id="-36" lat="45.338006921" lon="-122.591381935" visible="true"><tag k="addr:housenumber" v="1163"/><tag k="addr:postcode" v="97045"/><tag k="addr:city" v="Oregon City"/><tag k="addr:street" v="Molalla Avenue"/></node>
<node id="-37" lat="45.342635445" lon="-122.59507061" visible="true"><tag k="addr:housenumber" v="901"/><tag k="addr:postcode" v="97045"/><tag k="addr:city" v="Oregon City"/><tag k="addr:street" v="Molalla Avenue"/></node>
<node id="-38" lat="45.342378805" lon="-122.59546147" visible="true"><tag k="addr:housenumber" v="904"/><tag k="addr:postcode" v="97045"/><tag k="addr:city" v="Oregon City"/><tag k="addr:street" v="Molalla Avenue"/></node>
<node id="-39" lat="45.341234376" lon="-122.594682332" visible="true"><tag k="addr:housenumber" v="952"/><tag k="addr:postcode" v="97045"/><tag k="addr:city" v="Oregon City"/><tag k="addr:street" v="Molalla Avenue"/></node>
<node id="-40" lat="45.341349631" lon="-122.594547842" visible="true"><tag k="addr:housenumber" v="956"/><tag k="addr:postcode" v="97045"/><tag k="addr:city" v="Oregon City"/><tag k="addr:street" v="Molalla Avenue"/></node>
</osm>